{"type":"FeatureCollection","features":[{"type":"Feature","geometry":{"type":"Point","coordinates":[-87.654851,41.793002]},"properties":{"name":"5541 S. Racine Ave","address":"5541 S. Racine Ave","zip":"60636","registryId":"110071986557","acresId":"258169","activeStatus":"","lastReported":"2023-12-13","reportUrl":"https://ofmpub.epa.gov/frs_public2/fii_query_detail.disp_program_facility?p_registry_id=110071986557"}},{"type":"Feature","geometry":{"type":"Point","coordinates":[-87.7382,41.88898]},"properties":{"name":"434-480 North Kilbourn Avenue","address":"434-480 North Kilbourn Avenue","zip":"60624","registryId":"110039544525","acresId":"13875","activeStatus":"","lastReported":"2012-08-24","reportUrl":"https://ofmpub.epa.gov/frs_public2/fii_query_detail.disp_program_facility?p_registry_id=110039544525"}},{"type":"Feature","geometry":{"type":"Point","coordinates":[-87.670864,41.823170999999995]},"properties":{"name":"Chicago Board Of Education","address":"1819 W Pershing Rd","zip":"60609","registryId":"110005844364","acresId":"13879","activeStatus":"","lastReported":"","reportUrl":"https://ofmpub.epa.gov/frs_public2/fii_query_detail.disp_program_facility?p_registry_id=110005844364"}},{"type":"Feature","geometry":{"type":"Point","coordinates":[-87.54522,41.730129999999996]},"properties":{"name":"3242 E 91st St","address":"3242 E 91st St","zip":"60617","registryId":"110071984478","acresId":"254464","activeStatus":"","lastReported":"2023-12-11","reportUrl":"https://ofmpub.epa.gov/frs_public2/fii_query_detail.disp_program_facility?p_registry_id=110071984478"}},{"type":"Feature","geometry":{"type":"Point","coordinates":[-87.736908,41.861801]},"properties":{"name":"Kilbourn Ave Properties","address":"1403 - 1409 And 1415 - 1417 South Kilbourn Ave","zip":"60623","registryId":"110071977006","acresId":"233043","activeStatus":"","lastReported":"2019-10-31","reportUrl":"https://ofmpub.epa.gov/frs_public2/fii_query_detail.disp_program_facility?p_registry_id=110071977006"}},{"type":"Feature","geometry":{"type":"Point","coordinates":[-87.60145299999999,41.714816]},"properties":{"name":"915 E. 99th Street","address":"915 E. 99th Street","zip":"60628","registryId":"110071973954","acresId":"224821","activeStatus":"","lastReported":"2020-06-09","reportUrl":"https://ofmpub.epa.gov/frs_public2/fii_query_detail.disp_program_facility?p_registry_id=110071973954"}},{"type":"Feature","geometry":{"type":"Point","coordinates":[-87.64129,41.74342]},"properties":{"name":"650 West 83rd Street","address":"650 West 83rd Street","zip":"60620","registryId":"110071986999","acresId":"237635","activeStatus":"","lastReported":"2025-04-14","reportUrl":"https://ofmpub.epa.gov/frs_public2/fii_query_detail.disp_program_facility?p_registry_id=110071986999"}},{"type":"Feature","geometry":{"type":"Point","coordinates":[-87.632393,41.884150999999996]},"properties":{"name":"Gateway Park Industrial Complex","address":"76th & Albany","zip":"60602","registryId":"110039531496","acresId":"13890","activeStatus":"","lastReported":"","reportUrl":"https://ofmpub.epa.gov/frs_public2/fii_query_detail.disp_program_facility?p_registry_id=110039531496"}},{"type":"Feature","geometry":{"type":"Point","coordinates":[-87.623018,41.687109]},"properties":{"name":"3 W 114th St","address":"3 W 114th St","zip":"60628","registryId":"110044215435","acresId":"133623","activeStatus":"","lastReported":"2011-09-13","reportUrl":"https://ofmpub.epa.gov/frs_public2/fii_query_detail.disp_program_facility?p_registry_id=110044215435"}},{"type":"Feature","geometry":{"type":"Point","coordinates":[-87.6534,41.78414]},"properties":{"name":"6032 S May St","address":"6032 S May St","zip":"60621","registryId":"110071984487","acresId":"254473","activeStatus":"","lastReported":"2023-12-11","reportUrl":"https://ofmpub.epa.gov/frs_public2/fii_query_detail.disp_program_facility?p_registry_id=110071984487"}},{"type":"Feature","geometry":{"type":"Point","coordinates":[-87.65629,41.8525]},"properties":{"name":"Bnsf Cermak Paseo Segment 3","address":"1201 W Cermak","zip":"60608","registryId":"110071981541","acresId":"254394","activeStatus":"","lastReported":"2023-01-02","reportUrl":"https://ofmpub.epa.gov/frs_public2/fii_query_detail.disp_program_facility?p_registry_id=110071981541"}},{"type":"Feature","geometry":{"type":"Point","coordinates":[-87.72538,41.872]},"properties":{"name":"717 S. Pulaski Rd","address":"717 S. Pulaski Rd.","zip":"60624","registryId":"110071985594","acresId":"258160","activeStatus":"","lastReported":"2024-01-18","reportUrl":"https://ofmpub.epa.gov/frs_public2/fii_query_detail.disp_program_facility?p_registry_id=110071985594"}},{"type":"Feature","geometry":{"type":"Point","coordinates":[-87.73733899999999,41.864146999999996]},"properties":{"name":"1301 South Kilbourn (Valspar)","address":"1301 South Kilbourn","zip":"60623","registryId":"110071967008","acresId":"13880","activeStatus":"","lastReported":"2012-08-24","reportUrl":"https://ofmpub.epa.gov/frs_public2/fii_query_detail.disp_program_facility?p_registry_id=110071967008"}},{"type":"Feature","geometry":{"type":"Point","coordinates":[-87.65494,41.76867]},"properties":{"name":"1215 W 69th St","address":"1215 W 69th St","zip":"60636","registryId":"110071984485","acresId":"254471","activeStatus":"","lastReported":"2023-12-11","reportUrl":"https://ofmpub.epa.gov/frs_public2/fii_query_detail.disp_program_facility?p_registry_id=110071984485"}},{"type":"Feature","geometry":{"type":"Point","coordinates":[-87.71737,41.939229999999995]},"properties":{"name":"Bnsf Little Village Paseo Segment 1","address":"3201 S Central Park","zip":"60623","registryId":"110071982538","acresId":"254412","activeStatus":"","lastReported":"2023-01-02","reportUrl":"https://ofmpub.epa.gov/frs_public2/fii_query_detail.disp_program_facility?p_registry_id=110071982538"}},{"type":"Feature","geometry":{"type":"Point","coordinates":[-87.63853,41.820949999999996]},"properties":{"name":"4021 S. Normal Avenue","address":"4021 S. Normal Avenue","zip":"60609","registryId":"110043082133","acresId":"111272","activeStatus":"","lastReported":"2010-04-05","reportUrl":"https://ofmpub.epa.gov/frs_public2/fii_query_detail.disp_program_facility?p_registry_id=110043082133"}},{"type":"Feature","geometry":{"type":"Point","coordinates":[-87.73140000000001,41.858779999999996]},"properties":{"name":"4234 W 16th St","address":"4234 W 16th St","zip":"60623","registryId":"110071983510","acresId":"254444","activeStatus":"","lastReported":"2023-12-11","reportUrl":"https://ofmpub.epa.gov/frs_public2/fii_query_detail.disp_program_facility?p_registry_id=110071983510"}},{"type":"Feature","geometry":{"type":"Point","coordinates":[-87.70597699999999,41.875405]},"properties":{"name":"417 N Kedzie","address":"417 N Kedzie","zip":"60624","registryId":"110071964760","acresId":"160824","activeStatus":"","lastReported":"2013-03-20","reportUrl":"https://ofmpub.epa.gov/frs_public2/fii_query_detail.disp_program_facility?p_registry_id=110071964760"}},{"type":"Feature","geometry":{"type":"Point","coordinates":[-87.71282099999999,41.86168]},"properties":{"name":"1447 St Louis Ave","address":"1447 St Louis Ave","zip":"60623","registryId":"110071984469","acresId":"254455","activeStatus":"","lastReported":"2023-12-11","reportUrl":"https://ofmpub.epa.gov/frs_public2/fii_query_detail.disp_program_facility?p_registry_id=110071984469"}},{"type":"Feature","geometry":{"type":"Point","coordinates":[-87.74674,41.968036]},"properties":{"name":"4759 N Lawrence","address":"4759 N Lawrence","zip":"60630","registryId":"110038737098","acresId":"88261","activeStatus":"","lastReported":"2012-12-03","reportUrl":"https://ofmpub.epa.gov/frs_public2/fii_query_detail.disp_program_facility?p_registry_id=110038737098"}},{"type":"Feature","geometry":{"type":"Point","coordinates":[-87.73483999999999,41.862179999999995]},"properties":{"name":"1404 S Kostner Ave","address":"1404 S Kostner Ave","zip":"60623","registryId":"110071984471","acresId":"254457","activeStatus":"","lastReported":"2023-12-11","reportUrl":"https://ofmpub.epa.gov/frs_public2/fii_query_detail.disp_program_facility?p_registry_id=110071984471"}},{"type":"Feature","geometry":{"type":"Point","coordinates":[-87.71177,41.913889999999995]},"properties":{"name":"1805 N Kimball","address":"1805 N Kimball","zip":"60612","registryId":"110071963767","acresId":"160821","activeStatus":"","lastReported":"2013-03-20","reportUrl":"https://ofmpub.epa.gov/frs_public2/fii_query_detail.disp_program_facility?p_registry_id=110071963767"}},{"type":"Feature","geometry":{"type":"Point","coordinates":[-87.711776,41.914034]},"properties":{"name":"1807-15 N Kimball","address":"1807-15 N Kimball","zip":"60612","registryId":"110071963768","acresId":"160822","activeStatus":"","lastReported":"2013-03-20","reportUrl":"https://ofmpub.epa.gov/frs_public2/fii_query_detail.disp_program_facility?p_registry_id=110071963768"}},{"type":"Feature","geometry":{"type":"Point","coordinates":[-87.73483999999999,41.862249999999996]},"properties":{"name":"1400 S Kostner Ave","address":"1400 S Kostner Ave","zip":"60623","registryId":"110071984472","acresId":"254458","activeStatus":"","lastReported":"2023-12-11","reportUrl":"https://ofmpub.epa.gov/frs_public2/fii_query_detail.disp_program_facility?p_registry_id=110071984472"}},{"type":"Feature","geometry":{"type":"Point","coordinates":[-87.60512,41.69282]},"properties":{"name":"Pullman Car Manufacturing Company","address":"748 E 111th St","zip":"60628","registryId":"110056370038","acresId":"234848","activeStatus":"","lastReported":"2018-12-06","reportUrl":"https://ofmpub.epa.gov/frs_public2/fii_query_detail.disp_program_facility?p_registry_id=110056370038"}},{"type":"Feature","geometry":{"type":"Point","coordinates":[-87.65868999999999,41.85247]},"properties":{"name":"Bnsf Cermak Paseo Segment 2","address":"1301 W Cermak","zip":"60608","registryId":"110071980544","acresId":"254292","activeStatus":"","lastReported":"2023-01-02","reportUrl":"https://ofmpub.epa.gov/frs_public2/fii_query_detail.disp_program_facility?p_registry_id=110071980544"}},{"type":"Feature","geometry":{"type":"Point","coordinates":[-87.70313499999999,41.895621999999996]},"properties":{"name":"3042 West Chicago Avenue","address":"3042 West Chicago Avenue","zip":"60622","registryId":"110039531174","acresId":"13878","activeStatus":"","lastReported":"2012-08-24","reportUrl":"https://ofmpub.epa.gov/frs_public2/fii_query_detail.disp_program_facility?p_registry_id=110039531174"}},{"type":"Feature","geometry":{"type":"Point","coordinates":[-87.658373,41.685451]},"properties":{"name":"11446 S Bishop St","address":"11446 S Bishop St","zip":"60643","registryId":"110071983513","acresId":"254447","activeStatus":"","lastReported":"2023-12-11","reportUrl":"https://ofmpub.epa.gov/frs_public2/fii_query_detail.disp_program_facility?p_registry_id=110071983513"}},{"type":"Feature","geometry":{"type":"Point","coordinates":[-87.63181999999999,41.85432]},"properties":{"name":"Chinatown Library","address":"2100 S. Wentworth Ave","zip":"60616","registryId":"110071971032","acresId":"200601","activeStatus":"","lastReported":"2024-11-25","reportUrl":"https://ofmpub.epa.gov/frs_public2/fii_query_detail.disp_program_facility?p_registry_id=110071971032"}},{"type":"Feature","geometry":{"type":"Point","coordinates":[-87.745403,41.883837]},"properties":{"name":"172 N. Cicero Ave","address":"172 N. Cicero Ave","zip":"60644","registryId":"110071985596","acresId":"258162","activeStatus":"","lastReported":"2024-01-18","reportUrl":"https://ofmpub.epa.gov/frs_public2/fii_query_detail.disp_program_facility?p_registry_id=110071985596"}},{"type":"Feature","geometry":{"type":"Point","coordinates":[-87.66002,41.79374]},"properties":{"name":"1401 W. Garfield Blvd","address":"1401 W. Garfield Blvd","zip":"60636","registryId":"110071986555","acresId":"258167","activeStatus":"","lastReported":"2024-01-18","reportUrl":"https://ofmpub.epa.gov/frs_public2/fii_query_detail.disp_program_facility?p_registry_id=110071986555"}},{"type":"Feature","geometry":{"type":"Point","coordinates":[-87.604118,41.71797]},"properties":{"name":"9705 S. Cottage Grove","address":"9705 S. Cottage Grove","zip":"60628","registryId":"110038737276","acresId":"88281","activeStatus":"","lastReported":"2012-12-03","reportUrl":"https://ofmpub.epa.gov/frs_public2/fii_query_detail.disp_program_facility?p_registry_id=110038737276"}},{"type":"Feature","geometry":{"type":"Point","coordinates":[-87.60033,41.75132]},"properties":{"name":"Trinity-Imani Village","address":"9659 South Ellis Avenue","zip":"60619","registryId":"110071966174","acresId":"181441","activeStatus":"","lastReported":"2019-10-28","reportUrl":"https://ofmpub.epa.gov/frs_public2/fii_query_detail.disp_program_facility?p_registry_id=110071966174"}},{"type":"Feature","geometry":{"type":"Point","coordinates":[-87.73483999999999,41.862049999999996]},"properties":{"name":"1408 S Kostner Ave","address":"1408 S Kostner Ave","zip":"60623","registryId":"110071984470","acresId":"254456","activeStatus":"","lastReported":"2023-12-11","reportUrl":"https://ofmpub.epa.gov/frs_public2/fii_query_detail.disp_program_facility?p_registry_id=110071984470"}},{"type":"Feature","geometry":{"type":"Point","coordinates":[-87.69518,41.84468]},"properties":{"name":"Bnsf Little Village Paseo Segment 6","address":"2801 W 26th Street","zip":"60623","registryId":"110071982543","acresId":"254417","activeStatus":"","lastReported":"2023-01-02","reportUrl":"https://ofmpub.epa.gov/frs_public2/fii_query_detail.disp_program_facility?p_registry_id=110071982543"}},{"type":"Feature","geometry":{"type":"Point","coordinates":[-87.62592099999999,41.693459]},"properties":{"name":"103 W 110th Pl","address":"103 W 110th Pl","zip":"60628","registryId":"110071983509","acresId":"254443","activeStatus":"","lastReported":"2023-12-11","reportUrl":"https://ofmpub.epa.gov/frs_public2/fii_query_detail.disp_program_facility?p_registry_id=110071983509"}},{"type":"Feature","geometry":{"type":"Point","coordinates":[-87.5591,41.6734]},"properties":{"name":"Unnamed Parcel Site","address":"1/2 Mile East Of Lake Calumet","zip":"60633","registryId":"110015331826","acresId":"10655","activeStatus":"","lastReported":"","reportUrl":"https://ofmpub.epa.gov/frs_public2/fii_query_detail.disp_program_facility?p_registry_id=110015331826"}},{"type":"Feature","geometry":{"type":"Point","coordinates":[-87.70831,41.874579999999995]},"properties":{"name":"3260 W. Congress Pkwy","address":"3260 W. Congress Parkway","zip":"60624","registryId":"110071985592","acresId":"258158","activeStatus":"","lastReported":"2024-01-23","reportUrl":"https://ofmpub.epa.gov/frs_public2/fii_query_detail.disp_program_facility?p_registry_id=110071985592"}},{"type":"Feature","geometry":{"type":"Point","coordinates":[-87.609534,41.821442999999995]},"properties":{"name":"Bronzeville","address":"707-755 E 40th St","zip":"60653","registryId":"110039531414","acresId":"13888","activeStatus":"","lastReported":"","reportUrl":"https://ofmpub.epa.gov/frs_public2/fii_query_detail.disp_program_facility?p_registry_id=110039531414"}},{"type":"Feature","geometry":{"type":"Point","coordinates":[-87.65290999999999,41.677662]},"properties":{"name":"Former Amforge Facility","address":"1250 W. 119th Street","zip":"60643-5108","registryId":"110038710883","acresId":"27681","activeStatus":"","lastReported":"2007-01-25","reportUrl":"https://ofmpub.epa.gov/frs_public2/fii_query_detail.disp_program_facility?p_registry_id=110038710883"}},{"type":"Feature","geometry":{"type":"Point","coordinates":[-87.64600999999999,41.79429]},"properties":{"name":"818 W Garfield Blvd","address":"818 W Garfield Blvd","zip":"60609","registryId":"110071984481","acresId":"254467","activeStatus":"","lastReported":"2023-12-11","reportUrl":"https://ofmpub.epa.gov/frs_public2/fii_query_detail.disp_program_facility?p_registry_id=110071984481"}},{"type":"Feature","geometry":{"type":"Point","coordinates":[-87.70369,41.84077]},"properties":{"name":"Bnsf Little Village Paseo Segment 4","address":"2801 S Troy","zip":"60623","registryId":"110071982541","acresId":"254415","activeStatus":"","lastReported":"2023-01-02","reportUrl":"https://ofmpub.epa.gov/frs_public2/fii_query_detail.disp_program_facility?p_registry_id=110071982541"}},{"type":"Feature","geometry":{"type":"Point","coordinates":[-87.72493,41.85779]},"properties":{"name":"1634 S Pulaski Rd","address":"1634 S Pulaski Rd","zip":"60623","registryId":"110071983516","acresId":"254450","activeStatus":"","lastReported":"2023-12-11","reportUrl":"https://ofmpub.epa.gov/frs_public2/fii_query_detail.disp_program_facility?p_registry_id=110071983516"}},{"type":"Feature","geometry":{"type":"Point","coordinates":[-87.595744,41.761846999999996]},"properties":{"name":"Woodlawn Park","address":"7327 S. Woodlawn","zip":"60619","registryId":"110038737267","acresId":"85481","activeStatus":"","lastReported":"2011-02-18","reportUrl":"https://ofmpub.epa.gov/frs_public2/fii_query_detail.disp_program_facility?p_registry_id=110038737267"}},{"type":"Feature","geometry":{"type":"Point","coordinates":[-87.614109,41.751114]},"properties":{"name":"Whitney Young Library Replacement Site 2","address":"419 East 79th Street","zip":"60619","registryId":"110071964367","acresId":"168023","activeStatus":"","lastReported":"2015-05-08","reportUrl":"https://ofmpub.epa.gov/frs_public2/fii_query_detail.disp_program_facility?p_registry_id=110071964367"}},{"type":"Feature","geometry":{"type":"Point","coordinates":[-87.60512,41.69282]},"properties":{"name":"Pullman Car Manufacturing Company","address":"748 E 111th St","zip":"60628","registryId":"110056370038","acresId":"182221","activeStatus":"","lastReported":"2015-02-09","reportUrl":"https://ofmpub.epa.gov/frs_public2/fii_query_detail.disp_program_facility?p_registry_id=110056370038"}},{"type":"Feature","geometry":{"type":"Point","coordinates":[-87.62024,41.89196]},"properties":{"name":"Chicago Hometown Award - Bloomingdale Park Trail","address":"541 N Fairbanks 22nd Fl","zip":"60611-3319","registryId":"110005873260","acresId":"163846","activeStatus":"","lastReported":"2013-06-26","reportUrl":"https://ofmpub.epa.gov/frs_public2/fii_query_detail.disp_program_facility?p_registry_id=110005873260"}},{"type":"Feature","geometry":{"type":"Point","coordinates":[-87.63244999999999,41.883829999999996]},"properties":{"name":"3350 S. Kedzie","address":"122 La Salle St N","zip":"60602","registryId":"110060983039","acresId":"13891","activeStatus":"","lastReported":"","reportUrl":"https://ofmpub.epa.gov/frs_public2/fii_query_detail.disp_program_facility?p_registry_id=110060983039"}},{"type":"Feature","geometry":{"type":"Point","coordinates":[-87.53372,41.737849999999995]},"properties":{"name":"South Chicago & South Works","address":"3333 E. 87th Street","zip":"60617","registryId":"110039545258","acresId":"13894","activeStatus":"","lastReported":"2016-12-13","reportUrl":"https://ofmpub.epa.gov/frs_public2/fii_query_detail.disp_program_facility?p_registry_id=110039545258"}},{"type":"Feature","geometry":{"type":"Point","coordinates":[-87.61314999999999,41.80396]},"properties":{"name":"510 E 50th St","address":"510 E 50th St","zip":"60615","registryId":"110071983499","acresId":"254433","activeStatus":"","lastReported":"2023-12-11","reportUrl":"https://ofmpub.epa.gov/frs_public2/fii_query_detail.disp_program_facility?p_registry_id=110071983499"}},{"type":"Feature","geometry":{"type":"Point","coordinates":[-87.6489,41.852615]},"properties":{"name":"Bnsf Cermak Paseo Segment 8","address":"926 W Cermak","zip":"60608","registryId":"110071982534","acresId":"254408","activeStatus":"","lastReported":"2023-01-02","reportUrl":"https://ofmpub.epa.gov/frs_public2/fii_query_detail.disp_program_facility?p_registry_id=110071982534"}},{"type":"Feature","geometry":{"type":"Point","coordinates":[-87.66651999999999,41.725809999999996]},"properties":{"name":"9200 S Vanderpoel","address":"9200 S Vanderpoel","zip":"60643","registryId":"110071968706","acresId":"144443","activeStatus":"","lastReported":"2012-04-30","reportUrl":"https://ofmpub.epa.gov/frs_public2/fii_query_detail.disp_program_facility?p_registry_id=110071968706"}},{"type":"Feature","geometry":{"type":"Point","coordinates":[-87.62077,41.69433]},"properties":{"name":"Roseland Community","address":"110th Place And Michigan, East Side Of State St.","zip":"60628","registryId":"110039544589","acresId":"13876","activeStatus":"","lastReported":"2009-04-01","reportUrl":"https://ofmpub.epa.gov/frs_public2/fii_query_detail.disp_program_facility?p_registry_id=110039544589"}},{"type":"Feature","geometry":{"type":"Point","coordinates":[-87.62534,41.685300000000005]},"properties":{"name":"11500 S Perry","address":"11500 S Perry","zip":"60628","registryId":"110044215444","acresId":"133625","activeStatus":"","lastReported":"2011-10-13","reportUrl":"https://ofmpub.epa.gov/frs_public2/fii_query_detail.disp_program_facility?p_registry_id=110044215444"}},{"type":"Feature","geometry":{"type":"Point","coordinates":[-87.73325,41.880649999999996]},"properties":{"name":"4301 W Madison St","address":"4301 W Madison St","zip":"60624","registryId":"110071983502","acresId":"254436","activeStatus":"","lastReported":"2023-12-11","reportUrl":"https://ofmpub.epa.gov/frs_public2/fii_query_detail.disp_program_facility?p_registry_id=110071983502"}},{"type":"Feature","geometry":{"type":"Point","coordinates":[-87.62651,41.829229999999995]},"properties":{"name":"Park Boulevard","address":"3600-3640 South State Street","zip":"60609","registryId":"110046368480","acresId":"139344","activeStatus":"","lastReported":"2013-08-08","reportUrl":"https://ofmpub.epa.gov/frs_public2/fii_query_detail.disp_program_facility?p_registry_id=110046368480"}},{"type":"Feature","geometry":{"type":"Point","coordinates":[-87.614031,41.751115999999996]},"properties":{"name":"Whitney Young Library Replacement Site 3","address":"421-423 East 79th Street","zip":"60619","registryId":"110071964368","acresId":"168024","activeStatus":"","lastReported":"2015-05-05","reportUrl":"https://ofmpub.epa.gov/frs_public2/fii_query_detail.disp_program_facility?p_registry_id=110071964368"}},{"type":"Feature","geometry":{"type":"Point","coordinates":[-87.711776,41.914034]},"properties":{"name":"Kimball Avenue Park","address":"1807-1815 N Kimball Ave","zip":"60647","registryId":"110054833524","acresId":"164101","activeStatus":"","lastReported":"2013-06-26","reportUrl":"https://ofmpub.epa.gov/frs_public2/fii_query_detail.disp_program_facility?p_registry_id=110054833524"}},{"type":"Feature","geometry":{"type":"Point","coordinates":[-87.62024,41.89196]},"properties":{"name":"Chicago Hometown Award - Bloomingdale Park Trail","address":"541 N Fairbanks 22nd Fl","zip":"60611-3319","registryId":"110005873260","acresId":"163845","activeStatus":"","lastReported":"2013-06-26","reportUrl":"https://ofmpub.epa.gov/frs_public2/fii_query_detail.disp_program_facility?p_registry_id=110005873260"}},{"type":"Feature","geometry":{"type":"Point","coordinates":[-87.62096,41.7993]},"properties":{"name":"5222 S Indiana Ave","address":"5222 S Indiana Ave","zip":"60615","registryId":"110071984480","acresId":"254466","activeStatus":"","lastReported":"2023-12-11","reportUrl":"https://ofmpub.epa.gov/frs_public2/fii_query_detail.disp_program_facility?p_registry_id=110071984480"}},{"type":"Feature","geometry":{"type":"Point","coordinates":[-87.65760999999999,41.8067]},"properties":{"name":"4802 S Throop St","address":"4802 S Throop St","zip":"60609","registryId":"110071983507","acresId":"254441","activeStatus":"","lastReported":"2023-12-11","reportUrl":"https://ofmpub.epa.gov/frs_public2/fii_query_detail.disp_program_facility?p_registry_id=110071983507"}},{"type":"Feature","geometry":{"type":"Point","coordinates":[-87.66197,41.79371]},"properties":{"name":"1459 W. Garfield Blvd","address":"1459 W. Garfield Blvd","zip":"60636","registryId":"110071985600","acresId":"258166","activeStatus":"","lastReported":"2024-01-18","reportUrl":"https://ofmpub.epa.gov/frs_public2/fii_query_detail.disp_program_facility?p_registry_id=110071985600"}},{"type":"Feature","geometry":{"type":"Point","coordinates":[-87.66358,41.85219]},"properties":{"name":"Bnsf Cermak Paseo Segment 1","address":"2245 S Laflin","zip":"60608","registryId":"110071980543","acresId":"254291","activeStatus":"","lastReported":"2023-01-02","reportUrl":"https://ofmpub.epa.gov/frs_public2/fii_query_detail.disp_program_facility?p_registry_id=110071980543"}},{"type":"Feature","geometry":{"type":"Point","coordinates":[-87.7179,41.85339]},"properties":{"name":"3701 W. Ogdan","address":"3701 W. Ogdan","zip":"60623-2557","registryId":"110039545203","acresId":"13882","activeStatus":"","lastReported":"","reportUrl":"https://ofmpub.epa.gov/frs_public2/fii_query_detail.disp_program_facility?p_registry_id=110039545203"}},{"type":"Feature","geometry":{"type":"Point","coordinates":[-87.64841,41.853867]},"properties":{"name":"Bnsf Cermak Paseo Segment 6","address":"2102 S Canalport","zip":"60608","registryId":"110071982529","acresId":"254403","activeStatus":"","lastReported":"2023-01-02","reportUrl":"https://ofmpub.epa.gov/frs_public2/fii_query_detail.disp_program_facility?p_registry_id=110071982529"}},{"type":"Feature","geometry":{"type":"Point","coordinates":[-87.72135,41.86085]},"properties":{"name":"1459 S Avers Ave","address":"1459 S Avers Ave","zip":"60623","registryId":"110071984467","acresId":"254453","activeStatus":"","lastReported":"2023-12-11","reportUrl":"https://ofmpub.epa.gov/frs_public2/fii_query_detail.disp_program_facility?p_registry_id=110071984467"}},{"type":"Feature","geometry":{"type":"Point","coordinates":[-87.66927,41.78792]},"properties":{"name":"Wood Street Urban Farm","address":"5814 S Wood St","zip":"60636","registryId":"110044961486","acresId":"161521","activeStatus":"","lastReported":"2015-10-08","reportUrl":"https://ofmpub.epa.gov/frs_public2/fii_query_detail.disp_program_facility?p_registry_id=110044961486"}},{"type":"Feature","geometry":{"type":"Point","coordinates":[-87.72666,41.85884]},"properties":{"name":"4043 W 16th St","address":"4043 W 16th St","zip":"60623","registryId":"110071983515","acresId":"254449","activeStatus":"","lastReported":"2023-12-11","reportUrl":"https://ofmpub.epa.gov/frs_public2/fii_query_detail.disp_program_facility?p_registry_id=110071983515"}},{"type":"Feature","geometry":{"type":"Point","coordinates":[-87.71619,41.89163]},"properties":{"name":"Ujima Garden","address":"545 N Central Park Ave","zip":"60624","registryId":"110046094418","acresId":"144441","activeStatus":"","lastReported":"2013-02-11","reportUrl":"https://ofmpub.epa.gov/frs_public2/fii_query_detail.disp_program_facility?p_registry_id=110046094418"}},{"type":"Feature","geometry":{"type":"Point","coordinates":[-87.65858999999999,41.84885]},"properties":{"name":"Throop St Inlet","address":"2401 S Throop St","zip":"60608","registryId":"110071978081","acresId":"236529","activeStatus":"","lastReported":"2018-03-30","reportUrl":"https://ofmpub.epa.gov/frs_public2/fii_query_detail.disp_program_facility?p_registry_id=110071978081"}},{"type":"Feature","geometry":{"type":"Point","coordinates":[-87.66447,41.7897]},"properties":{"name":"5720 S. Ashland Ave","address":"5720 S. Ashland Ave","zip":"60636","registryId":"110071986559","acresId":"258171","activeStatus":"","lastReported":"2024-01-18","reportUrl":"https://ofmpub.epa.gov/frs_public2/fii_query_detail.disp_program_facility?p_registry_id=110071986559"}},{"type":"Feature","geometry":{"type":"Point","coordinates":[-87.63244999999999,41.883829999999996]},"properties":{"name":"9705 S. Cottage Grove","address":"122 La Salle St N","zip":"60602","registryId":"110039531398","acresId":"13886","activeStatus":"","lastReported":"","reportUrl":"https://ofmpub.epa.gov/frs_public2/fii_query_detail.disp_program_facility?p_registry_id=110039531398"}},{"type":"Feature","geometry":{"type":"Point","coordinates":[-87.69980000000001,41.87376]},"properties":{"name":"2931 W. Harrison St.","address":"2931 W. Harrison St.","zip":"60612","registryId":"110071985595","acresId":"258161","activeStatus":"","lastReported":"2024-01-23","reportUrl":"https://ofmpub.epa.gov/frs_public2/fii_query_detail.disp_program_facility?p_registry_id=110071985595"}},{"type":"Feature","geometry":{"type":"Point","coordinates":[-87.654502,41.780395999999996]},"properties":{"name":"6245 S. Racine Ave","address":"6245 S. Racine Ave","zip":"60636","registryId":"110071986560","acresId":"258172","activeStatus":"","lastReported":"2024-01-18","reportUrl":"https://ofmpub.epa.gov/frs_public2/fii_query_detail.disp_program_facility?p_registry_id=110071986560"}},{"type":"Feature","geometry":{"type":"Point","coordinates":[-87.592221,41.726797999999995]},"properties":{"name":"Burnside Steel (South)","address":"1326 E. 92nd Place","zip":"60619","registryId":"110039531290","acresId":"13884","activeStatus":"","lastReported":"","reportUrl":"https://ofmpub.epa.gov/frs_public2/fii_query_detail.disp_program_facility?p_registry_id=110039531290"}},{"type":"Feature","geometry":{"type":"Point","coordinates":[-87.73912,41.8778]},"properties":{"name":"Scott Peterson Meats","address":"4532-52 West Adams Street","zip":"60624","registryId":"110039544874","acresId":"13881","activeStatus":"","lastReported":"","reportUrl":"https://ofmpub.epa.gov/frs_public2/fii_query_detail.disp_program_facility?p_registry_id=110039544874"}},{"type":"Feature","geometry":{"type":"Point","coordinates":[-87.68191999999999,41.806619999999995]},"properties":{"name":"West 48th And Oakley","address":"West 48th And Oakley","zip":"60609","registryId":"110015331504","acresId":"10604","activeStatus":"","lastReported":"","reportUrl":"https://ofmpub.epa.gov/frs_public2/fii_query_detail.disp_program_facility?p_registry_id=110015331504"}},{"type":"Feature","geometry":{"type":"Point","coordinates":[-87.653877,41.852543]},"properties":{"name":"Bnsf Cermak Paseo Segment 4","address":"1125 W Cermak","zip":"60613","registryId":"110071982526","acresId":"254400","activeStatus":"","lastReported":"2023-01-02","reportUrl":"https://ofmpub.epa.gov/frs_public2/fii_query_detail.disp_program_facility?p_registry_id=110071982526"}},{"type":"Feature","geometry":{"type":"Point","coordinates":[-87.64098,41.821079999999995]},"properties":{"name":"40th Place And Wallace","address":"4007 S Wallace St","zip":"60609","registryId":"110071968709","acresId":"144446","activeStatus":"","lastReported":"2012-04-30","reportUrl":"https://ofmpub.epa.gov/frs_public2/fii_query_detail.disp_program_facility?p_registry_id=110071968709"}},{"type":"Feature","geometry":{"type":"Point","coordinates":[-87.73733399999999,41.863962]},"properties":{"name":"1311 South Kilbourn Avenue","address":"1311 South Kilbourn Avenue","zip":"60623","registryId":"110071973031","acresId":"235022","activeStatus":"","lastReported":"2019-10-31","reportUrl":"https://ofmpub.epa.gov/frs_public2/fii_query_detail.disp_program_facility?p_registry_id=110071973031"}},{"type":"Feature","geometry":{"type":"Point","coordinates":[-87.66456,41.79309]},"properties":{"name":"5517 S. Ashland Ave","address":"5517 S. Ashland Ave","zip":"60636","registryId":"110071986558","acresId":"258170","activeStatus":"","lastReported":"2023-12-13","reportUrl":"https://ofmpub.epa.gov/frs_public2/fii_query_detail.disp_program_facility?p_registry_id=110071986558"}},{"type":"Feature","geometry":{"type":"Point","coordinates":[-87.72536,41.871449999999996]},"properties":{"name":"736 S. Pulaski Road","address":"736 S. Pulaski Road","zip":"60624","registryId":"110071985591","acresId":"258157","activeStatus":"","lastReported":"2023-12-13","reportUrl":"https://ofmpub.epa.gov/frs_public2/fii_query_detail.disp_program_facility?p_registry_id=110071985591"}},{"type":"Feature","geometry":{"type":"Point","coordinates":[-87.63839,41.75617]},"properties":{"name":"Parnell Place","address":"76th &  Parnell","zip":"60620","registryId":"110039531548","acresId":"13892","activeStatus":"","lastReported":"","reportUrl":"https://ofmpub.epa.gov/frs_public2/fii_query_detail.disp_program_facility?p_registry_id=110039531548"}},{"type":"Feature","geometry":{"type":"Point","coordinates":[-87.6289,41.8485]},"properties":{"name":"24th And Federal","address":"2400 S Federal","zip":"60616","registryId":"110040724641","acresId":"110566","activeStatus":"","lastReported":"2010-04-09","reportUrl":"https://ofmpub.epa.gov/frs_public2/fii_query_detail.disp_program_facility?p_registry_id=110040724641"}},{"type":"Feature","geometry":{"type":"Point","coordinates":[-87.72865,41.85969]},"properties":{"name":"1531 S Kedvale Ave","address":"1531 S Kedvale Ave","zip":"60623","registryId":"110071983511","acresId":"254445","activeStatus":"","lastReported":"2023-12-11","reportUrl":"https://ofmpub.epa.gov/frs_public2/fii_query_detail.disp_program_facility?p_registry_id=110071983511"}},{"type":"Feature","geometry":{"type":"Point","coordinates":[-87.7338,41.86239]},"properties":{"name":"4334 W 14th St","address":"4334 W 14th St","zip":"60623","registryId":"110071984473","acresId":"254459","activeStatus":"","lastReported":"2023-12-11","reportUrl":"https://ofmpub.epa.gov/frs_public2/fii_query_detail.disp_program_facility?p_registry_id=110071984473"}},{"type":"Feature","geometry":{"type":"Point","coordinates":[-87.707279,41.764586]},"properties":{"name":"Green Demolition Specifications","address":"Region V","zip":"60604","registryId":"110071969728","acresId":"156088","activeStatus":"","lastReported":"2013-05-16","reportUrl":"https://ofmpub.epa.gov/frs_public2/fii_query_detail.disp_program_facility?p_registry_id=110071969728"}},{"type":"Feature","geometry":{"type":"Point","coordinates":[-87.742447,41.870183]},"properties":{"name":"832 S. Kilpatrick","address":"832 S. Kilpatrick","zip":"60644","registryId":"110071973955","acresId":"224861","activeStatus":"","lastReported":"2019-10-31","reportUrl":"https://ofmpub.epa.gov/frs_public2/fii_query_detail.disp_program_facility?p_registry_id=110071973955"}},{"type":"Feature","geometry":{"type":"Point","coordinates":[-87.66776,41.91429]},"properties":{"name":"Park 512 Avenue Park","address":"1800 N Ashland Ave","zip":"60622","registryId":"110005863100","acresId":"164102","activeStatus":"","lastReported":"2013-06-26","reportUrl":"https://ofmpub.epa.gov/frs_public2/fii_query_detail.disp_program_facility?p_registry_id=110005863100"}},{"type":"Feature","geometry":{"type":"Point","coordinates":[-87.54293,41.732009999999995]},"properties":{"name":"South Chicago Park","address":"90th St And Mackinaw Ave","zip":"60617","registryId":"110039531584","acresId":"13895","activeStatus":"","lastReported":"","reportUrl":"https://ofmpub.epa.gov/frs_public2/fii_query_detail.disp_program_facility?p_registry_id=110039531584"}},{"type":"Feature","geometry":{"type":"Point","coordinates":[-87.72509,41.86382]},"properties":{"name":"1316 S Pulaski Rd","address":"1316 S Pulaski Rd","zip":"60623","registryId":"110071984466","acresId":"254452","activeStatus":"","lastReported":"2023-12-11","reportUrl":"https://ofmpub.epa.gov/frs_public2/fii_query_detail.disp_program_facility?p_registry_id=110071984466"}},{"type":"Feature","geometry":{"type":"Point","coordinates":[-87.7264,41.85884]},"properties":{"name":"4045 W 16th St","address":"4045 W. 16th St","zip":"60623","registryId":"110071983512","acresId":"254446","activeStatus":"","lastReported":"2023-12-11","reportUrl":"https://ofmpub.epa.gov/frs_public2/fii_query_detail.disp_program_facility?p_registry_id=110071983512"}},{"type":"Feature","geometry":{"type":"Point","coordinates":[-87.70833999999999,41.87779]},"properties":{"name":"Marshall Faraday Campus Park","address":"3300-3312 W 5th Ave","zip":"60624","registryId":"110027985704","acresId":"15744","activeStatus":"","lastReported":"2007-11-24","reportUrl":"https://ofmpub.epa.gov/frs_public2/fii_query_detail.disp_program_facility?p_registry_id=110027985704"}},{"type":"Feature","geometry":{"type":"Point","coordinates":[-87.69834,41.886500000000005]},"properties":{"name":"2848 W Fulton St","address":"2848 W Fulton St","zip":"60612","registryId":"110071984483","acresId":"254469","activeStatus":"","lastReported":"2023-12-11","reportUrl":"https://ofmpub.epa.gov/frs_public2/fii_query_detail.disp_program_facility?p_registry_id=110071984483"}},{"type":"Feature","geometry":{"type":"Point","coordinates":[-87.551435,41.731702]},"properties":{"name":"Calumet Region Area Wide Planning","address":"Calumet Region","zip":"60617","registryId":"110071971578","acresId":"197501","activeStatus":"","lastReported":"2019-10-28","reportUrl":"https://ofmpub.epa.gov/frs_public2/fii_query_detail.disp_program_facility?p_registry_id=110071971578"}},{"type":"Feature","geometry":{"type":"Point","coordinates":[-87.695985,41.869910999999995]},"properties":{"name":"Roosevelt And California","address":"927 S California Ave","zip":"60612","registryId":"110039531441","acresId":"13889","activeStatus":"","lastReported":"","reportUrl":"https://ofmpub.epa.gov/frs_public2/fii_query_detail.disp_program_facility?p_registry_id=110039531441"}},{"type":"Feature","geometry":{"type":"Point","coordinates":[-87.63244999999999,41.883829999999996]},"properties":{"name":"Sun Machine Parts","address":"122 La Salle St N","zip":"60602","registryId":"110039531316","acresId":"13885","activeStatus":"","lastReported":"","reportUrl":"https://ofmpub.epa.gov/frs_public2/fii_query_detail.disp_program_facility?p_registry_id=110039531316"}},{"type":"Feature","geometry":{"type":"Point","coordinates":[-87.73378699999999,41.889722]},"properties":{"name":"4311 West Ferdinand","address":"4311 West Ferdinand","zip":"60624","registryId":"110039544696","acresId":"13877","activeStatus":"","lastReported":"","reportUrl":"https://ofmpub.epa.gov/frs_public2/fii_query_detail.disp_program_facility?p_registry_id=110039544696"}},{"type":"Feature","geometry":{"type":"Point","coordinates":[-87.71016,41.91364]},"properties":{"name":"1800 N Spaulding Avenue","address":"1800 N Spaulding Ave","zip":"60647","registryId":"110005814994","acresId":"160801","activeStatus":"","lastReported":"2013-04-01","reportUrl":"https://ofmpub.epa.gov/frs_public2/fii_query_detail.disp_program_facility?p_registry_id=110005814994"}},{"type":"Feature","geometry":{"type":"Point","coordinates":[-87.72717,41.85883]},"properties":{"name":"4055 W 16th St","address":"4055 W 16th St","zip":"60623","registryId":"110071984488","acresId":"254474","activeStatus":"","lastReported":"2023-12-11","reportUrl":"https://ofmpub.epa.gov/frs_public2/fii_query_detail.disp_program_facility?p_registry_id=110071984488"}},{"type":"Feature","geometry":{"type":"Point","coordinates":[-87.70792,41.83716]},"properties":{"name":"Bnsf Little Village Paseo Segment 3","address":"3326 W 31st Street","zip":"60623","registryId":"110071982540","acresId":"254414","activeStatus":"","lastReported":"2023-01-02","reportUrl":"https://ofmpub.epa.gov/frs_public2/fii_query_detail.disp_program_facility?p_registry_id=110071982540"}},{"type":"Feature","geometry":{"type":"Point","coordinates":[-87.63522999999999,41.746900000000004]},"properties":{"name":"8104 S Vincennes Ave","address":"8104 S Vincennes Ave","zip":"60620","registryId":"110071983504","acresId":"254438","activeStatus":"","lastReported":"2023-12-11","reportUrl":"https://ofmpub.epa.gov/frs_public2/fii_query_detail.disp_program_facility?p_registry_id=110071983504"}},{"type":"Feature","geometry":{"type":"Point","coordinates":[-87.67,41.8157]},"properties":{"name":"4301 S Wood St","address":"4301 S Wood St","zip":"60609","registryId":"110071983506","acresId":"254440","activeStatus":"","lastReported":"2023-12-11","reportUrl":"https://ofmpub.epa.gov/frs_public2/fii_query_detail.disp_program_facility?p_registry_id=110071983506"}},{"type":"Feature","geometry":{"type":"Point","coordinates":[-87.6426,41.743379999999995]},"properties":{"name":"729 W 83rd St","address":"729 W 83rd St","zip":"60620","registryId":"110071983505","acresId":"254439","activeStatus":"","lastReported":"2023-12-11","reportUrl":"https://ofmpub.epa.gov/frs_public2/fii_query_detail.disp_program_facility?p_registry_id=110071983505"}},{"type":"Feature","geometry":{"type":"Point","coordinates":[-87.72782,41.86613]},"properties":{"name":"4103 W Roosevelt Rd","address":"4103 W Roosevelt Rd","zip":"60624","registryId":"110071984476","acresId":"254462","activeStatus":"","lastReported":"2023-12-11","reportUrl":"https://ofmpub.epa.gov/frs_public2/fii_query_detail.disp_program_facility?p_registry_id=110071984476"}},{"type":"Feature","geometry":{"type":"Point","coordinates":[-87.63445999999999,41.75784]},"properties":{"name":"7504 S Stewart Ave","address":"7504 S Stewart Ave","zip":"60620","registryId":"110071984486","acresId":"254472","activeStatus":"","lastReported":"2023-12-11","reportUrl":"https://ofmpub.epa.gov/frs_public2/fii_query_detail.disp_program_facility?p_registry_id=110071984486"}},{"type":"Feature","geometry":{"type":"Point","coordinates":[-87.5596,41.701792]},"properties":{"name":"Sun Machine Parts","address":"10655 Torrence Avenue","zip":"60617","registryId":"110009282695","acresId":"233081","activeStatus":"","lastReported":"2019-10-31","reportUrl":"https://ofmpub.epa.gov/frs_public2/fii_query_detail.disp_program_facility?p_registry_id=110009282695"}},{"type":"Feature","geometry":{"type":"Point","coordinates":[-87.65408,41.79381]},"properties":{"name":"1141 W. Garfield Blvd","address":"1141 W. Garfield Blvd","zip":"60621","registryId":"110071986556","acresId":"258168","activeStatus":"","lastReported":"2024-01-18","reportUrl":"https://ofmpub.epa.gov/frs_public2/fii_query_detail.disp_program_facility?p_registry_id=110071986556"}},{"type":"Feature","geometry":{"type":"Point","coordinates":[-87.73769,41.87354]},"properties":{"name":"521 S. Kilbourn Ave","address":"521 S. Kilbourn Ave","zip":"60624","registryId":"110071985593","acresId":"258159","activeStatus":"","lastReported":"2024-01-18","reportUrl":"https://ofmpub.epa.gov/frs_public2/fii_query_detail.disp_program_facility?p_registry_id=110071985593"}},{"type":"Feature","geometry":{"type":"Point","coordinates":[-87.64336,41.81895]},"properties":{"name":"Boyce Park","address":"Union Ave Between 42nd & Root Streets","zip":"60609","registryId":"110071966992","acresId":"13887","activeStatus":"","lastReported":"2009-04-01","reportUrl":"https://ofmpub.epa.gov/frs_public2/fii_query_detail.disp_program_facility?p_registry_id=110071966992"}},{"type":"Feature","geometry":{"type":"Point","coordinates":[-87.64932999999999,41.76876]},"properties":{"name":"Salvation Army Red Shield","address":"69th & Morgan","zip":"60621","registryId":"110039531557","acresId":"13893","activeStatus":"","lastReported":"","reportUrl":"https://ofmpub.epa.gov/frs_public2/fii_query_detail.disp_program_facility?p_registry_id=110039531557"}},{"type":"Feature","geometry":{"type":"Point","coordinates":[-87.73671999999999,41.8806]},"properties":{"name":"4430 W Madison St","address":"4430 W Madison St","zip":"60624","registryId":"110071983501","acresId":"254435","activeStatus":"","lastReported":"2024-02-04","reportUrl":"https://ofmpub.epa.gov/frs_public2/fii_query_detail.disp_program_facility?p_registry_id=110071983501"}},{"type":"Feature","geometry":{"type":"Point","coordinates":[-87.544304,41.731125999999996]},"properties":{"name":"9031 S Buffalo Ave","address":"9031 S Buffalo Ave","zip":"60617","registryId":"110071984479","acresId":"254465","activeStatus":"","lastReported":"2023-12-11","reportUrl":"https://ofmpub.epa.gov/frs_public2/fii_query_detail.disp_program_facility?p_registry_id=110071984479"}},{"type":"Feature","geometry":{"type":"Point","coordinates":[-87.7037,41.84164]},"properties":{"name":"2727 S Troy","address":"2727 S Troy","zip":"60623-4716","registryId":"110032923282","acresId":"89681","activeStatus":"","lastReported":"2010-04-05","reportUrl":"https://ofmpub.epa.gov/frs_public2/fii_query_detail.disp_program_facility?p_registry_id=110032923282"}},{"type":"Feature","geometry":{"type":"Point","coordinates":[-87.65208,41.89501]},"properties":{"name":"951 W. Huron","address":"951 W. Huron","zip":"60642","registryId":"110071969787","acresId":"144453","activeStatus":"","lastReported":"2012-04-30","reportUrl":"https://ofmpub.epa.gov/frs_public2/fii_query_detail.disp_program_facility?p_registry_id=110071969787"}},{"type":"Feature","geometry":{"type":"Point","coordinates":[-87.61419,41.75111]},"properties":{"name":"Whitney Young Library Expansion","address":"415-423 East 79th St.","zip":"60619","registryId":"110071964366","acresId":"168022","activeStatus":"","lastReported":"2015-05-05","reportUrl":"https://ofmpub.epa.gov/frs_public2/fii_query_detail.disp_program_facility?p_registry_id=110071964366"}},{"type":"Feature","geometry":{"type":"Point","coordinates":[-87.74540999999999,41.883919999999996]},"properties":{"name":"167 N. Cicero Ave","address":"167 N. Cicero Ave","zip":"60644","registryId":"110071985597","acresId":"258163","activeStatus":"","lastReported":"2024-01-18","reportUrl":"https://ofmpub.epa.gov/frs_public2/fii_query_detail.disp_program_facility?p_registry_id=110071985597"}},{"type":"Feature","geometry":{"type":"Point","coordinates":[-87.72970000000001,41.86611]},"properties":{"name":"4153 W Roosevelt Rd","address":"4153 W Roosevelt Rd","zip":"60624","registryId":"110071984475","acresId":"254461","activeStatus":"","lastReported":"2023-12-11","reportUrl":"https://ofmpub.epa.gov/frs_public2/fii_query_detail.disp_program_facility?p_registry_id=110071984475"}},{"type":"Feature","geometry":{"type":"Point","coordinates":[-87.72578,41.884949999999996]},"properties":{"name":"271 N Pulaski Rd","address":"271 N Pulaski Rd","zip":"60615","registryId":"110071983500","acresId":"254434","activeStatus":"","lastReported":"2023-12-11","reportUrl":"https://ofmpub.epa.gov/frs_public2/fii_query_detail.disp_program_facility?p_registry_id=110071983500"}},{"type":"Feature","geometry":{"type":"Point","coordinates":[-87.71764999999999,41.86006]},"properties":{"name":"1523 S Lawndale Ave","address":"1523 S Lawndale Ave","zip":"60623","registryId":"110071984468","acresId":"254454","activeStatus":"","lastReported":"2023-12-11","reportUrl":"https://ofmpub.epa.gov/frs_public2/fii_query_detail.disp_program_facility?p_registry_id=110071984468"}},{"type":"Feature","geometry":{"type":"Point","coordinates":[-87.709493,41.800723]},"properties":{"name":"Uno - Gage Soccer Academy","address":"3434 W 51st St","zip":"60632","registryId":"110005835132","acresId":"161461","activeStatus":"","lastReported":"2015-10-08","reportUrl":"https://ofmpub.epa.gov/frs_public2/fii_query_detail.disp_program_facility?p_registry_id=110005835132"}},{"type":"Feature","geometry":{"type":"Point","coordinates":[-87.70597,41.87529]},"properties":{"name":"411 N Kedzie","address":"411 N Kedzie","zip":"60624","registryId":"110071964759","acresId":"160823","activeStatus":"","lastReported":"2013-03-20","reportUrl":"https://ofmpub.epa.gov/frs_public2/fii_query_detail.disp_program_facility?p_registry_id=110071964759"}},{"type":"Feature","geometry":{"type":"Point","coordinates":[-87.65310000000001,41.85255]},"properties":{"name":"Bnsf Cermak Paseo Segment 5","address":"1111 W Cermak","zip":"60608","registryId":"110071982527","acresId":"254401","activeStatus":"","lastReported":"2023-01-02","reportUrl":"https://ofmpub.epa.gov/frs_public2/fii_query_detail.disp_program_facility?p_registry_id=110071982527"}},{"type":"Feature","geometry":{"type":"Point","coordinates":[-87.61419,41.75111]},"properties":{"name":"Whitney Young Library Expansion","address":"415-423 East 79th St.","zip":"60619","registryId":"110071964366","acresId":"161561","activeStatus":"","lastReported":"2015-10-08","reportUrl":"https://ofmpub.epa.gov/frs_public2/fii_query_detail.disp_program_facility?p_registry_id=110071964366"}},{"type":"Feature","geometry":{"type":"Point","coordinates":[-87.61009899999999,41.691708999999996]},"properties":{"name":"Pullman National Monument","address":"11141 South Cottage Grove Avenue","zip":"60628","registryId":"110071984932","acresId":"234856","activeStatus":"","lastReported":"2018-12-06","reportUrl":"https://ofmpub.epa.gov/frs_public2/fii_query_detail.disp_program_facility?p_registry_id=110071984932"}},{"type":"Feature","geometry":{"type":"Point","coordinates":[-87.603826,41.820267]},"properties":{"name":"Bronzeville Urban Development","address":"Bronzeville Neighborhood Of Chicago","zip":"60653","registryId":"110071968744","acresId":"145703","activeStatus":"","lastReported":"2014-02-21","reportUrl":"https://ofmpub.epa.gov/frs_public2/fii_query_detail.disp_program_facility?p_registry_id=110071968744"}},{"type":"Feature","geometry":{"type":"Point","coordinates":[-87.60458,41.715979999999995]},"properties":{"name":"Phyto Test Plot Garden - Csu","address":"9821 S. Cottage Grove Ave","zip":"60628","registryId":"110043082142","acresId":"111303","activeStatus":"","lastReported":"2010-04-07","reportUrl":"https://ofmpub.epa.gov/frs_public2/fii_query_detail.disp_program_facility?p_registry_id=110043082142"}},{"type":"Feature","geometry":{"type":"Point","coordinates":[-87.705979,41.875464]},"properties":{"name":"407 N Kedzie","address":"407 N Kedzie","zip":"60624","registryId":"110071964761","acresId":"160825","activeStatus":"","lastReported":"2013-03-20","reportUrl":"https://ofmpub.epa.gov/frs_public2/fii_query_detail.disp_program_facility?p_registry_id=110071964761"}},{"type":"Feature","geometry":{"type":"Point","coordinates":[-87.74327,41.8149]},"properties":{"name":"I-55/Cicero Avenue","address":"Cicero Avenue And 43rd St.","zip":"60632","registryId":"110039531156","acresId":"13873","activeStatus":"","lastReported":"","reportUrl":"https://ofmpub.epa.gov/frs_public2/fii_query_detail.disp_program_facility?p_registry_id=110039531156"}},{"type":"Feature","geometry":{"type":"Point","coordinates":[-87.686808,41.862184]},"properties":{"name":"Midwest Folding Products","address":"1414 S. Western Avenue","zip":"60608-1802","registryId":"110001683991","acresId":"13874","activeStatus":"","lastReported":"","reportUrl":"https://ofmpub.epa.gov/frs_public2/fii_query_detail.disp_program_facility?p_registry_id=110001683991"}},{"type":"Feature","geometry":{"type":"Point","coordinates":[-87.54531,41.730129999999996]},"properties":{"name":"3240 E 91st St","address":"3240 E 91st St","zip":"60617","registryId":"110071984477","acresId":"254463","activeStatus":"","lastReported":"2023-12-11","reportUrl":"https://ofmpub.epa.gov/frs_public2/fii_query_detail.disp_program_facility?p_registry_id=110071984477"}},{"type":"Feature","geometry":{"type":"Point","coordinates":[-87.698955,41.844629999999995]},"properties":{"name":"Bnsf Little Village Paseo Segment 5","address":"2951 W 26th Street","zip":"60623","registryId":"110071982542","acresId":"254416","activeStatus":"","lastReported":"2023-01-02","reportUrl":"https://ofmpub.epa.gov/frs_public2/fii_query_detail.disp_program_facility?p_registry_id=110071982542"}},{"type":"Feature","geometry":{"type":"Point","coordinates":[-87.726,41.85884]},"properties":{"name":"4025 W 16th St","address":"4025 W 16th St","zip":"60623","registryId":"110071983514","acresId":"254448","activeStatus":"","lastReported":"2023-12-11","reportUrl":"https://ofmpub.epa.gov/frs_public2/fii_query_detail.disp_program_facility?p_registry_id=110071983514"}},{"type":"Feature","geometry":{"type":"Point","coordinates":[-87.63902,41.85279]},"properties":{"name":"Cuneo Press","address":"2201-2300 S. Grove Street","zip":"60609","registryId":"110039531272","acresId":"13883","activeStatus":"","lastReported":"","reportUrl":"https://ofmpub.epa.gov/frs_public2/fii_query_detail.disp_program_facility?p_registry_id=110039531272"}},{"type":"Feature","geometry":{"type":"Point","coordinates":[-87.649856,41.861886999999996]},"properties":{"name":"Bnsf Cermak Paseo Segment 7","address":"1426 S Sangamon","zip":"60608","registryId":"110071982531","acresId":"254405","activeStatus":"","lastReported":"2023-01-02","reportUrl":"https://ofmpub.epa.gov/frs_public2/fii_query_detail.disp_program_facility?p_registry_id=110071982531"}},{"type":"Feature","geometry":{"type":"Point","coordinates":[-87.61255,41.80411]},"properties":{"name":"4958 S. Forrestville Ave","address":"4958 S. Forrestville Ave","zip":"60615","registryId":"110071983497","acresId":"254431","activeStatus":"","lastReported":"2023-12-11","reportUrl":"https://ofmpub.epa.gov/frs_public2/fii_query_detail.disp_program_facility?p_registry_id=110071983497"}},{"type":"Feature","geometry":{"type":"Point","coordinates":[-87.74525,41.87987]},"properties":{"name":"16 S. Cicero Ave","address":"16 S. Cicero Ave","zip":"60644","registryId":"110071985599","acresId":"258165","activeStatus":"","lastReported":"2024-01-18","reportUrl":"https://ofmpub.epa.gov/frs_public2/fii_query_detail.disp_program_facility?p_registry_id=110071985599"}},{"type":"Feature","geometry":{"type":"Point","coordinates":[-87.65221,41.67767]},"properties":{"name":"1210 W 119th St","address":"1210 W 119th St","zip":"60643","registryId":"110071983508","acresId":"254442","activeStatus":"","lastReported":"2023-12-11","reportUrl":"https://ofmpub.epa.gov/frs_public2/fii_query_detail.disp_program_facility?p_registry_id=110071983508"}},{"type":"Feature","geometry":{"type":"Point","coordinates":[-87.72509,41.863949999999996]},"properties":{"name":"1310 S Pulaski Rd","address":"1310 S Pulaski Rd","zip":"60623","registryId":"110071983517","acresId":"254451","activeStatus":"","lastReported":"2023-12-11","reportUrl":"https://ofmpub.epa.gov/frs_public2/fii_query_detail.disp_program_facility?p_registry_id=110071983517"}},{"type":"Feature","geometry":{"type":"Point","coordinates":[-87.70329,41.9685]},"properties":{"name":"Ronan Park Expansion - 2954 W Lawrence","address":"2954 W. Lawrence","zip":"60625","registryId":"110038737258","acresId":"85461","activeStatus":"","lastReported":"2010-03-29","reportUrl":"https://ofmpub.epa.gov/frs_public2/fii_query_detail.disp_program_facility?p_registry_id=110038737258"}},{"type":"Feature","geometry":{"type":"Point","coordinates":[-87.717411,41.940404]},"properties":{"name":"Bnsf Little Village Paseo Segment 2","address":"3260 S Central Park","zip":"60623","registryId":"110071982539","acresId":"254413","activeStatus":"","lastReported":"2023-01-02","reportUrl":"https://ofmpub.epa.gov/frs_public2/fii_query_detail.disp_program_facility?p_registry_id=110071982539"}},{"type":"Feature","geometry":{"type":"Point","coordinates":[-87.73226,41.86606]},"properties":{"name":"4255 W Roosevelt Rd","address":"4255 W Roosevelt Rd","zip":"60624","registryId":"110071984474","acresId":"254460","activeStatus":"","lastReported":"2023-12-11","reportUrl":"https://ofmpub.epa.gov/frs_public2/fii_query_detail.disp_program_facility?p_registry_id=110071984474"}},{"type":"Feature","geometry":{"type":"Point","coordinates":[-87.70147999999999,41.88928]},"properties":{"name":"Sacramento Crushing Corp","address":"445 N. Sacramento Blvd.","zip":"60612","registryId":"110002390993","acresId":"13872","activeStatus":"","lastReported":"","reportUrl":"https://ofmpub.epa.gov/frs_public2/fii_query_detail.disp_program_facility?p_registry_id=110002390993"}},{"type":"Feature","geometry":{"type":"Point","coordinates":[-87.73733,41.86382]},"properties":{"name":"1300 S. Kilbourn Ave Tba","address":"1300 S. Kilbourn Ave","zip":"60623","registryId":"110071977017","acresId":"233083","activeStatus":"","lastReported":"2019-10-31","reportUrl":"https://ofmpub.epa.gov/frs_public2/fii_query_detail.disp_program_facility?p_registry_id=110071977017"}},{"type":"Feature","geometry":{"type":"Point","coordinates":[-87.76324,41.87927]},"properties":{"name":"5534 W Monroe St","address":"5534 W Monroe St","zip":"60644","registryId":"110071984482","acresId":"254468","activeStatus":"","lastReported":"2023-12-11","reportUrl":"https://ofmpub.epa.gov/frs_public2/fii_query_detail.disp_program_facility?p_registry_id=110071984482"}},{"type":"Feature","geometry":{"type":"Point","coordinates":[-87.74454999999999,41.88052]},"properties":{"name":"4742 W. Madison St.","address":"4742 W. Madison St.","zip":"60644","registryId":"110071985598","acresId":"258164","activeStatus":"","lastReported":"2024-01-18","reportUrl":"https://ofmpub.epa.gov/frs_public2/fii_query_detail.disp_program_facility?p_registry_id=110071985598"}},{"type":"Feature","geometry":{"type":"Point","coordinates":[-87.65174999999999,41.767579999999995]},"properties":{"name":"6937 S Aberdeen St","address":"6937 S Aberdeen St","zip":"60621","registryId":"110071984484","acresId":"254470","activeStatus":"","lastReported":"2023-12-11","reportUrl":"https://ofmpub.epa.gov/frs_public2/fii_query_detail.disp_program_facility?p_registry_id=110071984484"}},{"type":"Feature","geometry":{"type":"Point","coordinates":[-87.70470999999999,41.83403]},"properties":{"name":"Focal Point","address":"3250 S. Kedzie Avenue","zip":"60632","registryId":"110071981881","acresId":"212901","activeStatus":"","lastReported":"2019-10-28","reportUrl":"https://ofmpub.epa.gov/frs_public2/fii_query_detail.disp_program_facility?p_registry_id=110071981881"}},{"type":"Feature","geometry":{"type":"Point","coordinates":[-87.73521,41.87965]},"properties":{"name":"4359 W Monroe St","address":"4359 W Monroe St","zip":"60624","registryId":"110071983503","acresId":"254437","activeStatus":"","lastReported":"2023-12-11","reportUrl":"https://ofmpub.epa.gov/frs_public2/fii_query_detail.disp_program_facility?p_registry_id=110071983503"}}]}