{"type":"FeatureCollection","features":[{"type":"Feature","geometry":{"type":"Polygon","coordinates":[[[-87.732253,41.491436],[-87.732189,41.46971],[-87.718203,41.469734],[-87.713032,41.479879],[-87.713023,41.494532],[-87.721705,41.491982],[-87.73225,41.491761],[-87.732253,41.491436]]]},"properties":{"programs":["EDGE","REV","Data Center","MICRO"],"censusTract":"8300.07","unemploymentRate":31.1,"laborForce":2255,"inFederalOZ":true}},{"type":"Feature","geometry":{"type":"Polygon","coordinates":[[[-87.665644,42.002421],[-87.665436,41.998136],[-87.660553,41.998189],[-87.660783,42.002551],[-87.665644,42.002421]]]},"properties":{"programs":["EDGE","REV","Data Center","MICRO"],"censusTract":"105.03","unemploymentRate":12.4,"laborForce":772,"inFederalOZ":false}},{"type":"Feature","geometry":{"type":"Polygon","coordinates":[[[-87.708237,41.999232],[-87.708162,41.99741],[-87.697205,41.997602],[-87.697384,42.004893],[-87.704603,42.004754],[-87.704604,42.002933],[-87.705807,42.002904],[-87.705799,41.999277],[-87.708237,41.999232]]]},"properties":{"programs":["EDGE","REV","Data Center","MICRO"],"censusTract":"206.01","unemploymentRate":21.5,"laborForce":2310,"inFederalOZ":false}},{"type":"Feature","geometry":{"type":"Polygon","coordinates":[[[-87.641907,41.677815],[-87.64167,41.670539],[-87.62244,41.670733],[-87.622658,41.678026],[-87.641907,41.677815]]]},"properties":{"programs":["EDGE","REV","Data Center","MICRO"],"censusTract":"5305.01","unemploymentRate":15.4,"laborForce":1646,"inFederalOZ":false}},{"type":"Feature","geometry":{"type":"Polygon","coordinates":[[[-87.647204,41.663159],[-87.647002,41.65698],[-87.641224,41.657434],[-87.630969,41.657496],[-87.631671,41.658445],[-87.631772,41.663312],[-87.629375,41.663352],[-87.62965,41.67066],[-87.64167,41.670539],[-87.641423,41.663246],[-87.647204,41.663159]]]},"properties":{"programs":["EDGE","REV","Data Center","MICRO"],"censusTract":"5305.03","unemploymentRate":37.6,"laborForce":3121,"inFederalOZ":false}},{"type":"Feature","geometry":{"type":"Polygon","coordinates":[[[-87.737397,41.778487],[-87.737223,41.771201],[-87.722576,41.771374],[-87.72276,41.778658],[-87.737397,41.778487]]]},"properties":{"programs":["EDGE","REV","Data Center","MICRO"],"censusTract":"6503.01","unemploymentRate":12.8,"laborForce":2312,"inFederalOZ":false}},{"type":"Feature","geometry":{"type":"Polygon","coordinates":[[[-87.72276,41.778658],[-87.722576,41.771374],[-87.712724,41.771522],[-87.712897,41.778831],[-87.72276,41.778658]]]},"properties":{"programs":["EDGE","REV","Data Center","MICRO"],"censusTract":"6503.02","unemploymentRate":14.1,"laborForce":2115,"inFederalOZ":false}},{"type":"Feature","geometry":{"type":"Polygon","coordinates":[[[-87.631772,41.663312],[-87.631671,41.658445],[-87.630969,41.657496],[-87.624709,41.661293],[-87.621746,41.661734],[-87.622088,41.663452],[-87.62244,41.670733],[-87.62965,41.67066],[-87.629375,41.663352],[-87.631772,41.663312]]]},"properties":{"programs":["EDGE","REV","Data Center","MICRO"],"censusTract":"5305.02","unemploymentRate":23.8,"laborForce":724,"inFederalOZ":true}},{"type":"Feature","geometry":{"type":"Polygon","coordinates":[[[-87.699642,41.997561],[-87.699403,41.990443],[-87.689673,41.9905],[-87.689883,41.99773],[-87.699642,41.997561]]]},"properties":{"programs":["EDGE","REV","Data Center","MICRO"],"censusTract":"208.02","unemploymentRate":13,"laborForce":3570,"inFederalOZ":false}},{"type":"Feature","geometry":{"type":"Polygon","coordinates":[[[-87.710656,41.997366],[-87.710026,41.993321],[-87.709165,41.990384],[-87.699403,41.990443],[-87.699642,41.997561],[-87.708162,41.99741],[-87.708237,41.999232],[-87.709362,41.999213],[-87.709344,41.997389],[-87.710656,41.997366]]]},"properties":{"programs":["EDGE","REV","Data Center","MICRO"],"censusTract":"207.02","unemploymentRate":14.2,"laborForce":3408,"inFederalOZ":false}},{"type":"Feature","geometry":{"type":"Polygon","coordinates":[[[-87.623314,41.699871],[-87.623104,41.692585],[-87.60986,41.692771],[-87.609012,41.696444],[-87.610033,41.696422],[-87.609234,41.699611],[-87.620328,41.699427],[-87.620237,41.698091],[-87.622074,41.698069],[-87.622128,41.69989],[-87.623314,41.699871]]]},"properties":{"programs":["EDGE","REV","Data Center","MICRO"],"censusTract":"4909.01","unemploymentRate":30.1,"laborForce":1543,"inFederalOZ":true}},{"type":"Feature","geometry":{"type":"Polygon","coordinates":[[[-87.623523,41.707165],[-87.623314,41.699871],[-87.622128,41.69989],[-87.622074,41.698069],[-87.620237,41.698091],[-87.620328,41.699427],[-87.609234,41.699611],[-87.610033,41.696422],[-87.609012,41.696444],[-87.606518,41.707433],[-87.623523,41.707165]]]},"properties":{"programs":["EDGE","REV","Data Center","MICRO"],"censusTract":"4909.02","unemploymentRate":14,"laborForce":1620,"inFederalOZ":false}},{"type":"Feature","geometry":{"type":"Polygon","coordinates":[[[-87.739198,41.845473],[-87.738908,41.837137],[-87.739152,41.836718],[-87.731638,41.836802],[-87.731691,41.83864],[-87.731083,41.838648],[-87.731227,41.843687],[-87.731836,41.843696],[-87.731851,41.844152],[-87.731043,41.844163],[-87.731115,41.847314],[-87.739198,41.845473]]]},"properties":{"programs":["EDGE","REV","Data Center","MICRO"],"censusTract":"3018.01","unemploymentRate":13.9,"laborForce":1345,"inFederalOZ":false}},{"type":"Feature","geometry":{"type":"Polygon","coordinates":[[[-87.741358,41.749147],[-87.741104,41.741897],[-87.721679,41.742179],[-87.721815,41.746579],[-87.723035,41.746556],[-87.723137,41.749481],[-87.741358,41.749147]]]},"properties":{"programs":["EDGE","REV","Data Center","MICRO"],"censusTract":"7003.01","unemploymentRate":14.1,"laborForce":2992,"inFederalOZ":false}},{"type":"Feature","geometry":{"type":"Polygon","coordinates":[[[-87.72445,41.840566],[-87.724351,41.836882],[-87.714594,41.837056],[-87.714693,41.840722],[-87.72445,41.840566]]]},"properties":{"programs":["EDGE","REV","Data Center","MICRO"],"censusTract":"3017.02","unemploymentRate":13.5,"laborForce":1931,"inFederalOZ":false}},{"type":"Feature","geometry":{"type":"Polygon","coordinates":[[[-87.721912,41.749502],[-87.721649,41.741267],[-87.702173,41.741583],[-87.702394,41.749774],[-87.721912,41.749502]]]},"properties":{"programs":["EDGE","REV","Data Center","MICRO"],"censusTract":"7004.01","unemploymentRate":14.3,"laborForce":3226,"inFederalOZ":false}},{"type":"Feature","geometry":{"type":"Polygon","coordinates":[[[-87.741104,41.741897],[-87.741067,41.734524],[-87.721436,41.734862],[-87.721679,41.742179],[-87.741104,41.741897]]]},"properties":{"programs":["EDGE","REV","Data Center","MICRO"],"censusTract":"7003.02","unemploymentRate":16.2,"laborForce":2562,"inFederalOZ":false}},{"type":"Feature","geometry":{"type":"Polygon","coordinates":[[[-87.704524,41.822324],[-87.704331,41.8172],[-87.699404,41.817273],[-87.699397,41.817064],[-87.698508,41.817607],[-87.698171,41.817288],[-87.694482,41.81736],[-87.694627,41.822786],[-87.70444,41.82259],[-87.704524,41.822324]]]},"properties":{"programs":["EDGE","REV","Data Center","MICRO"],"censusTract":"5805.01","unemploymentRate":17.4,"laborForce":2286,"inFederalOZ":false}},{"type":"Feature","geometry":{"type":"Polygon","coordinates":[[[-87.704331,41.8172],[-87.704118,41.811759],[-87.694315,41.811913],[-87.694482,41.81736],[-87.698171,41.817288],[-87.698508,41.817607],[-87.699397,41.817064],[-87.699404,41.817273],[-87.704331,41.8172]]]},"properties":{"programs":["EDGE","REV","Data Center","MICRO"],"censusTract":"5805.02","unemploymentRate":15.8,"laborForce":2518,"inFederalOZ":false}},{"type":"Feature","geometry":{"type":"Polygon","coordinates":[[[-87.662961,41.732189],[-87.662684,41.721265],[-87.652948,41.721372],[-87.653182,41.730465],[-87.652574,41.730473],[-87.652619,41.732068],[-87.653239,41.732386],[-87.662961,41.732189]]]},"properties":{"programs":["EDGE","REV","Data Center","MICRO"],"censusTract":"7302.01","unemploymentRate":23.4,"laborForce":2261,"inFederalOZ":false}},{"type":"Feature","geometry":{"type":"Polygon","coordinates":[[[-87.731851,41.844152],[-87.731836,41.843696],[-87.731227,41.843687],[-87.731188,41.842321],[-87.724499,41.84241],[-87.724685,41.848774],[-87.731115,41.847314],[-87.731043,41.844163],[-87.731851,41.844152]]]},"properties":{"programs":["EDGE","REV","Data Center","MICRO"],"censusTract":"3018.02","unemploymentRate":21.5,"laborForce":1437,"inFederalOZ":false}},{"type":"Feature","geometry":{"type":"Polygon","coordinates":[[[-87.605237,41.751116],[-87.605084,41.745798],[-87.599574,41.745853],[-87.599561,41.745402],[-87.598895,41.745407],[-87.598938,41.745859],[-87.598269,41.745867],[-87.597235,41.751369],[-87.605237,41.751116]]]},"properties":{"programs":["EDGE","REV","Data Center","MICRO"],"censusTract":"4401.01","unemploymentRate":34.3,"laborForce":2169,"inFederalOZ":false}},{"type":"Feature","geometry":{"type":"Polygon","coordinates":[[[-87.566303,41.755361],[-87.566233,41.751728],[-87.552288,41.751919],[-87.556128,41.755489],[-87.566303,41.755361]]]},"properties":{"programs":["EDGE","REV","Data Center","MICRO"],"censusTract":"4313.01","unemploymentRate":27.5,"laborForce":1595,"inFederalOZ":true}},{"type":"Feature","geometry":{"type":"Polygon","coordinates":[[[-87.56645,41.762619],[-87.566303,41.755361],[-87.556128,41.755489],[-87.56012,41.759179],[-87.563295,41.7627],[-87.56645,41.762619]]]},"properties":{"programs":["EDGE","REV","Data Center","MICRO"],"censusTract":"4313.02","unemploymentRate":33.1,"laborForce":2035,"inFederalOZ":true}},{"type":"Feature","geometry":{"type":"Polygon","coordinates":[[[-87.561386,41.751795],[-87.561232,41.742708],[-87.552601,41.742823],[-87.551523,41.742067],[-87.551799,41.743994],[-87.55294,41.744637],[-87.553975,41.744622],[-87.554072,41.751895],[-87.561386,41.751795]]]},"properties":{"programs":["EDGE","REV","Data Center","MICRO"],"censusTract":"4603.02","unemploymentRate":31.5,"laborForce":1363,"inFederalOZ":true}},{"type":"Feature","geometry":{"type":"Polygon","coordinates":[[[-87.561232,41.742708],[-87.561154,41.737259],[-87.551431,41.737378],[-87.551523,41.742067],[-87.552601,41.742823],[-87.561232,41.742708]]]},"properties":{"programs":["EDGE","REV","Data Center","MICRO"],"censusTract":"4603.01","unemploymentRate":25.3,"laborForce":1613,"inFederalOZ":true}},{"type":"Feature","geometry":{"type":"Polygon","coordinates":[[[-87.702394,41.749774],[-87.702185,41.742039],[-87.698305,41.742102],[-87.698311,41.742561],[-87.69554,41.742607],[-87.695536,41.742166],[-87.691776,41.742222],[-87.687719,41.742288],[-87.687715,41.742735],[-87.677901,41.74288],[-87.67836,41.746532],[-87.678239,41.750167],[-87.702394,41.749774]]]},"properties":{"programs":["EDGE","REV","Data Center","MICRO"],"censusTract":"7005.01","unemploymentRate":15.3,"laborForce":3750,"inFederalOZ":false}},{"type":"Feature","geometry":{"type":"Polygon","coordinates":[[[-87.702185,41.742039],[-87.702124,41.735203],[-87.67309,41.73565],[-87.676862,41.74037],[-87.677901,41.74288],[-87.687715,41.742735],[-87.687719,41.742288],[-87.691776,41.742222],[-87.695536,41.742166],[-87.69554,41.742607],[-87.698311,41.742561],[-87.698305,41.742102],[-87.702185,41.742039]]]},"properties":{"programs":["EDGE","REV","Data Center","MICRO"],"censusTract":"7005.02","unemploymentRate":26.6,"laborForce":1566,"inFederalOZ":false}},{"type":"Feature","geometry":{"type":"Polygon","coordinates":[[[-87.759206,41.858502],[-87.758995,41.851127],[-87.749175,41.851269],[-87.749409,41.858645],[-87.759206,41.858502]]]},"properties":{"programs":["EDGE","REV","Data Center","MICRO"],"censusTract":"8137.01","unemploymentRate":16.1,"laborForce":1736,"inFederalOZ":false}},{"type":"Feature","geometry":{"type":"Polygon","coordinates":[[[-87.775716,41.923827],[-87.7757,41.92337],[-87.775093,41.923383],[-87.775011,41.920928],[-87.77562,41.921049],[-87.775592,41.920163],[-87.774977,41.91995],[-87.774937,41.918946],[-87.774909,41.917919],[-87.775515,41.917911],[-87.77547,41.916552],[-87.765745,41.916624],[-87.765991,41.923981],[-87.775716,41.923827]]]},"properties":{"programs":["EDGE","REV","Data Center","MICRO"],"censusTract":"1913.02","unemploymentRate":14.9,"laborForce":2462,"inFederalOZ":false}},{"type":"Feature","geometry":{"type":"Polygon","coordinates":[[[-87.785689,41.931002],[-87.785443,41.923678],[-87.775716,41.923827],[-87.775732,41.924283],[-87.775128,41.924292],[-87.775233,41.927492],[-87.775841,41.927484],[-87.775857,41.927937],[-87.775249,41.927946],[-87.77534,41.930689],[-87.775952,41.930681],[-87.775966,41.931139],[-87.785689,41.931002]]]},"properties":{"programs":["EDGE","REV","Data Center","MICRO"],"censusTract":"1906.01","unemploymentRate":16.1,"laborForce":2706,"inFederalOZ":false}},{"type":"Feature","geometry":{"type":"Polygon","coordinates":[[[-87.741578,41.922532],[-87.741422,41.916985],[-87.733887,41.91707],[-87.73395,41.918905],[-87.733339,41.918905],[-87.733448,41.922572],[-87.741578,41.922532]]]},"properties":{"programs":["EDGE","REV","Data Center","MICRO"],"censusTract":"2004.01","unemploymentRate":17.1,"laborForce":1867,"inFederalOZ":false}},{"type":"Feature","geometry":{"type":"Polygon","coordinates":[[[-87.605084,41.745798],[-87.604823,41.736649],[-87.595308,41.736783],[-87.597589,41.740743],[-87.5987,41.744047],[-87.598269,41.745867],[-87.598938,41.745859],[-87.598895,41.745407],[-87.599561,41.745402],[-87.599574,41.745853],[-87.605084,41.745798]]]},"properties":{"programs":["EDGE","REV","Data Center","MICRO"],"censusTract":"4401.02","unemploymentRate":14.8,"laborForce":1744,"inFederalOZ":false}},{"type":"Feature","geometry":{"type":"Polygon","coordinates":[[[-87.614819,41.745638],[-87.614528,41.736503],[-87.604823,41.736649],[-87.605084,41.745798],[-87.606295,41.745778],[-87.606257,41.744408],[-87.607472,41.744388],[-87.607508,41.745759],[-87.611747,41.745689],[-87.61235,41.745678],[-87.612311,41.744305],[-87.614129,41.744274],[-87.614165,41.745647],[-87.614819,41.745638]]]},"properties":{"programs":["EDGE","REV","Data Center","MICRO"],"censusTract":"4402.02","unemploymentRate":23.5,"laborForce":1273,"inFederalOZ":false}},{"type":"Feature","geometry":{"type":"Polygon","coordinates":[[[-87.790313,41.482036],[-87.790303,41.469846],[-87.732149,41.469784],[-87.73225,41.491761],[-87.79031,41.491782],[-87.790313,41.482036]]]},"properties":{"programs":["EDGE","REV","Data Center","MICRO"],"censusTract":"8300.08","unemploymentRate":13.5,"laborForce":2303,"inFederalOZ":false}},{"type":"Feature","geometry":{"type":"Polygon","coordinates":[[[-87.660553,41.998189],[-87.660459,41.996374],[-87.658409,41.996393],[-87.65838,41.995428],[-87.656978,41.995449],[-87.657009,41.996408],[-87.650291,41.996627],[-87.650803,41.998485],[-87.660553,41.998189]]]},"properties":{"programs":["EDGE","REV","Data Center","MICRO"],"censusTract":"301.04","unemploymentRate":19.5,"laborForce":1550,"inFederalOZ":false}},{"type":"Feature","geometry":{"type":"Polygon","coordinates":[[[-87.571509,41.769854],[-87.571397,41.766262],[-87.549849,41.766626],[-87.558686,41.773792],[-87.566811,41.773559],[-87.566548,41.769906],[-87.571509,41.769854]]]},"properties":{"programs":["EDGE","REV","Data Center","MICRO"],"censusTract":"4301.02","unemploymentRate":13.5,"laborForce":1738,"inFederalOZ":false}},{"type":"Feature","geometry":{"type":"Polygon","coordinates":[[[-87.576487,41.773456],[-87.576302,41.766214],[-87.571397,41.766262],[-87.571617,41.773502],[-87.576487,41.773456]]]},"properties":{"programs":["EDGE","REV","Data Center","MICRO"],"censusTract":"4301.01","unemploymentRate":26.7,"laborForce":1684,"inFederalOZ":true}},{"type":"Feature","geometry":{"type":"Polygon","coordinates":[[[-87.614958,41.751114],[-87.614819,41.745638],[-87.614165,41.745647],[-87.614129,41.744274],[-87.612311,41.744305],[-87.61235,41.745678],[-87.611747,41.745689],[-87.607508,41.745759],[-87.607472,41.744388],[-87.606257,41.744408],[-87.606295,41.745778],[-87.605084,41.745798],[-87.605215,41.751286],[-87.614958,41.751114]]]},"properties":{"programs":["EDGE","REV","Data Center","MICRO"],"censusTract":"4402.01","unemploymentRate":17.2,"laborForce":2229,"inFederalOZ":true}},{"type":"Feature","geometry":{"type":"Polygon","coordinates":[[[-87.621303,41.650484],[-87.620238,41.650101],[-87.617229,41.650019],[-87.617227,41.644582],[-87.578588,41.64473],[-87.578946,41.646928],[-87.579941,41.649246],[-87.585199,41.65566],[-87.589115,41.655334],[-87.590458,41.655703],[-87.592353,41.655306],[-87.594987,41.655937],[-87.596818,41.655729],[-87.597367,41.65673],[-87.598704,41.657295],[-87.607563,41.657321],[-87.607571,41.651856],[-87.612119,41.651843],[-87.612337,41.656051],[-87.613232,41.656418],[-87.616918,41.656335],[-87.617271,41.655792],[-87.61728,41.656834],[-87.618917,41.6564],[-87.619758,41.653633],[-87.621303,41.650484]]]},"properties":{"programs":["EDGE","REV","Data Center","MICRO"],"censusTract":"5401.01","unemploymentRate":39.9,"laborForce":1613,"inFederalOZ":true}},{"type":"Feature","geometry":{"type":"Polygon","coordinates":[[[-87.755067,41.880372],[-87.754806,41.872946],[-87.749145,41.873027],[-87.749412,41.880445],[-87.755067,41.880372]]]},"properties":{"programs":["EDGE","REV","Data Center","MICRO"],"censusTract":"2522.01","unemploymentRate":21.6,"laborForce":913,"inFederalOZ":false}},{"type":"Feature","geometry":{"type":"Polygon","coordinates":[[[-87.703349,41.786248],[-87.703188,41.780795],[-87.693445,41.780939],[-87.693595,41.786407],[-87.703349,41.786248]]]},"properties":{"programs":["EDGE","REV","Data Center","MICRO"],"censusTract":"6603.02","unemploymentRate":29.1,"laborForce":2274,"inFederalOZ":false}},{"type":"Feature","geometry":{"type":"Polygon","coordinates":[[[-87.703188,41.780795],[-87.703137,41.778973],[-87.693392,41.779116],[-87.693445,41.780939],[-87.703188,41.780795]]]},"properties":{"programs":["EDGE","REV","Data Center","MICRO"],"censusTract":"6603.01","unemploymentRate":36.8,"laborForce":649,"inFederalOZ":true}},{"type":"Feature","geometry":{"type":"Polygon","coordinates":[[[-87.653239,41.732386],[-87.652619,41.732068],[-87.652574,41.730473],[-87.653182,41.730465],[-87.652948,41.721372],[-87.643211,41.721503],[-87.64341,41.728769],[-87.644615,41.728701],[-87.644526,41.730001],[-87.64629,41.729592],[-87.647518,41.728646],[-87.647951,41.7287],[-87.646513,41.732527],[-87.653239,41.732386]]]},"properties":{"programs":["EDGE","REV","Data Center","MICRO"],"censusTract":"7302.02","unemploymentRate":26,"laborForce":1513,"inFederalOZ":false}},{"type":"Feature","geometry":{"type":"Polygon","coordinates":[[[-87.64375,41.946309],[-87.643397,41.945634],[-87.641797,41.94616],[-87.641577,41.945765],[-87.643017,41.945313],[-87.643002,41.944529],[-87.641786,41.944734],[-87.64137,41.94336],[-87.641911,41.943354],[-87.641805,41.941719],[-87.642755,41.941719],[-87.642695,41.941161],[-87.641799,41.941173],[-87.641791,41.940546],[-87.641409,41.940579],[-87.641385,41.940089],[-87.638809,41.940243],[-87.638118,41.940553],[-87.638118,41.940934],[-87.634017,41.942478],[-87.633542,41.94216],[-87.62734,41.942535],[-87.631205,41.949765],[-87.640743,41.947618],[-87.64375,41.946309]]]},"properties":{"programs":["EDGE","REV","Data Center","MICRO"],"censusTract":"619.02","unemploymentRate":12.3,"laborForce":3047,"inFederalOZ":false}},{"type":"Feature","geometry":{"type":"Polygon","coordinates":[[[-87.660459,41.996374],[-87.660406,41.994553],[-87.655525,41.994598],[-87.655512,41.994164],[-87.649637,41.994317],[-87.650291,41.996627],[-87.657009,41.996408],[-87.656978,41.995449],[-87.65838,41.995428],[-87.658409,41.996393],[-87.660459,41.996374]]]},"properties":{"programs":["EDGE","REV","Data Center","MICRO"],"censusTract":"301.03","unemploymentRate":14.6,"laborForce":1191,"inFederalOZ":false}},{"type":"Feature","geometry":{"type":"Polygon","coordinates":[[[-87.657266,41.981843],[-87.657217,41.980015],[-87.655088,41.980051],[-87.65514,41.981879],[-87.654106,41.981891],[-87.653779,41.979834],[-87.655079,41.979801],[-87.655032,41.978223],[-87.655764,41.978211],[-87.655713,41.976385],[-87.650932,41.9765],[-87.645655,41.978132],[-87.648855,41.984231],[-87.655915,41.983692],[-87.655864,41.981867],[-87.657266,41.981843]]]},"properties":{"programs":["EDGE","REV","Data Center","MICRO"],"censusTract":"307.06","unemploymentRate":16.1,"laborForce":1529,"inFederalOZ":false}},{"type":"Feature","geometry":{"type":"Polygon","coordinates":[[[-87.726667,41.920825],[-87.726615,41.918994],[-87.724876,41.919016],[-87.723906,41.917198],[-87.716772,41.917283],[-87.716885,41.920943],[-87.726667,41.920825]]]},"properties":{"programs":["EDGE","REV","Data Center","MICRO"],"censusTract":"2209.01","unemploymentRate":12.5,"laborForce":1523,"inFederalOZ":false}},{"type":"Feature","geometry":{"type":"Polygon","coordinates":[[[-87.749412,41.880445],[-87.749145,41.873027],[-87.73939,41.873266],[-87.739515,41.876909],[-87.740262,41.876907],[-87.74037,41.880555],[-87.749412,41.880445]]]},"properties":{"programs":["EDGE","REV","Data Center","MICRO"],"censusTract":"2522.02","unemploymentRate":35.1,"laborForce":1808,"inFederalOZ":false}},{"type":"Feature","geometry":{"type":"Polygon","coordinates":[[[-87.764864,41.880246],[-87.764587,41.872827],[-87.754806,41.872946],[-87.755067,41.880372],[-87.764864,41.880246]]]},"properties":{"programs":["EDGE","REV","Data Center","MICRO"],"censusTract":"2521.02","unemploymentRate":21,"laborForce":3114,"inFederalOZ":false}},{"type":"Feature","geometry":{"type":"Polygon","coordinates":[[[-87.838509,41.745693],[-87.838155,41.732732],[-87.818537,41.733104],[-87.818642,41.735874],[-87.821053,41.735868],[-87.821194,41.737615],[-87.823576,41.737691],[-87.823724,41.740309],[-87.826152,41.740378],[-87.826223,41.742088],[-87.825001,41.74211],[-87.82507,41.743931],[-87.828726,41.743861],[-87.82865,41.74204],[-87.829867,41.742018],[-87.829939,41.74384],[-87.834796,41.743754],[-87.83486,41.745577],[-87.838509,41.745693]]]},"properties":{"programs":["EDGE","REV","Data Center","MICRO"],"censusTract":"8206.05","unemploymentRate":15.5,"laborForce":2389,"inFederalOZ":true}},{"type":"Feature","geometry":{"type":"Polygon","coordinates":[[[-87.790416,41.51351],[-87.790257,41.498999],[-87.770972,41.499013],[-87.770831,41.500528],[-87.770156,41.500448],[-87.767419,41.499009],[-87.751634,41.499016],[-87.751335,41.512327],[-87.749349,41.514614],[-87.749277,41.517444],[-87.748915,41.518775],[-87.748998,41.522252],[-87.749538,41.523195],[-87.751556,41.525023],[-87.7518,41.527954],[-87.790408,41.528041],[-87.790416,41.51351]]]},"properties":{"programs":["EDGE","REV","Data Center","MICRO"],"censusTract":"8300.03","unemploymentRate":18.8,"laborForce":4297,"inFederalOZ":false}},{"type":"Feature","geometry":{"type":"Polygon","coordinates":[[[-87.818537,41.733104],[-87.817317,41.704008],[-87.798053,41.70441],[-87.799102,41.7335],[-87.818537,41.733104]]]},"properties":{"programs":["EDGE","REV","Data Center","MICRO"],"censusTract":"8237.03","unemploymentRate":13.1,"laborForce":4241,"inFederalOZ":true}},{"type":"Feature","geometry":{"type":"Polygon","coordinates":[[[-87.748531,41.571606],[-87.694375,41.571722],[-87.694474,41.586248],[-87.722497,41.586171],[-87.72571,41.586538],[-87.727766,41.587558],[-87.737615,41.580041],[-87.740355,41.577392],[-87.742805,41.575968],[-87.748531,41.571606]]]},"properties":{"programs":["EDGE","REV","Data Center","MICRO"],"censusTract":"8255.01","unemploymentRate":15.8,"laborForce":2524,"inFederalOZ":true}},{"type":"Feature","geometry":{"type":"Polygon","coordinates":[[[-87.883246,41.88158],[-87.882825,41.870886],[-87.877876,41.8707],[-87.872405,41.870929],[-87.872388,41.871247],[-87.873001,41.871228],[-87.873407,41.881815],[-87.883246,41.88158]]]},"properties":{"programs":["EDGE","REV","Data Center","MICRO"],"censusTract":"8171.01","unemploymentRate":17,"laborForce":2246,"inFederalOZ":false}},{"type":"Feature","geometry":{"type":"Polygon","coordinates":[[[-87.873407,41.881815],[-87.873001,41.871228],[-87.872388,41.871247],[-87.872405,41.870929],[-87.85889,41.871281],[-87.859561,41.88575],[-87.863734,41.885658],[-87.863607,41.882012],[-87.873407,41.881815]]]},"properties":{"programs":["EDGE","REV","Data Center","MICRO"],"censusTract":"8171.02","unemploymentRate":16.5,"laborForce":1542,"inFederalOZ":false}},{"type":"Feature","geometry":{"type":"Polygon","coordinates":[[[-87.58326,41.62631],[-87.583229,41.623321],[-87.582075,41.622682],[-87.57116,41.62275],[-87.571235,41.629962],[-87.564019,41.630033],[-87.563747,41.637931],[-87.564072,41.644635],[-87.578483,41.644729],[-87.578387,41.634308],[-87.579097,41.626607],[-87.58326,41.62631]]]},"properties":{"programs":["EDGE","REV","Data Center","MICRO"],"censusTract":"8258.01","unemploymentRate":28.5,"laborForce":1798,"inFederalOZ":true}},{"type":"Feature","geometry":{"type":"Polygon","coordinates":[[[-87.571235,41.629962],[-87.57116,41.62275],[-87.549047,41.622712],[-87.549036,41.627289],[-87.548443,41.629956],[-87.565224,41.630175],[-87.571235,41.629962]]]},"properties":{"programs":["EDGE","REV","Data Center","MICRO"],"censusTract":"8258.02","unemploymentRate":27,"laborForce":3419,"inFederalOZ":false}},{"type":"Feature","geometry":{"type":"Polygon","coordinates":[[[-87.579081,41.622436],[-87.579064,41.621008],[-87.578784,41.620856],[-87.573568,41.620928],[-87.573434,41.61549],[-87.54912,41.615452],[-87.549047,41.622712],[-87.576901,41.622742],[-87.579077,41.62272],[-87.579081,41.622436]]]},"properties":{"programs":["EDGE","REV","Data Center","MICRO"],"censusTract":"8258.03","unemploymentRate":26.4,"laborForce":3369,"inFederalOZ":false}},{"type":"Feature","geometry":{"type":"Polygon","coordinates":[[[-87.617118,41.622657],[-87.617074,41.616719],[-87.614508,41.615441],[-87.612778,41.613235],[-87.612961,41.611663],[-87.614229,41.609603],[-87.61417,41.608795],[-87.613571,41.607969],[-87.612521,41.607436],[-87.610734,41.607105],[-87.604535,41.607163],[-87.602758,41.607524],[-87.600067,41.607044],[-87.597672,41.607237],[-87.59781,41.62256],[-87.617118,41.622657]]]},"properties":{"programs":["EDGE","REV","Data Center","MICRO"],"censusTract":"8263.01","unemploymentRate":20.4,"laborForce":2092,"inFederalOZ":false}},{"type":"Feature","geometry":{"type":"Polygon","coordinates":[[[-87.59781,41.62256],[-87.597672,41.607237],[-87.593214,41.606892],[-87.588264,41.608162],[-87.584816,41.608137],[-87.583938,41.607966],[-87.582017,41.606838],[-87.58051,41.609467],[-87.58136,41.610321],[-87.594223,41.62258],[-87.59781,41.62256]]]},"properties":{"programs":["EDGE","REV","Data Center","MICRO"],"censusTract":"8263.03","unemploymentRate":30.1,"laborForce":2179,"inFederalOZ":true}},{"type":"Feature","geometry":{"type":"Polygon","coordinates":[[[-87.594223,41.62258],[-87.58051,41.609467],[-87.579354,41.612128],[-87.579021,41.615474],[-87.573434,41.61549],[-87.573568,41.620928],[-87.578784,41.620856],[-87.579064,41.621008],[-87.579077,41.62272],[-87.594223,41.62258]]]},"properties":{"programs":["EDGE","REV","Data Center","MICRO"],"censusTract":"8263.04","unemploymentRate":31,"laborForce":1508,"inFederalOZ":false}},{"type":"Feature","geometry":{"type":"Polygon","coordinates":[[[-87.602699,41.6302],[-87.602641,41.622575],[-87.582075,41.622682],[-87.583229,41.623321],[-87.58326,41.62631],[-87.579097,41.626607],[-87.578386,41.634363],[-87.582095,41.635153],[-87.582097,41.633555],[-87.596609,41.633432],[-87.596752,41.632861],[-87.597856,41.633432],[-87.597873,41.632413],[-87.594544,41.629952],[-87.595506,41.629774],[-87.599353,41.62748],[-87.6027,41.63068],[-87.602699,41.6302]]]},"properties":{"programs":["EDGE","REV","Data Center","MICRO"],"censusTract":"8264.02","unemploymentRate":21.2,"laborForce":2144,"inFederalOZ":true}},{"type":"Feature","geometry":{"type":"Polygon","coordinates":[[[-87.675419,41.618997],[-87.675401,41.617179],[-87.655957,41.617169],[-87.656023,41.626259],[-87.665719,41.626284],[-87.665696,41.622648],[-87.675279,41.622669],[-87.675419,41.618997]]]},"properties":{"programs":["EDGE","REV","Data Center","MICRO"],"censusTract":"8269.01","unemploymentRate":22,"laborForce":756,"inFederalOZ":true}},{"type":"Feature","geometry":{"type":"Polygon","coordinates":[[[-87.675401,41.617179],[-87.675332,41.613538],[-87.672044,41.613537],[-87.672574,41.615354],[-87.665652,41.615352],[-87.665642,41.611747],[-87.65595,41.611726],[-87.655957,41.617169],[-87.675401,41.617179]]]},"properties":{"programs":["EDGE","REV","Data Center","MICRO"],"censusTract":"8269.02","unemploymentRate":38.3,"laborForce":732,"inFederalOZ":false}},{"type":"Feature","geometry":{"type":"Polygon","coordinates":[[[-87.607327,41.593595],[-87.607324,41.589394],[-87.602718,41.586325],[-87.583721,41.586471],[-87.583727,41.593709],[-87.607327,41.593595]]]},"properties":{"programs":["EDGE","REV","Data Center","MICRO"],"censusTract":"8278.04","unemploymentRate":25.5,"laborForce":1506,"inFederalOZ":false}},{"type":"Feature","geometry":{"type":"Polygon","coordinates":[[[-87.884947,41.936419],[-87.884727,41.930987],[-87.865303,41.931357],[-87.86524,41.929691],[-87.857037,41.929192],[-87.859719,41.936898],[-87.867953,41.936942],[-87.884947,41.936419]]]},"properties":{"programs":["EDGE","REV","Data Center","MICRO"],"censusTract":"8114.01","unemploymentRate":12.2,"laborForce":2211,"inFederalOZ":false}},{"type":"Feature","geometry":{"type":"Polygon","coordinates":[[[-87.799744,41.748134],[-87.799102,41.7335],[-87.789393,41.733672],[-87.789689,41.740974],[-87.779966,41.74115],[-87.780238,41.748474],[-87.799744,41.748134]]]},"properties":{"programs":["EDGE","REV","Data Center","MICRO"],"censusTract":"8210.01","unemploymentRate":14.2,"laborForce":2339,"inFederalOZ":false}},{"type":"Feature","geometry":{"type":"Polygon","coordinates":[[[-87.617016,41.595435],[-87.616896,41.585863],[-87.615136,41.583668],[-87.614982,41.581389],[-87.61212,41.58137],[-87.612057,41.579375],[-87.604556,41.57929],[-87.591602,41.577834],[-87.581954,41.577821],[-87.582157,41.579582],[-87.583614,41.582931],[-87.583721,41.586471],[-87.602718,41.586325],[-87.617016,41.595435]]]},"properties":{"programs":["EDGE","REV","Data Center","MICRO"],"censusTract":"8278.05","unemploymentRate":18.1,"laborForce":1409,"inFederalOZ":false}},{"type":"Feature","geometry":{"type":"Polygon","coordinates":[[[-87.674534,41.527892],[-87.674388,41.513291],[-87.664666,41.51328],[-87.664596,41.506017],[-87.654925,41.506012],[-87.655074,41.526915],[-87.656729,41.527843],[-87.674534,41.527892]]]},"properties":{"programs":["EDGE","REV","Data Center","MICRO"],"censusTract":"8293.01","unemploymentRate":19,"laborForce":2023,"inFederalOZ":false}},{"type":"Feature","geometry":{"type":"Polygon","coordinates":[[[-87.674388,41.513291],[-87.6743,41.499029],[-87.654944,41.499034],[-87.654925,41.506012],[-87.664596,41.506017],[-87.664666,41.51328],[-87.674388,41.513291]]]},"properties":{"programs":["EDGE","REV","Data Center","MICRO"],"censusTract":"8293.02","unemploymentRate":16.4,"laborForce":1711,"inFederalOZ":true}},{"type":"Feature","geometry":{"type":"Polygon","coordinates":[[[-87.6743,41.499029],[-87.674274,41.494937],[-87.645159,41.494899],[-87.645177,41.498945],[-87.6743,41.499029]]]},"properties":{"programs":["EDGE","REV","Data Center","MICRO"],"censusTract":"8294.01","unemploymentRate":35.2,"laborForce":545,"inFederalOZ":true}},{"type":"Feature","geometry":{"type":"Polygon","coordinates":[[[-87.655856,41.575208],[-87.655534,41.560799],[-87.655743,41.560682],[-87.655727,41.557308],[-87.636079,41.557399],[-87.636384,41.582342],[-87.636876,41.582246],[-87.636969,41.580988],[-87.6375,41.58013],[-87.639221,41.579225],[-87.653447,41.579083],[-87.653601,41.578695],[-87.654807,41.578568],[-87.655738,41.577339],[-87.655856,41.575208]]]},"properties":{"programs":["EDGE","REV","Data Center","MICRO"],"censusTract":"8284.02","unemploymentRate":14.6,"laborForce":1790,"inFederalOZ":false}},{"type":"Feature","geometry":{"type":"Polygon","coordinates":[[[-87.577559,41.487088],[-87.577339,41.469992],[-87.525705,41.470283],[-87.52554,41.49463],[-87.540045,41.495932],[-87.543899,41.494985],[-87.545949,41.492998],[-87.546996,41.492534],[-87.553054,41.491723],[-87.555972,41.491905],[-87.567592,41.488359],[-87.570705,41.488171],[-87.577559,41.487088]]]},"properties":{"programs":["EDGE","REV","Data Center","MICRO"],"censusTract":"8285.04","unemploymentRate":29.9,"laborForce":3335,"inFederalOZ":true}},{"type":"Feature","geometry":{"type":"Polygon","coordinates":[[[-87.667937,41.663025],[-87.668171,41.662813],[-87.651212,41.663096],[-87.651411,41.670393],[-87.659547,41.670319],[-87.667937,41.663025]]]},"properties":{"programs":["EDGE","REV","Data Center","MICRO"],"censusTract":"8214.01","unemploymentRate":19,"laborForce":1815,"inFederalOZ":true}},{"type":"Feature","geometry":{"type":"Polygon","coordinates":[[[-87.665753,41.662859],[-87.665609,41.659267],[-87.66313,41.659384],[-87.663173,41.657806],[-87.660742,41.658584],[-87.660608,41.655107],[-87.650564,41.655769],[-87.647002,41.65698],[-87.647204,41.663159],[-87.641423,41.663246],[-87.64167,41.670539],[-87.651411,41.670393],[-87.651212,41.663096],[-87.665753,41.662859]]]},"properties":{"programs":["EDGE","REV","Data Center","MICRO"],"censusTract":"8214.02","unemploymentRate":13.3,"laborForce":1390,"inFederalOZ":false}},{"type":"Feature","geometry":{"type":"Polygon","coordinates":[[[-87.847526,42.040101],[-87.847534,42.039802],[-87.825877,42.040333],[-87.825579,42.05488],[-87.845366,42.054449],[-87.845383,42.043519],[-87.847125,42.043474],[-87.847526,42.040101]]]},"properties":{"programs":["EDGE","REV","Data Center","MICRO"],"censusTract":"8060.04","unemploymentRate":14.1,"laborForce":3349,"inFederalOZ":false}},{"type":"Feature","geometry":{"type":"Polygon","coordinates":[[[-87.894445,42.023817],[-87.894197,42.00936],[-87.885572,42.009639],[-87.890562,42.024052],[-87.894445,42.023817]]]},"properties":{"programs":["EDGE","REV","Data Center","MICRO"],"censusTract":"8065.01","unemploymentRate":12.6,"laborForce":1139,"inFederalOZ":false}},{"type":"Feature","geometry":{"type":"Polygon","coordinates":[[[-87.747081,42.040933],[-87.732612,42.040762],[-87.732451,42.048005],[-87.746936,42.047995],[-87.747081,42.040933]]]},"properties":{"programs":["EDGE","REV","Data Center","MICRO"],"censusTract":"8068.02","unemploymentRate":12.8,"laborForce":1364,"inFederalOZ":false}},{"type":"Feature","geometry":{"type":"Polygon","coordinates":[[[-87.684,42.052104],[-87.681568,42.050471],[-87.674473,42.048481],[-87.674389,42.050181],[-87.671978,42.050816],[-87.661433,42.051449],[-87.666393,42.063475],[-87.673184,42.061541],[-87.677087,42.061631],[-87.677166,42.05622],[-87.679672,42.056246],[-87.679679,42.05559],[-87.681677,42.055612],[-87.681749,42.052076],[-87.684,42.052104]]]},"properties":{"programs":["EDGE","REV","Data Center","MICRO"],"censusTract":"8087.02","unemploymentRate":14.8,"laborForce":1790,"inFederalOZ":false}},{"type":"Feature","geometry":{"type":"Polygon","coordinates":[[[-88.031332,42.003802],[-88.03136,42.003332],[-88.003703,42.003626],[-88.003158,41.992621],[-87.995425,41.992715],[-87.995712,41.993954],[-87.995186,41.996548],[-87.996554,41.998367],[-87.996753,41.99931],[-87.996511,42.000236],[-87.995162,42.000897],[-87.994898,42.001575],[-87.995984,42.005877],[-87.997053,42.006729],[-87.999871,42.007683],[-88.000885,42.008414],[-88.001149,42.008996],[-88.000588,42.010577],[-88.00099,42.012233],[-88.000168,42.019334],[-88.008371,42.022962],[-88.009827,42.024388],[-88.013215,42.025331],[-88.012134,42.027202],[-88.012844,42.028174],[-88.01279,42.03012],[-88.011566,42.030784],[-88.011065,42.031858],[-88.011038,42.033162],[-88.012541,42.034616],[-88.013935,42.034766],[-88.014573,42.035566],[-88.014831,42.036716],[-88.01527,42.037098],[-88.016625,42.037398],[-88.01684,42.03797],[-88.016495,42.039292],[-88.008877,42.052127],[-88.014554,42.054534],[-88.019827,42.055981],[-88.030474,42.057609],[-88.03035,42.048487],[-88.031067,42.039462],[-88.031325,42.020985],[-88.031043,42.017283],[-88.031247,42.016169],[-88.030431,42.013007],[-88.030865,42.011319],[-88.03087,42.009428],[-88.031304,42.008279],[-88.031332,42.003802]]]},"properties":{"programs":["EDGE","REV","Data Center","MICRO"],"censusTract":"7702.02","unemploymentRate":12.8,"laborForce":2070,"inFederalOZ":false}},{"type":"Feature","geometry":{"type":"Polygon","coordinates":[[[-87.816939,41.693801],[-87.816465,41.681701],[-87.796989,41.677923],[-87.797857,41.699926],[-87.810285,41.694715],[-87.813653,41.693819],[-87.816939,41.693801]]]},"properties":{"programs":["EDGE","REV","Data Center","MICRO"],"censusTract":"8238.06","unemploymentRate":13,"laborForce":1857,"inFederalOZ":false}},{"type":"Feature","geometry":{"type":"Polygon","coordinates":[[[-87.731691,41.83864],[-87.731638,41.836802],[-87.724351,41.836882],[-87.724499,41.84241],[-87.731188,41.842321],[-87.731083,41.838648],[-87.731691,41.83864]]]},"properties":{"programs":["EDGE","REV","Data Center","MICRO"],"censusTract":"3018.03","unemploymentRate":12.5,"laborForce":2034,"inFederalOZ":false}},{"type":"Feature","geometry":{"type":"Polygon","coordinates":[[[-87.829939,41.601878],[-87.79416,41.602284],[-87.794374,41.609232],[-87.801403,41.609147],[-87.801487,41.611486],[-87.805545,41.611321],[-87.806253,41.612598],[-87.806347,41.616782],[-87.826481,41.616405],[-87.827783,41.615492],[-87.827287,41.61531],[-87.827387,41.614046],[-87.825937,41.613049],[-87.825848,41.612109],[-87.827175,41.611156],[-87.827418,41.610729],[-87.82725,41.608973],[-87.827956,41.608043],[-87.828894,41.607511],[-87.828888,41.606176],[-87.829218,41.605752],[-87.828877,41.602719],[-87.829939,41.601878]]]},"properties":{"programs":["EDGE","REV","Data Center","MICRO"],"censusTract":"8241.07","unemploymentRate":12.3,"laborForce":3141,"inFederalOZ":false}},{"type":"Feature","geometry":{"type":"Polygon","coordinates":[[[-87.703501,41.497134],[-87.703072,41.496141],[-87.703295,41.4955],[-87.703234,41.484369],[-87.700043,41.484005],[-87.693596,41.480612],[-87.693396,41.484495],[-87.691561,41.484738],[-87.684062,41.484653],[-87.68408,41.488706],[-87.682576,41.490842],[-87.682546,41.494943],[-87.674274,41.494937],[-87.6743,41.499029],[-87.703355,41.499229],[-87.703501,41.497134]]]},"properties":{"programs":["EDGE","REV","Data Center","MICRO"],"censusTract":"8302.02","unemploymentRate":13.2,"laborForce":1545,"inFederalOZ":false}},{"type":"Feature","geometry":{"type":"Polygon","coordinates":[[[-87.738384,41.655738],[-87.738082,41.647163],[-87.67975,41.648193],[-87.679927,41.652461],[-87.689005,41.65268],[-87.701626,41.652201],[-87.704167,41.651948],[-87.704149,41.651433],[-87.718768,41.651334],[-87.725023,41.651804],[-87.725445,41.652155],[-87.733099,41.65378],[-87.738384,41.655738]]]},"properties":{"programs":["EDGE","REV","Data Center","MICRO"],"censusTract":"8236.03","unemploymentRate":16.7,"laborForce":872,"inFederalOZ":false}},{"type":"Feature","geometry":{"type":"Polygon","coordinates":[[[-87.822852,41.84284],[-87.822574,41.835022],[-87.818616,41.835121],[-87.814657,41.834539],[-87.812104,41.834776],[-87.809032,41.833815],[-87.807689,41.833054],[-87.806359,41.831638],[-87.804882,41.827762],[-87.805054,41.826781],[-87.805897,41.825968],[-87.806614,41.82381],[-87.805797,41.823554],[-87.805006,41.822747],[-87.804699,41.821149],[-87.802612,41.821153],[-87.80348,41.843088],[-87.822852,41.84284]]]},"properties":{"programs":["EDGE","REV","Data Center","MICRO"],"censusTract":"8157.01","unemploymentRate":13.2,"laborForce":1834,"inFederalOZ":false}},{"type":"Feature","geometry":{"type":"Polygon","coordinates":[[[-87.583692,41.557472],[-87.583613,41.552299],[-87.582676,41.546915],[-87.582395,41.527024],[-87.581635,41.523789],[-87.580109,41.520806],[-87.558341,41.521035],[-87.558636,41.542825],[-87.529589,41.542925],[-87.529618,41.54775],[-87.525404,41.547823],[-87.525417,41.557543],[-87.583692,41.557472]]]},"properties":{"programs":["EDGE","REV","Data Center","MICRO"],"censusTract":"8285.05","unemploymentRate":19,"laborForce":3181,"inFederalOZ":false}},{"type":"Feature","geometry":{"type":"Polygon","coordinates":[[[-87.580109,41.520806],[-87.578618,41.517874],[-87.577879,41.51467],[-87.577559,41.487088],[-87.570705,41.488171],[-87.567592,41.488359],[-87.555972,41.491905],[-87.553054,41.491723],[-87.546996,41.492534],[-87.545949,41.492998],[-87.543899,41.494985],[-87.540045,41.495932],[-87.52554,41.49463],[-87.525553,41.498876],[-87.529176,41.498896],[-87.529554,41.501259],[-87.533644,41.506475],[-87.558225,41.506482],[-87.558341,41.521035],[-87.580109,41.520806]]]},"properties":{"programs":["EDGE","REV","Data Center","MICRO"],"censusTract":"8285.03","unemploymentRate":17.7,"laborForce":2106,"inFederalOZ":false}},{"type":"Feature","geometry":{"type":"Polygon","coordinates":[[[-87.549394,41.601018],[-87.549319,41.594082],[-87.547246,41.593279],[-87.544116,41.593732],[-87.540784,41.592784],[-87.540633,41.592052],[-87.542436,41.58957],[-87.539634,41.586905],[-87.539081,41.586949],[-87.538157,41.587929],[-87.536749,41.588725],[-87.536117,41.588467],[-87.53563,41.587468],[-87.535048,41.587242],[-87.531076,41.587911],[-87.530207,41.585379],[-87.527098,41.584885],[-87.527756,41.582253],[-87.525302,41.581361],[-87.525222,41.594335],[-87.532223,41.597198],[-87.543092,41.600556],[-87.545703,41.600983],[-87.549394,41.601018]]]},"properties":{"programs":["EDGE","REV","Data Center","MICRO"],"censusTract":"8262.02","unemploymentRate":30.4,"laborForce":3030,"inFederalOZ":true}},{"type":"Feature","geometry":{"type":"Polygon","coordinates":[[[-87.740133,41.701903],[-87.740001,41.698244],[-87.730313,41.698407],[-87.730073,41.691141],[-87.720317,41.691271],[-87.720759,41.702225],[-87.740133,41.701903]]]},"properties":{"programs":["EDGE","REV","Data Center","MICRO"],"censusTract":"8228.02","unemploymentRate":14.2,"laborForce":1482,"inFederalOZ":false}},{"type":"Feature","geometry":{"type":"Polygon","coordinates":[[[-87.558896,41.586991],[-87.558857,41.577619],[-87.531639,41.577886],[-87.525281,41.577107],[-87.525302,41.581361],[-87.527153,41.581846],[-87.527843,41.58238],[-87.527119,41.584],[-87.527224,41.585035],[-87.530207,41.585379],[-87.5308,41.587459],[-87.531251,41.587968],[-87.535048,41.587242],[-87.53563,41.587468],[-87.536117,41.588467],[-87.536749,41.588725],[-87.538157,41.587929],[-87.539081,41.586949],[-87.539634,41.586905],[-87.542415,41.589464],[-87.540575,41.592367],[-87.540897,41.592851],[-87.542267,41.593358],[-87.54445,41.593743],[-87.547246,41.593279],[-87.549601,41.59414],[-87.551735,41.593182],[-87.552188,41.593532],[-87.552649,41.595005],[-87.553149,41.595257],[-87.558612,41.594518],[-87.558896,41.586991]]]},"properties":{"programs":["EDGE","REV","Data Center","MICRO"],"censusTract":"8279.02","unemploymentRate":19.5,"laborForce":2168,"inFederalOZ":false}},{"type":"Feature","geometry":{"type":"Polygon","coordinates":[[[-87.771144,41.542181],[-87.771079,41.528128],[-87.693889,41.527995],[-87.694196,41.557165],[-87.713614,41.557132],[-87.71339,41.542503],[-87.771142,41.542648],[-87.771144,41.542181]]]},"properties":{"programs":["EDGE","REV","Data Center","MICRO"],"censusTract":"8299.02","unemploymentRate":31.2,"laborForce":3103,"inFederalOZ":false}},{"type":"Feature","geometry":{"type":"Polygon","coordinates":[[[-87.583764,41.571219],[-87.583701,41.564728],[-87.549005,41.56473],[-87.549089,41.571975],[-87.558834,41.571951],[-87.558857,41.577886],[-87.581954,41.577821],[-87.583488,41.57326],[-87.583764,41.571219]]]},"properties":{"programs":["EDGE","REV","Data Center","MICRO"],"censusTract":"8282.01","unemploymentRate":13.1,"laborForce":2063,"inFederalOZ":false}},{"type":"Feature","geometry":{"type":"Polygon","coordinates":[[[-87.713287,41.527937],[-87.713169,41.510273],[-87.71087,41.509723],[-87.708462,41.513444],[-87.69578,41.513445],[-87.69962,41.506161],[-87.679199,41.506176],[-87.679205,41.503976],[-87.674329,41.50407],[-87.674534,41.527892],[-87.713287,41.527937]]]},"properties":{"programs":["EDGE","REV","Data Center","MICRO"],"censusTract":"8300.05","unemploymentRate":16,"laborForce":1811,"inFederalOZ":false}},{"type":"Feature","geometry":{"type":"Polygon","coordinates":[[[-87.583704,41.601345],[-87.58369,41.60091],[-87.577485,41.600951],[-87.577228,41.595095],[-87.576129,41.59404],[-87.574425,41.593847],[-87.573015,41.594222],[-87.570713,41.593095],[-87.569056,41.593016],[-87.56883,41.593684],[-87.569927,41.595273],[-87.569551,41.596145],[-87.568635,41.596633],[-87.567883,41.596298],[-87.56669,41.5942],[-87.563658,41.594588],[-87.56155,41.592759],[-87.560124,41.592203],[-87.559041,41.592522],[-87.558937,41.593982],[-87.558612,41.594518],[-87.553341,41.595249],[-87.552649,41.595005],[-87.552075,41.593375],[-87.551362,41.593229],[-87.550016,41.59405],[-87.549319,41.594082],[-87.549345,41.613353],[-87.54912,41.615452],[-87.579021,41.615474],[-87.579482,41.611697],[-87.582938,41.60515],[-87.583535,41.603313],[-87.583704,41.601345]]]},"properties":{"programs":["EDGE","REV","Data Center","MICRO"],"censusTract":"8262.01","unemploymentRate":13.4,"laborForce":1338,"inFederalOZ":false}},{"type":"Feature","geometry":{"type":"Polygon","coordinates":[[[-87.798374,41.711904],[-87.797784,41.6983],[-87.794183,41.700135],[-87.789485,41.703175],[-87.789094,41.702627],[-87.788864,41.697462],[-87.779112,41.697682],[-87.77937,41.704009],[-87.779062,41.704163],[-87.769348,41.698898],[-87.769591,41.705057],[-87.767055,41.705091],[-87.767408,41.71227],[-87.770982,41.710653],[-87.774152,41.708698],[-87.779512,41.708652],[-87.779553,41.709718],[-87.777595,41.711437],[-87.779634,41.711413],[-87.779939,41.7196],[-87.785416,41.719505],[-87.785397,41.719041],[-87.784807,41.719033],[-87.784665,41.714022],[-87.785834,41.713998],[-87.785792,41.712822],[-87.789453,41.712631],[-87.789553,41.715756],[-87.793995,41.715664],[-87.793866,41.712001],[-87.798374,41.711904]]]},"properties":{"programs":["EDGE","REV","Data Center","MICRO"],"censusTract":"8230.01","unemploymentRate":14.8,"laborForce":2797,"inFederalOZ":false}},{"type":"Feature","geometry":{"type":"Polygon","coordinates":[[[-87.720065,41.683967],[-87.719414,41.669416],[-87.709762,41.669507],[-87.710178,41.675057],[-87.709901,41.676837],[-87.686363,41.677205],[-87.68576,41.678619],[-87.685864,41.684475],[-87.690823,41.684402],[-87.6912,41.698986],[-87.696152,41.69896],[-87.695717,41.688032],[-87.699473,41.687933],[-87.699398,41.686149],[-87.700624,41.686134],[-87.700553,41.684263],[-87.705417,41.684187],[-87.705285,41.680579],[-87.71136,41.680438],[-87.711516,41.684093],[-87.720065,41.683967]]]},"properties":{"programs":["EDGE","REV","Data Center","MICRO"],"censusTract":"8233.04","unemploymentRate":17.7,"laborForce":3003,"inFederalOZ":false}},{"type":"Feature","geometry":{"type":"Polygon","coordinates":[[[-87.617074,41.616719],[-87.617016,41.595614],[-87.607324,41.589394],[-87.607327,41.593595],[-87.597642,41.593544],[-87.597672,41.607237],[-87.600067,41.607044],[-87.602758,41.607524],[-87.604535,41.607163],[-87.610349,41.607089],[-87.613124,41.607642],[-87.614266,41.609203],[-87.613926,41.61047],[-87.612847,41.611967],[-87.612934,41.613606],[-87.614508,41.615441],[-87.617074,41.616719]]]},"properties":{"programs":["EDGE","REV","Data Center","MICRO"],"censusTract":"8278.01","unemploymentRate":18.3,"laborForce":2387,"inFederalOZ":false}},{"type":"Feature","geometry":{"type":"Polygon","coordinates":[[[-87.583748,41.584702],[-87.583614,41.582931],[-87.582157,41.579582],[-87.581954,41.577821],[-87.558857,41.577886],[-87.558687,41.594456],[-87.559041,41.592522],[-87.560124,41.592203],[-87.56155,41.592759],[-87.563658,41.594588],[-87.56669,41.5942],[-87.567883,41.596298],[-87.568635,41.596633],[-87.569551,41.596145],[-87.569927,41.595273],[-87.56883,41.593684],[-87.569056,41.593016],[-87.570713,41.593095],[-87.573015,41.594222],[-87.574425,41.593847],[-87.576129,41.59404],[-87.577228,41.595095],[-87.577485,41.600951],[-87.58369,41.60091],[-87.583748,41.584702]]]},"properties":{"programs":["EDGE","REV","Data Center","MICRO"],"censusTract":"8279.01","unemploymentRate":19.4,"laborForce":1007,"inFederalOZ":false}},{"type":"Feature","geometry":{"type":"Polygon","coordinates":[[[-87.613986,41.644606],[-87.614397,41.6446],[-87.609906,41.641243],[-87.609929,41.640667],[-87.603298,41.63591],[-87.6027,41.635799],[-87.6027,41.63068],[-87.599353,41.62748],[-87.595506,41.629774],[-87.594544,41.629952],[-87.597873,41.632413],[-87.597856,41.633432],[-87.596752,41.632861],[-87.596609,41.633432],[-87.582097,41.633555],[-87.582095,41.635153],[-87.578386,41.634363],[-87.578483,41.644729],[-87.613986,41.644606]]]},"properties":{"programs":["EDGE","REV","Data Center","MICRO"],"censusTract":"8264.01","unemploymentRate":30.5,"laborForce":2141,"inFederalOZ":false}},{"type":"Feature","geometry":{"type":"Polygon","coordinates":[[[-87.728028,41.968242],[-87.727828,41.960947],[-87.724158,41.960992],[-87.72417,41.961433],[-87.723557,41.961439],[-87.723601,41.962866],[-87.724213,41.962859],[-87.72426,41.964635],[-87.723637,41.964642],[-87.723746,41.967832],[-87.724354,41.967826],[-87.724386,41.968281],[-87.728028,41.968242]]]},"properties":{"programs":["EDGE","REV","Data Center","MICRO"],"censusTract":"1406.01","unemploymentRate":14.1,"laborForce":1311,"inFederalOZ":false}},{"type":"Feature","geometry":{"type":"Polygon","coordinates":[[[-87.618917,41.6564],[-87.61728,41.656834],[-87.617271,41.655792],[-87.616918,41.656335],[-87.613232,41.656418],[-87.612337,41.656051],[-87.612119,41.651843],[-87.607571,41.651856],[-87.607563,41.657321],[-87.598704,41.657295],[-87.597367,41.65673],[-87.596818,41.655729],[-87.594987,41.655937],[-87.592353,41.655306],[-87.590458,41.655703],[-87.589115,41.655334],[-87.585199,41.65566],[-87.601024,41.674339],[-87.601733,41.676896],[-87.601954,41.684144],[-87.601601,41.686138],[-87.604417,41.685512],[-87.612322,41.685433],[-87.618917,41.6564]]]},"properties":{"programs":["EDGE","REV","Data Center","MICRO"],"censusTract":"5401.02","unemploymentRate":44.7,"laborForce":1295,"inFederalOZ":false}},{"type":"Feature","geometry":{"type":"Polygon","coordinates":[[[-87.721649,41.741267],[-87.721436,41.734862],[-87.702124,41.735203],[-87.702173,41.741583],[-87.721649,41.741267]]]},"properties":{"programs":["EDGE","REV","Data Center","MICRO"],"censusTract":"7004.02","unemploymentRate":27.5,"laborForce":2279,"inFederalOZ":false}},{"type":"Feature","geometry":{"type":"Polygon","coordinates":[[[-87.718061,41.469999],[-87.718203,41.469734],[-87.703037,41.469868],[-87.703148,41.475374],[-87.702879,41.477745],[-87.703228,41.48239],[-87.703295,41.4955],[-87.703072,41.496141],[-87.70354,41.497043],[-87.703355,41.499229],[-87.713073,41.499032],[-87.71299,41.480089],[-87.713578,41.478404],[-87.718061,41.469999]]]},"properties":{"programs":["EDGE","REV","Data Center","MICRO"],"censusTract":"8302.01","unemploymentRate":17,"laborForce":2799,"inFederalOZ":false}},{"type":"Feature","geometry":{"type":"Polygon","coordinates":[[[-87.640974,41.550332],[-87.640979,41.54967],[-87.636044,41.549642],[-87.635794,41.527881],[-87.625844,41.528034],[-87.625774,41.520709],[-87.623997,41.520714],[-87.613732,41.536376],[-87.61236,41.539007],[-87.611961,41.5411],[-87.612251,41.55744],[-87.640945,41.557374],[-87.640974,41.550332]]]},"properties":{"programs":["EDGE","REV","Data Center","MICRO"],"censusTract":"8287.01","unemploymentRate":18.7,"laborForce":2091,"inFederalOZ":false}},{"type":"Feature","geometry":{"type":"Polygon","coordinates":[[[-87.623997,41.520714],[-87.580109,41.520806],[-87.581635,41.523789],[-87.582395,41.527024],[-87.582676,41.546915],[-87.583613,41.552299],[-87.583692,41.557472],[-87.612251,41.55744],[-87.611961,41.5411],[-87.61236,41.539007],[-87.613732,41.536376],[-87.623997,41.520714]]]},"properties":{"programs":["EDGE","REV","Data Center","MICRO"],"censusTract":"8287.02","unemploymentRate":19.7,"laborForce":2199,"inFederalOZ":false}},{"type":"Feature","geometry":{"type":"Polygon","coordinates":[[[-87.740605,41.714858],[-87.740415,41.709394],[-87.737407,41.709443],[-87.737358,41.709029],[-87.737041,41.708981],[-87.721036,41.709523],[-87.721243,41.716817],[-87.726103,41.716725],[-87.726039,41.714904],[-87.740605,41.714858]]]},"properties":{"programs":["EDGE","REV","Data Center","MICRO"],"censusTract":"8227.01","unemploymentRate":13.2,"laborForce":2067,"inFederalOZ":false}},{"type":"Feature","geometry":{"type":"Polygon","coordinates":[[[-87.740415,41.709394],[-87.740133,41.701903],[-87.720759,41.702225],[-87.721036,41.709523],[-87.737041,41.708981],[-87.737358,41.709029],[-87.737407,41.709443],[-87.740415,41.709394]]]},"properties":{"programs":["EDGE","REV","Data Center","MICRO"],"censusTract":"8227.02","unemploymentRate":12.9,"laborForce":1632,"inFederalOZ":false}},{"type":"Feature","geometry":{"type":"Polygon","coordinates":[[[-87.739108,41.675345],[-87.738384,41.655738],[-87.733099,41.65378],[-87.725445,41.652155],[-87.725023,41.651804],[-87.713849,41.651233],[-87.704149,41.651433],[-87.704528,41.660707],[-87.708094,41.662257],[-87.709528,41.662236],[-87.709762,41.669507],[-87.723872,41.669283],[-87.731366,41.672745],[-87.738827,41.678921],[-87.739108,41.675345]]]},"properties":{"programs":["EDGE","REV","Data Center","MICRO"],"censusTract":"8233.02","unemploymentRate":13.9,"laborForce":2842,"inFederalOZ":false}},{"type":"Feature","geometry":{"type":"Polygon","coordinates":[[[-87.846842,41.717964],[-87.846305,41.703423],[-87.817317,41.704008],[-87.817891,41.718551],[-87.846842,41.717964]]]},"properties":{"programs":["EDGE","REV","Data Center","MICRO"],"censusTract":"8237.02","unemploymentRate":14.4,"laborForce":3067,"inFederalOZ":false}},{"type":"Feature","geometry":{"type":"Polygon","coordinates":[[[-87.79416,41.602284],[-87.79366,41.587745],[-87.755497,41.588337],[-87.755999,41.602902],[-87.79416,41.602284]]]},"properties":{"programs":["EDGE","REV","Data Center","MICRO"],"censusTract":"8245.07","unemploymentRate":13.5,"laborForce":1820,"inFederalOZ":false}},{"type":"Feature","geometry":{"type":"Polygon","coordinates":[[[-87.713775,41.571667],[-87.713614,41.557132],[-87.694196,41.557165],[-87.694375,41.571722],[-87.713775,41.571667]]]},"properties":{"programs":["EDGE","REV","Data Center","MICRO"],"censusTract":"8255.04","unemploymentRate":13.4,"laborForce":1584,"inFederalOZ":false}},{"type":"Feature","geometry":{"type":"Polygon","coordinates":[[[-87.75473,41.569895],[-87.753084,41.568533],[-87.752584,41.567673],[-87.752394,41.557042],[-87.713614,41.557132],[-87.713775,41.571667],[-87.748531,41.571606],[-87.750475,41.570177],[-87.75473,41.569895]]]},"properties":{"programs":["EDGE","REV","Data Center","MICRO"],"censusTract":"8255.05","unemploymentRate":28.2,"laborForce":2681,"inFederalOZ":false}}]}