{"type":"FeatureCollection","features":[{"type":"Feature","geometry":{"type":"Polygon","coordinates":[[[-87.6048228339127,41.7366494073459],[-87.6044816123525,41.7220443237605],[-87.6031822404136,41.7220483492824],[-87.60411696598058,41.718],[-87.59828475987334,41.718],[-87.5984245268158,41.722142099313],[-87.5928747291124,41.722218345561],[-87.5924456213751,41.7217131017724],[-87.5922730741006,41.72121645754],[-87.59223925544418,41.718],[-87.58506462458396,41.718],[-87.5851463239938,41.7202815599545],[-87.586957306204,41.7223172411339],[-87.5599053517937,41.7226543078762],[-87.55981243588914,41.718],[-87.54,41.718],[-87.54,41.75171411190266],[-87.5411044601712,41.7521061792726],[-87.5613860517369,41.7517949203969],[-87.5611544106131,41.7372587399373],[-87.5688715212711,41.737153518908],[-87.5671319278089,41.7354056689958],[-87.565816686467,41.7344532969857],[-87.5647588827733,41.7337536574023],[-87.5625816523289,41.7326921924136],[-87.5567466260534,41.7284624838094],[-87.5566493810338,41.724541744809],[-87.5644197714222,41.7244461566631],[-87.5646038116173,41.7299069982623],[-87.5694568267085,41.7298433046348],[-87.5693065863331,41.7243761284287],[-87.5754010107276,41.7242980132473],[-87.5754459146813,41.7261156707346],[-87.5843755070496,41.7259978406462],[-87.5845939472592,41.7365026270989],[-87.5755912080808,41.7366212234947],[-87.5756565689229,41.7406050948195],[-87.5727228444271,41.7406486080993],[-87.5715585211305,41.7416028029025],[-87.5725703954636,41.7423312711769],[-87.5722950826863,41.7426405809792],[-87.5727840765055,41.7429960676925],[-87.5727957187964,41.7433485133487],[-87.573412131653,41.7433532896572],[-87.5739385653261,41.742934070867],[-87.5719714327605,41.741513975788],[-87.5728698547774,41.7408275509701],[-87.5759040397549,41.7407807373563],[-87.5758507196061,41.7374157090234],[-87.5902856220791,41.7372821376262],[-87.5902757151846,41.7368518204533],[-87.5955803763889,41.7367769068863],[-87.5976990492213,41.7403619478142],[-87.5991392041981,41.7403586919271],[-87.5999736406633,41.7367149533273],[-87.6048228339127,41.7366494073459]]]},"properties":{"name":"3","description":"3","fill-opacity":0,"stroke-opacity":1,"stroke":"#ff0000"},"id":"Chicago_Enterprise_Zones.4"}]}