{"type":"FeatureCollection","features":[{"type":"Feature","geometry":{"type":"Polygon","coordinates":[[[-87.614963733,41.7511218320001],[-87.614824732,41.745645831],[-87.614170732,41.745654831],[-87.614134731,41.7442818320001],[-87.612316732,41.744312832],[-87.612355731,41.7456858310001],[-87.611752731,41.7456968320001],[-87.6075137299999,41.7457668320001],[-87.60747773,41.7443958320001],[-87.60626273,41.7444158320001],[-87.60630073,41.7457858330001],[-87.605089729,41.745805832],[-87.60522073,41.7512938340001],[-87.614963733,41.7511218320001]]]},"properties":{"name":"Federal OZ - Tract 17031440201","description":"17031440201","fill-opacity":0,"stroke-opacity":1,"stroke":"#ff0000","Census Tract ID":"Capital gains deferral + 10% basis step-up after 5 years + 100% exclusion after 10 years","Program":"Yes - tax benefits for QOF investors","Tax Benefit":"Indirect - attracts patient capital from Qualified Opportunity Funds"},"id":"Chicago_Federal_Opportunity_Zones.2"},{"type":"Feature","geometry":{"type":"Polygon","coordinates":[[[-87.60570162134698,41.77],[-87.605396731,41.758587834],[-87.595528727,41.7587038350001],[-87.594725728,41.762352836],[-87.593329728,41.762361835],[-87.593361728,41.7650908360001],[-87.5940537279999,41.7650848370001],[-87.593893728,41.7660118370001],[-87.592450728,41.7660188360001],[-87.592241727,41.767713837],[-87.59224942858371,41.77],[-87.60570162134698,41.77]]]},"properties":{"name":"Federal OZ - Tract 17031841800","description":"17031841800","fill-opacity":0,"stroke-opacity":1,"stroke":"#ff0000","Census Tract ID":"Capital gains deferral + 10% basis step-up after 5 years + 100% exclusion after 10 years","Program":"Yes - tax benefits for QOF investors","Tax Benefit":"Indirect - attracts patient capital from Qualified Opportunity Funds"},"id":"Chicago_Federal_Opportunity_Zones.8"},{"type":"Feature","geometry":{"type":"Polygon","coordinates":[[[-87.57640896031502,41.77],[-87.576305723,41.7661638370001],[-87.571396722,41.7662118380001],[-87.57151850726024,41.77],[-87.57640896031502,41.77]]]},"properties":{"name":"Federal OZ - Tract 17031430101","description":"17031430101","fill-opacity":0,"stroke-opacity":1,"stroke":"#ff0000","Census Tract ID":"Capital gains deferral + 10% basis step-up after 5 years + 100% exclusion after 10 years","Program":"Yes - tax benefits for QOF investors","Tax Benefit":"Indirect - attracts patient capital from Qualified Opportunity Funds"},"id":"Chicago_Federal_Opportunity_Zones.19"},{"type":"Feature","geometry":{"type":"Polygon","coordinates":[[[-87.598705727,41.7440548320001],[-87.5975947269999,41.7407508320001],[-87.595313726,41.7367908310001],[-87.585642723,41.7369208310001],[-87.585913724,41.7486478330001],[-87.5858267249999,41.7516798340001],[-87.5936957279999,41.757342835],[-87.594674728,41.756873834],[-87.5959477279999,41.756864835],[-87.596345728,41.755073834],[-87.5949137279999,41.755046834],[-87.595536728,41.7531518340001],[-87.595496727,41.7513948330001],[-87.597240728,41.751376834],[-87.597425728,41.750572834],[-87.597178728,41.750795833],[-87.598705727,41.7440548320001]]]},"properties":{"name":"Federal OZ - Tract 17031834300","description":"17031834300","fill-opacity":0,"stroke-opacity":1,"stroke":"#ff0000","Census Tract ID":"Capital gains deferral + 10% basis step-up after 5 years + 100% exclusion after 10 years","Program":"Yes - tax benefits for QOF investors","Tax Benefit":"Indirect - attracts patient capital from Qualified Opportunity Funds"},"id":"Chicago_Federal_Opportunity_Zones.21"},{"type":"Feature","geometry":{"type":"Polygon","coordinates":[[[-87.595619729,41.7587038350001],[-87.5858267249999,41.7516798340001],[-87.585829724,41.751513834],[-87.575987722,41.7516138350001],[-87.576147722,41.7588838360001],[-87.595619729,41.7587038350001]]]},"properties":{"name":"Federal OZ - Tract 17031834200","description":"17031834200","fill-opacity":0,"stroke-opacity":1,"stroke":"#ff0000","Census Tract ID":"Capital gains deferral + 10% basis step-up after 5 years + 100% exclusion after 10 years","Program":"Yes - tax benefits for QOF investors","Tax Benefit":"Indirect - attracts patient capital from Qualified Opportunity Funds"},"id":"Chicago_Federal_Opportunity_Zones.22"},{"type":"Feature","geometry":{"type":"Polygon","coordinates":[[[-87.5612377159999,41.7427158340001],[-87.561159716,41.737266833],[-87.551436713,41.7373858340001],[-87.551531712,41.7421548350001],[-87.552606714,41.7428308340001],[-87.5612377159999,41.7427158340001]]]},"properties":{"name":"Federal OZ - Tract 17031460301","description":"17031460301","fill-opacity":0,"stroke-opacity":1,"stroke":"#ff0000","Census Tract ID":"Capital gains deferral + 10% basis step-up after 5 years + 100% exclusion after 10 years","Program":"Yes - tax benefits for QOF investors","Tax Benefit":"Indirect - attracts patient capital from Qualified Opportunity Funds"},"id":"Chicago_Federal_Opportunity_Zones.30"},{"type":"Feature","geometry":{"type":"Polygon","coordinates":[[[-87.5613917169999,41.751802836],[-87.5612377159999,41.7427158340001],[-87.552606714,41.7428308340001],[-87.551531712,41.7421548350001],[-87.551804713,41.7440018350001],[-87.552945714,41.744644835],[-87.553980715,41.7446298350001],[-87.5540777149999,41.7519028360001],[-87.5613917169999,41.751802836]]]},"properties":{"name":"Federal OZ - Tract 17031460302","description":"17031460302","fill-opacity":0,"stroke-opacity":1,"stroke":"#ff0000","Census Tract ID":"Capital gains deferral + 10% basis step-up after 5 years + 100% exclusion after 10 years","Program":"Yes - tax benefits for QOF investors","Tax Benefit":"Indirect - attracts patient capital from Qualified Opportunity Funds"},"id":"Chicago_Federal_Opportunity_Zones.31"},{"type":"Feature","geometry":{"type":"Polygon","coordinates":[[[-87.56645572,41.7626268380001],[-87.5663087189999,41.755368837],[-87.556133717,41.7554968360001],[-87.5601257169999,41.7591868370001],[-87.56330072,41.7627078370001],[-87.56645572,41.7626268380001]]]},"properties":{"name":"Federal OZ - Tract 17031431302","description":"17031431302","fill-opacity":0,"stroke-opacity":1,"stroke":"#ff0000","Census Tract ID":"Capital gains deferral + 10% basis step-up after 5 years + 100% exclusion after 10 years","Program":"Yes - tax benefits for QOF investors","Tax Benefit":"Indirect - attracts patient capital from Qualified Opportunity Funds"},"id":"Chicago_Federal_Opportunity_Zones.32"},{"type":"Feature","geometry":{"type":"Polygon","coordinates":[[[-87.5663087189999,41.755368837],[-87.566238718,41.751735835],[-87.552293714,41.751926837],[-87.556133717,41.7554968360001],[-87.5663087189999,41.755368837]]]},"properties":{"name":"Federal OZ - Tract 17031431301","description":"17031431301","fill-opacity":0,"stroke-opacity":1,"stroke":"#ff0000","Census Tract ID":"Capital gains deferral + 10% basis step-up after 5 years + 100% exclusion after 10 years","Program":"Yes - tax benefits for QOF investors","Tax Benefit":"Indirect - attracts patient capital from Qualified Opportunity Funds"},"id":"Chicago_Federal_Opportunity_Zones.33"},{"type":"Feature","geometry":{"type":"Polygon","coordinates":[[[-87.586393727,41.7684648370001],[-87.586332725,41.766068836],[-87.576305723,41.7661638370001],[-87.57640896031502,41.77],[-87.58625101927734,41.77],[-87.586393727,41.7684648370001]]]},"properties":{"name":"Federal OZ - Tract 17031430200","description":"17031430200","fill-opacity":0,"stroke-opacity":1,"stroke":"#ff0000","Census Tract ID":"Capital gains deferral + 10% basis step-up after 5 years + 100% exclusion after 10 years","Program":"Yes - tax benefits for QOF investors","Tax Benefit":"Indirect - attracts patient capital from Qualified Opportunity Funds"},"id":"Chicago_Federal_Opportunity_Zones.56"},{"type":"Feature","geometry":{"type":"Polygon","coordinates":[[[-87.592453728,41.7666418370001],[-87.592450728,41.7660188360001],[-87.586332725,41.766068836],[-87.586393727,41.7684648370001],[-87.58625101927734,41.77],[-87.59224942858371,41.77],[-87.592241727,41.767713837],[-87.592453728,41.7666418370001]]]},"properties":{"name":"Federal OZ - Tract 17031430300","description":"17031430300","fill-opacity":0,"stroke-opacity":1,"stroke":"#ff0000","Census Tract ID":"Capital gains deferral + 10% basis step-up after 5 years + 100% exclusion after 10 years","Program":"Yes - tax benefits for QOF investors","Tax Benefit":"Indirect - attracts patient capital from Qualified Opportunity Funds"},"id":"Chicago_Federal_Opportunity_Zones.69"},{"type":"Feature","geometry":{"type":"Polygon","coordinates":[[[-87.595528727,41.7587038350001],[-87.586141724,41.7587718360001],[-87.586332725,41.766068836],[-87.593893728,41.7660118370001],[-87.5940537279999,41.7650848370001],[-87.593361728,41.7650908360001],[-87.593329728,41.762361835],[-87.594725728,41.762352836],[-87.595528727,41.7587038350001]]]},"properties":{"name":"Federal OZ - Tract 17031430400","description":"17031430400","fill-opacity":0,"stroke-opacity":1,"stroke":"#ff0000","Census Tract ID":"Capital gains deferral + 10% basis step-up after 5 years + 100% exclusion after 10 years","Program":"Yes - tax benefits for QOF investors","Tax Benefit":"Indirect - attracts patient capital from Qualified Opportunity Funds"},"id":"Chicago_Federal_Opportunity_Zones.70"},{"type":"Feature","geometry":{"type":"Polygon","coordinates":[[[-87.576305723,41.7661638370001],[-87.5762267219999,41.7625228370001],[-87.56645572,41.7626268380001],[-87.566494719,41.7662538380001],[-87.576305723,41.7661638370001]]]},"properties":{"name":"Federal OZ - Tract 17031430600","description":"17031430600","fill-opacity":0,"stroke-opacity":1,"stroke":"#ff0000","Census Tract ID":"Capital gains deferral + 10% basis step-up after 5 years + 100% exclusion after 10 years","Program":"Yes - tax benefits for QOF investors","Tax Benefit":"Indirect - attracts patient capital from Qualified Opportunity Funds"},"id":"Chicago_Federal_Opportunity_Zones.71"},{"type":"Feature","geometry":{"type":"Polygon","coordinates":[[[-87.586237725,41.762417837],[-87.586141724,41.7587718360001],[-87.576147722,41.7588838360001],[-87.5762267219999,41.7625228370001],[-87.586237725,41.762417837]]]},"properties":{"name":"Federal OZ - Tract 17031430900","description":"17031430900","fill-opacity":0,"stroke-opacity":1,"stroke":"#ff0000","Census Tract ID":"Capital gains deferral + 10% basis step-up after 5 years + 100% exclusion after 10 years","Program":"Yes - tax benefits for QOF investors","Tax Benefit":"Indirect - attracts patient capital from Qualified Opportunity Funds"},"id":"Chicago_Federal_Opportunity_Zones.72"},{"type":"Feature","geometry":{"type":"Polygon","coordinates":[[[-87.554114715,41.751817836],[-87.553980715,41.7446298350001],[-87.541879711,41.7447658350001],[-87.5417407099999,41.7393428340001],[-87.545365711,41.739288835],[-87.545316712,41.7374708340001],[-87.54308771,41.737422834],[-87.542988711,41.733841833],[-87.54,41.73392051898688],[-87.54,41.75756165179427],[-87.5407447119999,41.757442838],[-87.540490712,41.7571848380001],[-87.544520712,41.7546138380001],[-87.5454007119999,41.7546428380001],[-87.546265713,41.7541738370001],[-87.546978714,41.7542388370001],[-87.547766713,41.7548028370001],[-87.548115713,41.755437837],[-87.547923714,41.755940837],[-87.548754714,41.754026837],[-87.552251715,41.7519268360001],[-87.554114715,41.751817836]]]},"properties":{"name":"Federal OZ - Tract 17031460100","description":"17031460100","fill-opacity":0,"stroke-opacity":1,"stroke":"#ff0000","Census Tract ID":"Capital gains deferral + 10% basis step-up after 5 years + 100% exclusion after 10 years","Program":"Yes - tax benefits for QOF investors","Tax Benefit":"Indirect - attracts patient capital from Qualified Opportunity Funds"},"id":"Chicago_Federal_Opportunity_Zones.103"},{"type":"Feature","geometry":{"type":"Polygon","coordinates":[[[-87.552945714,41.744644835],[-87.551775714,41.7439608350001],[-87.551547714,41.742547835],[-87.551436713,41.7373858340001],[-87.545316712,41.7374708340001],[-87.545365711,41.739288835],[-87.5417407099999,41.7393428340001],[-87.54190271,41.7447808360001],[-87.552945714,41.744644835]]]},"properties":{"name":"Federal OZ - Tract 17031460200","description":"17031460200","fill-opacity":0,"stroke-opacity":1,"stroke":"#ff0000","Census Tract ID":"Capital gains deferral + 10% basis step-up after 5 years + 100% exclusion after 10 years","Program":"Yes - tax benefits for QOF investors","Tax Benefit":"Indirect - attracts patient capital from Qualified Opportunity Funds"},"id":"Chicago_Federal_Opportunity_Zones.104"},{"type":"Feature","geometry":{"type":"Polygon","coordinates":[[[-87.566238718,41.751735835],[-87.5660337159999,41.7374408320001],[-87.565706717,41.7372058330001],[-87.561159716,41.737266833],[-87.5613917169999,41.751802836],[-87.566238718,41.751735835]]]},"properties":{"name":"Federal OZ - Tract 17031460400","description":"17031460400","fill-opacity":0,"stroke-opacity":1,"stroke":"#ff0000","Census Tract ID":"Capital gains deferral + 10% basis step-up after 5 years + 100% exclusion after 10 years","Program":"Yes - tax benefits for QOF investors","Tax Benefit":"Indirect - attracts patient capital from Qualified Opportunity Funds"},"id":"Chicago_Federal_Opportunity_Zones.105"},{"type":"Feature","geometry":{"type":"Polygon","coordinates":[[[-87.585568725,41.751493834],[-87.5660337159999,41.7374408320001],[-87.566238718,41.751735835],[-87.585568725,41.751493834]]]},"properties":{"name":"Federal OZ - Tract 17031460500","description":"17031460500","fill-opacity":0,"stroke-opacity":1,"stroke":"#ff0000","Census Tract ID":"Capital gains deferral + 10% basis step-up after 5 years + 100% exclusion after 10 years","Program":"Yes - tax benefits for QOF investors","Tax Benefit":"Indirect - attracts patient capital from Qualified Opportunity Funds"},"id":"Chicago_Federal_Opportunity_Zones.106"},{"type":"Feature","geometry":{"type":"Polygon","coordinates":[[[-87.604523727,41.7231378280001],[-87.6044877269999,41.7220518280001],[-87.586644722,41.722330829],[-87.587563721,41.723431829],[-87.589498723,41.7277198300001],[-87.592802725,41.7331668310001],[-87.595313726,41.7367908310001],[-87.600550727,41.736715831],[-87.601409728,41.7330858300001],[-87.602024727,41.733038831],[-87.603278727,41.727558829],[-87.602935728,41.7275638300001],[-87.6033597269999,41.725731829],[-87.603084727,41.725736829],[-87.603611727,41.7234038290001],[-87.604512727,41.7236038280001],[-87.604523727,41.7231378280001]]]},"properties":{"name":"Federal OZ - Tract 17031470100","description":"17031470100","fill-opacity":0,"stroke-opacity":1,"stroke":"#ff0000","Census Tract ID":"Capital gains deferral + 10% basis step-up after 5 years + 100% exclusion after 10 years","Program":"Yes - tax benefits for QOF investors","Tax Benefit":"Indirect - attracts patient capital from Qualified Opportunity Funds"},"id":"Chicago_Federal_Opportunity_Zones.111"},{"type":"Feature","geometry":{"type":"Polygon","coordinates":[[[-87.615,41.75112160257617],[-87.614963733,41.7511218320001],[-87.615,41.752777048252234],[-87.615,41.75112160257617]]]},"properties":{"name":"Federal OZ - Tract 17031691300","description":"17031691300","fill-opacity":0,"stroke-opacity":1,"stroke":"#ff0000","Census Tract ID":"Capital gains deferral + 10% basis step-up after 5 years + 100% exclusion after 10 years","Program":"Yes - tax benefits for QOF investors","Tax Benefit":"Indirect - attracts patient capital from Qualified Opportunity Funds"},"id":"Chicago_Federal_Opportunity_Zones.114"},{"type":"Feature","geometry":{"type":"Polygon","coordinates":[[[-87.615,41.752777048252234],[-87.614963733,41.7511218320001],[-87.60522073,41.7512938340001],[-87.605396731,41.758587834],[-87.615,41.758417861959664],[-87.615,41.752777048252234]]]},"properties":{"name":"Federal OZ - Tract 17031691400","description":"17031691400","fill-opacity":0,"stroke-opacity":1,"stroke":"#ff0000","Census Tract ID":"Capital gains deferral + 10% basis step-up after 5 years + 100% exclusion after 10 years","Program":"Yes - tax benefits for QOF investors","Tax Benefit":"Indirect - attracts patient capital from Qualified Opportunity Funds"},"id":"Chicago_Federal_Opportunity_Zones.115"},{"type":"Feature","geometry":{"type":"Polygon","coordinates":[[[-87.605396731,41.758587834],[-87.60522073,41.7512938340001],[-87.595496727,41.7513948330001],[-87.595536728,41.7531518340001],[-87.5949137279999,41.755046834],[-87.596345728,41.755073834],[-87.5959477279999,41.756864835],[-87.594674728,41.756873834],[-87.5936957279999,41.757342835],[-87.595619729,41.7587038350001],[-87.605396731,41.758587834]]]},"properties":{"name":"Federal OZ - Tract 17031691500","description":"17031691500","fill-opacity":0,"stroke-opacity":1,"stroke":"#ff0000","Census Tract ID":"Capital gains deferral + 10% basis step-up after 5 years + 100% exclusion after 10 years","Program":"Yes - tax benefits for QOF investors","Tax Benefit":"Indirect - attracts patient capital from Qualified Opportunity Funds"},"id":"Chicago_Federal_Opportunity_Zones.116"},{"type":"Feature","geometry":{"type":"Polygon","coordinates":[[[-87.543516708,41.719734831],[-87.54287427183688,41.718],[-87.54,41.718],[-87.54,41.722904832],[-87.542924708,41.7228678320001],[-87.542971709,41.721040831],[-87.5432737089999,41.7198338310001],[-87.543516708,41.719734831]]]},"properties":{"name":"Federal OZ - Tract 17031520200","description":"17031520200","fill-opacity":0,"stroke-opacity":1,"stroke":"#ff0000","Census Tract ID":"Capital gains deferral + 10% basis step-up after 5 years + 100% exclusion after 10 years","Program":"Yes - tax benefits for QOF investors","Tax Benefit":"Indirect - attracts patient capital from Qualified Opportunity Funds"},"id":"Chicago_Federal_Opportunity_Zones.124"},{"type":"Feature","geometry":{"type":"Polygon","coordinates":[[[-87.60412500451379,41.718],[-87.58506471273992,41.718],[-87.5851717209999,41.720868829],[-87.586644722,41.722330829],[-87.603187726,41.7220558280001],[-87.60412500451379,41.718]]]},"properties":{"name":"Federal OZ - Tract 17031500100","description":"17031500100","fill-opacity":0,"stroke-opacity":1,"stroke":"#ff0000","Census Tract ID":"Capital gains deferral + 10% basis step-up after 5 years + 100% exclusion after 10 years","Program":"Yes - tax benefits for QOF investors","Tax Benefit":"Indirect - attracts patient capital from Qualified Opportunity Funds"},"id":"Chicago_Federal_Opportunity_Zones.149"}]}