{"type":"FeatureCollection","features":[{"type":"Feature","geometry":{"type":"Polygon","coordinates":[[[-87.614963733,41.7511218320001],[-87.614824732,41.745645831],[-87.614170732,41.745654831],[-87.614134731,41.7442818320001],[-87.612316732,41.744312832],[-87.612355731,41.7456858310001],[-87.611752731,41.7456968320001],[-87.6075137299999,41.7457668320001],[-87.60747773,41.7443958320001],[-87.60626273,41.7444158320001],[-87.60630073,41.7457858330001],[-87.605089729,41.745805832],[-87.60522073,41.7512938340001],[-87.614963733,41.7511218320001]]]},"properties":{"OBJECTID":2410,"GEOID10":"17031440201","STATE":"17","COUNTY":"031","TRACT":"440201","STUSAB":"IL","STATE_NAME":"Illinois","SHAPE_Length":0.0359497063392406,"SHAPE_Area":0.0000575363636799801},"id":"Illinois_Opportunity_Zones.106"},{"type":"Feature","geometry":{"type":"Polygon","coordinates":[[[-87.60570162134698,41.77],[-87.605396731,41.758587834],[-87.595528727,41.7587038350001],[-87.594725728,41.762352836],[-87.593329728,41.762361835],[-87.593361728,41.7650908360001],[-87.5940537279999,41.7650848370001],[-87.593893728,41.7660118370001],[-87.592450728,41.7660188360001],[-87.592241727,41.767713837],[-87.59224942858371,41.77],[-87.60570162134698,41.77]]]},"properties":{"OBJECTID":2416,"GEOID10":"17031841800","STATE":"17","COUNTY":"031","TRACT":"841800","STUSAB":"IL","STATE_NAME":"Illinois","SHAPE_Length":0.0570724145888316,"SHAPE_Area":0.000177908993487851},"id":"Illinois_Opportunity_Zones.112"},{"type":"Feature","geometry":{"type":"Polygon","coordinates":[[[-87.57640896031502,41.77],[-87.576305723,41.7661638370001],[-87.571396722,41.7662118380001],[-87.57151850726024,41.77],[-87.57640896031502,41.77]]]},"properties":{"OBJECTID":2428,"GEOID10":"17031430101","STATE":"17","COUNTY":"031","TRACT":"430101","STUSAB":"IL","STATE_NAME":"Illinois","SHAPE_Length":0.024388485807216,"SHAPE_Area":0.0000356791796069681},"id":"Illinois_Opportunity_Zones.124"},{"type":"Feature","geometry":{"type":"Polygon","coordinates":[[[-87.598705727,41.7440548320001],[-87.5975947269999,41.7407508320001],[-87.595313726,41.7367908310001],[-87.585642723,41.7369208310001],[-87.585913724,41.7486478330001],[-87.5858267249999,41.7516798340001],[-87.5936957279999,41.757342835],[-87.594674728,41.756873834],[-87.5959477279999,41.756864835],[-87.596345728,41.755073834],[-87.5949137279999,41.755046834],[-87.595536728,41.7531518340001],[-87.595496727,41.7513948330001],[-87.597240728,41.751376834],[-87.597425728,41.750572834],[-87.597178728,41.750795833],[-87.598705727,41.7440548320001]]]},"properties":{"OBJECTID":2430,"GEOID10":"17031834300","STATE":"17","COUNTY":"031","TRACT":"834300","STUSAB":"IL","STATE_NAME":"Illinois","SHAPE_Length":0.0613961229782416,"SHAPE_Area":0.000206665627769392},"id":"Illinois_Opportunity_Zones.126"},{"type":"Feature","geometry":{"type":"Polygon","coordinates":[[[-87.595619729,41.7587038350001],[-87.5858267249999,41.7516798340001],[-87.585829724,41.751513834],[-87.575987722,41.7516138350001],[-87.576147722,41.7588838360001],[-87.595619729,41.7587038350001]]]},"properties":{"OBJECTID":2431,"GEOID10":"17031834200","STATE":"17","COUNTY":"031","TRACT":"834200","STUSAB":"IL","STATE_NAME":"Illinois","SHAPE_Length":0.048816882501835,"SHAPE_Area":0.000105599583330584},"id":"Illinois_Opportunity_Zones.127"},{"type":"Feature","geometry":{"type":"Polygon","coordinates":[[[-87.5612377159999,41.7427158340001],[-87.561159716,41.737266833],[-87.551436713,41.7373858340001],[-87.551531712,41.7421548350001],[-87.552606714,41.7428308340001],[-87.5612377159999,41.7427158340001]]]},"properties":{"OBJECTID":2439,"GEOID10":"17031460301","STATE":"17","COUNTY":"031","TRACT":"460301","STUSAB":"IL","STATE_NAME":"Illinois","SHAPE_Length":0.0298453860402754,"SHAPE_Area":0.0000525920384625223},"id":"Illinois_Opportunity_Zones.135"},{"type":"Feature","geometry":{"type":"Polygon","coordinates":[[[-87.5613917169999,41.751802836],[-87.5612377159999,41.7427158340001],[-87.552606714,41.7428308340001],[-87.551531712,41.7421548350001],[-87.551804713,41.7440018350001],[-87.552945714,41.744644835],[-87.553980715,41.7446298350001],[-87.5540777149999,41.7519028360001],[-87.5613917169999,41.751802836]]]},"properties":{"OBJECTID":2440,"GEOID10":"17031460302","STATE":"17","COUNTY":"031","TRACT":"460302","STUSAB":"IL","STATE_NAME":"Illinois","SHAPE_Length":0.0378103763920003,"SHAPE_Area":0.0000701986157144201},"id":"Illinois_Opportunity_Zones.136"},{"type":"Feature","geometry":{"type":"Polygon","coordinates":[[[-87.56645572,41.7626268380001],[-87.5663087189999,41.755368837],[-87.556133717,41.7554968360001],[-87.5601257169999,41.7591868370001],[-87.56330072,41.7627078370001],[-87.56645572,41.7626268380001]]]},"properties":{"OBJECTID":2441,"GEOID10":"17031431302","STATE":"17","COUNTY":"031","TRACT":"431302","STUSAB":"IL","STATE_NAME":"Illinois","SHAPE_Length":0.0307753193439291,"SHAPE_Area":0.0000473561203595297},"id":"Illinois_Opportunity_Zones.137"},{"type":"Feature","geometry":{"type":"Polygon","coordinates":[[[-87.5663087189999,41.755368837],[-87.566238718,41.751735835],[-87.552293714,41.751926837],[-87.556133717,41.7554968360001],[-87.5663087189999,41.755368837]]]},"properties":{"OBJECTID":2442,"GEOID10":"17031431301","STATE":"17","COUNTY":"031","TRACT":"431301","STUSAB":"IL","STATE_NAME":"Illinois","SHAPE_Length":0.0330943459262502,"SHAPE_Area":0.0000437428717090646},"id":"Illinois_Opportunity_Zones.138"},{"type":"Feature","geometry":{"type":"Polygon","coordinates":[[[-87.586393727,41.7684648370001],[-87.586332725,41.766068836],[-87.576305723,41.7661638370001],[-87.57640896031502,41.77],[-87.58625101927734,41.77],[-87.586393727,41.7684648370001]]]},"properties":{"OBJECTID":2473,"GEOID10":"17031430200","STATE":"17","COUNTY":"031","TRACT":"430200","STUSAB":"IL","STATE_NAME":"Illinois","SHAPE_Length":0.0344705312314639,"SHAPE_Area":0.0000722065172605061},"id":"Illinois_Opportunity_Zones.169"},{"type":"Feature","geometry":{"type":"Polygon","coordinates":[[[-87.592453728,41.7666418370001],[-87.592450728,41.7660188360001],[-87.586332725,41.766068836],[-87.586393727,41.7684648370001],[-87.58625101927734,41.77],[-87.59224942858371,41.77],[-87.592241727,41.767713837],[-87.592453728,41.7666418370001]]]},"properties":{"OBJECTID":2486,"GEOID10":"17031430300","STATE":"17","COUNTY":"031","TRACT":"430300","STUSAB":"IL","STATE_NAME":"Illinois","SHAPE_Length":0.0274693523130823,"SHAPE_Area":0.0000442837017130625},"id":"Illinois_Opportunity_Zones.182"},{"type":"Feature","geometry":{"type":"Polygon","coordinates":[[[-87.595528727,41.7587038350001],[-87.586141724,41.7587718360001],[-87.586332725,41.766068836],[-87.593893728,41.7660118370001],[-87.5940537279999,41.7650848370001],[-87.593361728,41.7650908360001],[-87.593329728,41.762361835],[-87.594725728,41.762352836],[-87.595528727,41.7587038350001]]]},"properties":{"OBJECTID":2487,"GEOID10":"17031430400","STATE":"17","COUNTY":"031","TRACT":"430400","STUSAB":"IL","STATE_NAME":"Illinois","SHAPE_Length":0.0337575639883405,"SHAPE_Area":0.0000590248206414948},"id":"Illinois_Opportunity_Zones.183"},{"type":"Feature","geometry":{"type":"Polygon","coordinates":[[[-87.576305723,41.7661638370001],[-87.5762267219999,41.7625228370001],[-87.56645572,41.7626268380001],[-87.566494719,41.7662538380001],[-87.576305723,41.7661638370001]]]},"properties":{"OBJECTID":2488,"GEOID10":"17031430600","STATE":"17","COUNTY":"031","TRACT":"430600","STUSAB":"IL","STATE_NAME":"Illinois","SHAPE_Length":0.0268562023023488,"SHAPE_Area":0.0000355495664820089},"id":"Illinois_Opportunity_Zones.184"},{"type":"Feature","geometry":{"type":"Polygon","coordinates":[[[-87.586237725,41.762417837],[-87.586141724,41.7587718360001],[-87.576147722,41.7588838360001],[-87.5762267219999,41.7625228370001],[-87.586237725,41.762417837]]]},"properties":{"OBJECTID":2489,"GEOID10":"17031430900","STATE":"17","COUNTY":"031","TRACT":"430900","STUSAB":"IL","STATE_NAME":"Illinois","SHAPE_Length":0.0272933948472174,"SHAPE_Area":0.0000364329894919827},"id":"Illinois_Opportunity_Zones.185"},{"type":"Feature","geometry":{"type":"Polygon","coordinates":[[[-87.554114715,41.751817836],[-87.553980715,41.7446298350001],[-87.541879711,41.7447658350001],[-87.5417407099999,41.7393428340001],[-87.545365711,41.739288835],[-87.545316712,41.7374708340001],[-87.54308771,41.737422834],[-87.542988711,41.733841833],[-87.54,41.73392051898688],[-87.54,41.75756165179427],[-87.5407447119999,41.757442838],[-87.540490712,41.7571848380001],[-87.544520712,41.7546138380001],[-87.5454007119999,41.7546428380001],[-87.546265713,41.7541738370001],[-87.546978714,41.7542388370001],[-87.547766713,41.7548028370001],[-87.548115713,41.755437837],[-87.547923714,41.755940837],[-87.548754714,41.754026837],[-87.552251715,41.7519268360001],[-87.554114715,41.751817836]]]},"properties":{"OBJECTID":2520,"GEOID10":"17031460100","STATE":"17","COUNTY":"031","TRACT":"460100","STUSAB":"IL","STATE_NAME":"Illinois","SHAPE_Length":0.119167616549191,"SHAPE_Area":0.00059366818467052},"id":"Illinois_Opportunity_Zones.216"},{"type":"Feature","geometry":{"type":"Polygon","coordinates":[[[-87.552945714,41.744644835],[-87.551775714,41.7439608350001],[-87.551547714,41.742547835],[-87.551436713,41.7373858340001],[-87.545316712,41.7374708340001],[-87.545365711,41.739288835],[-87.5417407099999,41.7393428340001],[-87.54190271,41.7447808360001],[-87.552945714,41.744644835]]]},"properties":{"OBJECTID":2521,"GEOID10":"17031460200","STATE":"17","COUNTY":"031","TRACT":"460200","STUSAB":"IL","STATE_NAME":"Illinois","SHAPE_Length":0.0360297171479596,"SHAPE_Area":0.0000649628118325178},"id":"Illinois_Opportunity_Zones.217"},{"type":"Feature","geometry":{"type":"Polygon","coordinates":[[[-87.566238718,41.751735835],[-87.5660337159999,41.7374408320001],[-87.565706717,41.7372058330001],[-87.561159716,41.737266833],[-87.5613917169999,41.751802836],[-87.566238718,41.751735835]]]},"properties":{"OBJECTID":2522,"GEOID10":"17031460400","STATE":"17","COUNTY":"031","TRACT":"460400","STUSAB":"IL","STATE_NAME":"Illinois","SHAPE_Length":0.0386320106687611,"SHAPE_Area":0.0000706290345660084},"id":"Illinois_Opportunity_Zones.218"},{"type":"Feature","geometry":{"type":"Polygon","coordinates":[[[-87.585568725,41.751493834],[-87.5660337159999,41.7374408320001],[-87.566238718,41.751735835],[-87.585568725,41.751493834]]]},"properties":{"OBJECTID":2523,"GEOID10":"17031460500","STATE":"17","COUNTY":"031","TRACT":"460500","STUSAB":"IL","STATE_NAME":"Illinois","SHAPE_Length":0.0576928974690197,"SHAPE_Area":0.000138250340968898},"id":"Illinois_Opportunity_Zones.219"},{"type":"Feature","geometry":{"type":"Polygon","coordinates":[[[-87.604523727,41.7231378280001],[-87.6044877269999,41.7220518280001],[-87.586644722,41.722330829],[-87.587563721,41.723431829],[-87.589498723,41.7277198300001],[-87.592802725,41.7331668310001],[-87.595313726,41.7367908310001],[-87.600550727,41.736715831],[-87.601409728,41.7330858300001],[-87.602024727,41.733038831],[-87.603278727,41.727558829],[-87.602935728,41.7275638300001],[-87.6033597269999,41.725731829],[-87.603084727,41.725736829],[-87.603611727,41.7234038290001],[-87.604512727,41.7236038280001],[-87.604523727,41.7231378280001]]]},"properties":{"OBJECTID":2528,"GEOID10":"17031470100","STATE":"17","COUNTY":"031","TRACT":"470100","STUSAB":"IL","STATE_NAME":"Illinois","SHAPE_Length":0.0573593629196316,"SHAPE_Area":0.000171956428132406},"id":"Illinois_Opportunity_Zones.224"},{"type":"Feature","geometry":{"type":"Polygon","coordinates":[[[-87.615,41.75112160257617],[-87.614963733,41.7511218320001],[-87.615,41.752777048252234],[-87.615,41.75112160257617]]]},"properties":{"OBJECTID":2531,"GEOID10":"17031691300","STATE":"17","COUNTY":"031","TRACT":"691300","STUSAB":"IL","STATE_NAME":"Illinois","SHAPE_Length":0.0338105150961508,"SHAPE_Area":0.0000700898749680629},"id":"Illinois_Opportunity_Zones.227"},{"type":"Feature","geometry":{"type":"Polygon","coordinates":[[[-87.615,41.752777048252234],[-87.614963733,41.7511218320001],[-87.60522073,41.7512938340001],[-87.605396731,41.758587834],[-87.615,41.758417861959664],[-87.615,41.752777048252234]]]},"properties":{"OBJECTID":2532,"GEOID10":"17031691400","STATE":"17","COUNTY":"031","TRACT":"691400","STUSAB":"IL","STATE_NAME":"Illinois","SHAPE_Length":0.0340679773127158,"SHAPE_Area":0.0000710895741770051},"id":"Illinois_Opportunity_Zones.228"},{"type":"Feature","geometry":{"type":"Polygon","coordinates":[[[-87.605396731,41.758587834],[-87.60522073,41.7512938340001],[-87.595496727,41.7513948330001],[-87.595536728,41.7531518340001],[-87.5949137279999,41.755046834],[-87.596345728,41.755073834],[-87.5959477279999,41.756864835],[-87.594674728,41.756873834],[-87.5936957279999,41.757342835],[-87.595619729,41.7587038350001],[-87.605396731,41.758587834]]]},"properties":{"OBJECTID":2533,"GEOID10":"17031691500","STATE":"17","COUNTY":"031","TRACT":"691500","STUSAB":"IL","STATE_NAME":"Illinois","SHAPE_Length":0.0385479309928275,"SHAPE_Area":0.0000726614196230885},"id":"Illinois_Opportunity_Zones.229"},{"type":"Feature","geometry":{"type":"Polygon","coordinates":[[[-87.543516708,41.719734831],[-87.54287427183688,41.718],[-87.54,41.718],[-87.54,41.722904832],[-87.542924708,41.7228678320001],[-87.542971709,41.721040831],[-87.5432737089999,41.7198338310001],[-87.543516708,41.719734831]]]},"properties":{"OBJECTID":2541,"GEOID10":"17031520200","STATE":"17","COUNTY":"031","TRACT":"520200","STUSAB":"IL","STATE_NAME":"Illinois","SHAPE_Length":0.059931867462426,"SHAPE_Area":0.000130945483609414},"id":"Illinois_Opportunity_Zones.237"},{"type":"Feature","geometry":{"type":"Polygon","coordinates":[[[-87.60412500451379,41.718],[-87.58506471273992,41.718],[-87.5851717209999,41.720868829],[-87.586644722,41.722330829],[-87.603187726,41.7220558280001],[-87.60412500451379,41.718]]]},"properties":{"OBJECTID":2566,"GEOID10":"17031500100","STATE":"17","COUNTY":"031","TRACT":"500100","STUSAB":"IL","STATE_NAME":"Illinois","SHAPE_Length":0.0675697980712034,"SHAPE_Area":0.000287031263326775},"id":"Illinois_Opportunity_Zones.262"}]}