{"type":"FeatureCollection","features":[{"type":"Feature","geometry":{"type":"Polygon","coordinates":[[[-87.60525,41.713583],[-87.592222,41.713587],[-87.591678,41.71408],[-87.589073,41.714185],[-87.586569,41.715032],[-87.584767,41.715064],[-87.585145,41.723361],[-87.587285,41.723328],[-87.587309,41.724324],[-87.593626,41.734986],[-87.597511,41.73492],[-87.597552,41.73675],[-87.599973,41.736716],[-87.60164,41.7294],[-87.601011,41.729409],[-87.600724,41.731189],[-87.598342,41.733111],[-87.598374,41.734452],[-87.597501,41.734465],[-87.597465,41.733095],[-87.595068,41.733126],[-87.594944,41.729518],[-87.59377,41.729509],[-87.593707,41.727686],[-87.592494,41.727673],[-87.592458,41.725884],[-87.591682,41.725898],[-87.590818,41.724257],[-87.590079,41.724113],[-87.58959,41.723294],[-87.589576,41.722277],[-87.591392,41.722253],[-87.591808,41.721468],[-87.591794,41.717932],[-87.592534,41.714941],[-87.604858,41.714755],[-87.604237,41.717474],[-87.601427,41.717554],[-87.599904,41.718516],[-87.598908,41.718572],[-87.598944,41.720418],[-87.600847,41.720379],[-87.601,41.719712],[-87.603798,41.719961],[-87.60525,41.713583]]]},"properties":{"name":"Burnside","description":"Burnside","styleUrl":"#poly-000000-1200-77","fill-opacity":0.30196078431372547,"fill":"#000000","stroke-opacity":1,"stroke":"#000000","stroke-width":1.2,"objectid":"1","no":"4","region":"South","hud_qualif":"3","region_num":"0","acres":"329.40910528","miles":"0.51470173","shape_area":"14,349,060.6259","shape_len":"41,694.726115"}},{"type":"Feature","geometry":{"type":"Polygon","coordinates":[[[-87.704059,41.943595],[-87.703219,41.94276],[-87.697922,41.942789],[-87.69785,41.940241],[-87.697225,41.940246],[-87.697215,41.94067],[-87.696765,41.940676],[-87.69677,41.941366],[-87.694341,41.941374],[-87.693528,41.940135],[-87.692566,41.939425],[-87.693006,41.939421],[-87.692918,41.938551],[-87.694718,41.93854],[-87.694696,41.937501],[-87.692854,41.936253],[-87.69284,41.935785],[-87.692167,41.935791],[-87.690357,41.934565],[-87.690373,41.933967],[-87.68794,41.933985],[-87.688012,41.937635],[-87.688627,41.937636],[-87.688629,41.938069],[-87.690097,41.938062],[-87.690121,41.939441],[-87.690597,41.939438],[-87.690631,41.940714],[-87.692968,41.940854],[-87.693196,41.942276],[-87.694031,41.943731],[-87.693041,41.943815],[-87.693117,41.946714],[-87.690682,41.946726],[-87.690731,41.948516],[-87.689547,41.948524],[-87.689605,41.950366],[-87.690734,41.950383],[-87.690795,41.952209],[-87.693306,41.952187],[-87.693238,41.954496],[-87.692653,41.954501],[-87.692754,41.957642],[-87.694345,41.957632],[-87.694583,41.953808],[-87.696839,41.950239],[-87.696203,41.946694],[-87.700507,41.946662],[-87.70044,41.944588],[-87.702761,41.944798],[-87.702986,41.943937],[-87.704059,41.943595]]]},"properties":{"name":"Addison","description":"Addison","styleUrl":"#poly-000000-1200-77","fill-opacity":0.30196078431372547,"fill":"#000000","stroke-opacity":1,"stroke":"#000000","stroke-width":1.2,"objectid":"2","no":"1","region":"North","hud_qualif":"1","region_num":"0","acres":"253.51474558","miles":"0.39611679","shape_area":"11,043,102.3173","shape_len":"29,276.756724"}},{"type":"Feature","geometry":{"type":"Polygon","coordinates":[[[-87.682001,41.980767],[-87.681962,41.979633],[-87.675114,41.97974],[-87.674574,41.968817],[-87.674688,41.96789],[-87.675439,41.96788],[-87.674885,41.954208],[-87.672991,41.954234],[-87.673459,41.971389],[-87.674228,41.971379],[-87.674609,41.983357],[-87.679402,41.983247],[-87.679537,41.981935],[-87.682001,41.980767]]]},"properties":{"name":"Ravenswood","description":"Ravenswood","styleUrl":"#poly-000000-1200-77","fill-opacity":0.30196078431372547,"fill":"#000000","stroke-opacity":1,"stroke":"#000000","stroke-width":1.2,"objectid":"3","no":"19","region":"North","hud_qualif":"1","region_num":"0","acres":"129.55215464","miles":"0.20242524","shape_area":"5,643,291.85604","shape_len":"26,079.48336"}},{"type":"Feature","geometry":{"type":"Polygon","coordinates":[[[-87.738013,41.982731],[-87.732708,41.982802],[-87.73276,41.984875],[-87.728491,41.984913],[-87.728882,41.993975],[-87.726447,41.9972],[-87.727257,41.997197],[-87.727578,41.996281],[-87.728293,41.996278],[-87.728288,41.995467],[-87.728899,41.995462],[-87.728889,41.994266],[-87.731019,41.991444],[-87.731895,41.991444],[-87.731891,41.99055],[-87.732495,41.990539],[-87.732485,41.990085],[-87.732866,41.990083],[-87.734138,41.988324],[-87.736893,41.986987],[-87.738013,41.982731]]]},"properties":{"name":"Peterson","description":"Peterson","styleUrl":"#poly-000000-1200-77","fill-opacity":0.30196078431372547,"fill":"#000000","stroke-opacity":1,"stroke":"#000000","stroke-width":1.2,"objectid":"4","no":"15","region":"North","hud_qualif":"1","region_num":"0","acres":"126.44304234","miles":"0.19756725","shape_area":"5,507,858.9242","shape_len":"15,075.530826"}},{"type":"Feature","geometry":{"type":"Polygon","coordinates":[[[-87.717433,41.945606],[-87.717172,41.945113],[-87.716253,41.944592],[-87.716269,41.943778],[-87.715196,41.942648],[-87.714349,41.942235],[-87.712603,41.942442],[-87.707637,41.939481],[-87.707774,41.944724],[-87.709646,41.944315],[-87.709107,41.945127],[-87.709179,41.945591],[-87.709806,41.945578],[-87.709829,41.946605],[-87.714091,41.94655],[-87.714281,41.945163],[-87.715402,41.945247],[-87.715893,41.94562],[-87.717433,41.945606]]]},"properties":{"name":"Kennedy","description":"Kennedy","styleUrl":"#poly-000000-1200-77","fill-opacity":0.30196078431372547,"fill":"#000000","stroke-opacity":1,"stroke":"#000000","stroke-width":1.2,"objectid":"5","no":"9","region":"North","hud_qualif":"2","region_num":"0","acres":"83.68978189","miles":"0.13076528","shape_area":"3,645,526.89932","shape_len":"10,073.683786"}},{"type":"Feature","geometry":{"type":"Polygon","coordinates":[[[-87.75075,41.964336],[-87.750659,41.96251],[-87.747902,41.962547],[-87.747501,41.962312],[-87.746683,41.960733],[-87.746581,41.958453],[-87.745737,41.958458],[-87.745665,41.955993],[-87.744236,41.956011],[-87.740853,41.949463],[-87.742674,41.950573],[-87.742531,41.946183],[-87.743368,41.946173],[-87.743422,41.940693],[-87.74444,41.940685],[-87.744388,41.938861],[-87.743097,41.938879],[-87.74314,41.940693],[-87.74078,41.940734],[-87.740832,41.942569],[-87.742017,41.94255],[-87.742067,41.944382],[-87.741502,41.94439],[-87.741534,41.945737],[-87.739693,41.945761],[-87.739706,41.946215],[-87.739163,41.946222],[-87.737141,41.942605],[-87.737204,41.946248],[-87.738772,41.946229],[-87.742364,41.953161],[-87.742608,41.956828],[-87.743244,41.959145],[-87.743882,41.960195],[-87.74468,41.960719],[-87.744148,41.96076],[-87.746053,41.961843],[-87.746997,41.962814],[-87.747613,41.964296],[-87.747722,41.968029],[-87.75056,41.967994],[-87.750184,41.967226],[-87.750081,41.964345],[-87.75075,41.964336]]]},"properties":{"name":"Knox","description":"Knox","styleUrl":"#poly-000000-1200-77","fill-opacity":0.30196078431372547,"fill":"#000000","stroke-opacity":1,"stroke":"#000000","stroke-width":1.2,"objectid":"6","no":"11","region":"North","hud_qualif":"1","region_num":"0","acres":"148.80408415","miles":"0.23250638","shape_area":"6,481,905.90559","shape_len":"31,745.856475"}},{"type":"Feature","geometry":{"type":"Polygon","coordinates":[[[-87.736026,41.938976],[-87.735966,41.937166],[-87.734479,41.937182],[-87.732603,41.933562],[-87.733181,41.933553],[-87.733139,41.932165],[-87.735585,41.932133],[-87.735574,41.931676],[-87.734345,41.931694],[-87.734245,41.928502],[-87.733271,41.928513],[-87.73299,41.927556],[-87.731752,41.92721],[-87.731667,41.924426],[-87.727995,41.92447],[-87.72794,41.922639],[-87.727326,41.922647],[-87.727271,41.920818],[-87.726667,41.920825],[-87.726641,41.919908],[-87.725833,41.919921],[-87.725822,41.919463],[-87.725493,41.919464],[-87.725485,41.919008],[-87.726615,41.918994],[-87.726542,41.916693],[-87.724709,41.916713],[-87.724662,41.915367],[-87.723215,41.915385],[-87.722324,41.913668],[-87.71911,41.913758],[-87.719163,41.915432],[-87.722824,41.91539],[-87.725152,41.919928],[-87.724792,41.919933],[-87.724808,41.920388],[-87.725388,41.920382],[-87.725622,41.920837],[-87.724219,41.920848],[-87.724244,41.92168],[-87.724887,41.921672],[-87.724898,41.922123],[-87.72551,41.922113],[-87.725525,41.92267],[-87.726106,41.922663],[-87.726139,41.923989],[-87.726754,41.923985],[-87.72703,41.933631],[-87.731681,41.933581],[-87.732907,41.93597],[-87.732994,41.939016],[-87.736026,41.938976]]]},"properties":{"name":"Pulaski","description":"Pulaski","styleUrl":"#poly-000000-1200-77","fill-opacity":0.30196078431372547,"fill":"#000000","stroke-opacity":1,"stroke":"#000000","stroke-width":1.2,"objectid":"7","no":"17","region":"North","hud_qualif":"2","region_num":"0","acres":"206.018174","miles":"0.3219034","shape_area":"8,974,151.65935","shape_len":"29,213.392416"}},{"type":"Feature","geometry":{"type":"Polygon","coordinates":[[[-87.7683,41.985001],[-87.763964,41.982746],[-87.75533,41.977453],[-87.755279,41.975021],[-87.753641,41.974806],[-87.754114,41.975715],[-87.753247,41.975675],[-87.752922,41.97597],[-87.754783,41.977117],[-87.758982,41.985247],[-87.7683,41.985001]]]},"properties":{"name":"Elston / Armstrong","description":"Elston / Armstrong","styleUrl":"#poly-000000-1200-77","fill-opacity":0.30196078431372547,"fill":"#000000","stroke-opacity":1,"stroke":"#000000","stroke-width":1.2,"objectid":"8","no":"6","region":"North","hud_qualif":"1","region_num":"0","acres":"92.65323875","miles":"0.14477069","shape_area":"4,035,975.07974","shape_len":"13,041.604677"}},{"type":"Feature","geometry":{"type":"Polygon","coordinates":[[[-87.678118,41.92749],[-87.67792,41.925363],[-87.676127,41.924124],[-87.676545,41.923787],[-87.675866,41.923321],[-87.676325,41.922944],[-87.675972,41.922722],[-87.676663,41.922096],[-87.669531,41.917908],[-87.667961,41.917932],[-87.667808,41.91577],[-87.663689,41.909734],[-87.661083,41.906764],[-87.660623,41.905372],[-87.660352,41.902531],[-87.65917,41.900576],[-87.65762,41.899398],[-87.655791,41.898655],[-87.651904,41.897904],[-87.651921,41.898434],[-87.650918,41.898346],[-87.650844,41.897158],[-87.650322,41.897165],[-87.650287,41.896347],[-87.650558,41.896345],[-87.649744,41.895527],[-87.64891,41.895536],[-87.64892,41.895949],[-87.648245,41.895959],[-87.648224,41.895148],[-87.649228,41.895075],[-87.646495,41.892265],[-87.644405,41.892254],[-87.644334,41.889034],[-87.641203,41.889066],[-87.643026,41.891255],[-87.641178,41.891413],[-87.642131,41.892595],[-87.644075,41.894139],[-87.644432,41.897242],[-87.646488,41.900515],[-87.649478,41.903618],[-87.648094,41.903637],[-87.65408,41.910824],[-87.649501,41.9109],[-87.650736,41.911787],[-87.653141,41.911752],[-87.653205,41.91356],[-87.654243,41.914301],[-87.653855,41.914609],[-87.656507,41.916506],[-87.65689,41.916202],[-87.65828,41.917194],[-87.658232,41.918389],[-87.659491,41.918387],[-87.659458,41.918718],[-87.660817,41.919698],[-87.661262,41.919354],[-87.662437,41.920202],[-87.662075,41.920477],[-87.662557,41.920848],[-87.663179,41.920841],[-87.663149,41.919854],[-87.665038,41.919841],[-87.666499,41.921598],[-87.668625,41.921555],[-87.668112,41.924278],[-87.669307,41.925136],[-87.671801,41.925104],[-87.670562,41.922382],[-87.67165,41.922551],[-87.674255,41.92439],[-87.674555,41.926142],[-87.674938,41.926658],[-87.67779,41.928023],[-87.6781,41.928085],[-87.678118,41.92749]]]},"properties":{"name":"North Branch","description":"North Branch","styleUrl":"#poly-000000-1200-77","fill-opacity":0.30196078431372547,"fill":"#000000","stroke-opacity":1,"stroke":"#000000","stroke-width":1.2,"objectid":"9","no":"13","region":"North","hud_qualif":"2","region_num":"0","acres":"760.86089349","miles":"1.18884515","shape_area":"33,143,100.5203","shape_len":"48,015.202916"}},{"type":"Feature","geometry":{"type":"Polygon","coordinates":[[[-87.795117,41.919584],[-87.795015,41.916307],[-87.790164,41.916359],[-87.790063,41.914535],[-87.775409,41.914728],[-87.775391,41.914239],[-87.771635,41.914292],[-87.77157,41.912593],[-87.765629,41.912668],[-87.76551,41.914817],[-87.760754,41.914877],[-87.760703,41.913532],[-87.753445,41.913639],[-87.752796,41.913559],[-87.752783,41.913195],[-87.746607,41.913279],[-87.746591,41.914152],[-87.748236,41.914451],[-87.749392,41.915258],[-87.749414,41.916013],[-87.749985,41.916004],[-87.75,41.916438],[-87.749431,41.916441],[-87.749451,41.916889],[-87.755835,41.916914],[-87.767018,41.91898],[-87.766998,41.918488],[-87.768838,41.918829],[-87.768808,41.918044],[-87.780389,41.917921],[-87.780355,41.916849],[-87.781652,41.916607],[-87.78278,41.916702],[-87.782837,41.918259],[-87.785277,41.918228],[-87.785232,41.916638],[-87.78734,41.916916],[-87.787691,41.917043],[-87.787746,41.91887],[-87.788419,41.919111],[-87.788456,41.920306],[-87.787791,41.920315],[-87.787898,41.923657],[-87.790525,41.923635],[-87.790474,41.921933],[-87.790809,41.92193],[-87.790655,41.919181],[-87.791674,41.919169],[-87.791648,41.918326],[-87.795117,41.919584]]]},"properties":{"name":"Armitage","description":"Armitage","styleUrl":"#poly-000000-1200-77","fill-opacity":0.30196078431372547,"fill":"#000000","stroke-opacity":1,"stroke":"#000000","stroke-width":1.2,"objectid":"10","no":"2","region":"North","hud_qualif":"2","region_num":"0","acres":"410.8590755","miles":"0.64196731","shape_area":"17,897,021.3289","shape_len":"38,740.639525"}},{"type":"Feature","geometry":{"type":"Polygon","coordinates":[[[-87.696007,41.870461],[-87.695979,41.869233],[-87.694804,41.869238],[-87.694702,41.866525],[-87.692187,41.86655],[-87.692147,41.864511],[-87.691485,41.864519],[-87.691465,41.863434],[-87.690891,41.863579],[-87.690811,41.86111],[-87.691914,41.861095],[-87.691448,41.860193],[-87.693228,41.860166],[-87.6931,41.855155],[-87.69064,41.855193],[-87.690612,41.85427],[-87.688325,41.854302],[-87.688364,41.855696],[-87.685737,41.855709],[-87.685789,41.857238],[-87.684266,41.857554],[-87.680901,41.857605],[-87.680919,41.858387],[-87.679075,41.85841],[-87.676034,41.859051],[-87.676044,41.85949],[-87.666198,41.859607],[-87.666233,41.860962],[-87.668741,41.860941],[-87.668754,41.861424],[-87.671194,41.861388],[-87.671248,41.863202],[-87.681158,41.862971],[-87.68596,41.863775],[-87.686038,41.866613],[-87.688474,41.866587],[-87.688594,41.871137],[-87.691398,41.871108],[-87.691471,41.873838],[-87.693678,41.873816],[-87.693565,41.870631],[-87.696007,41.870461]]]},"properties":{"name":"Western / Ogden","description":"Western / Ogden","styleUrl":"#poly-000000-1200-77","fill-opacity":0.30196078431372547,"fill":"#000000","stroke-opacity":1,"stroke":"#000000","stroke-width":1.2,"objectid":"11","no":"24","region":"West","hud_qualif":"2","region_num":"0","acres":"420.65796519","miles":"0.65727807","shape_area":"18,323,860.9636","shape_len":"31,553.146363"}},{"type":"Feature","geometry":{"type":"Polygon","coordinates":[[[-87.685447,41.844838],[-87.685217,41.838765],[-87.684607,41.836178],[-87.684557,41.834397],[-87.680072,41.835776],[-87.67542,41.835837],[-87.675448,41.836732],[-87.670084,41.836857],[-87.66873,41.837728],[-87.667645,41.837843],[-87.665778,41.838721],[-87.665745,41.83769],[-87.664041,41.838693],[-87.664538,41.839555],[-87.664542,41.84066],[-87.664969,41.841619],[-87.663778,41.844292],[-87.660773,41.845839],[-87.660133,41.844659],[-87.65675,41.846493],[-87.653241,41.8468],[-87.652623,41.846335],[-87.651841,41.846617],[-87.650594,41.845223],[-87.644673,41.848089],[-87.641417,41.849325],[-87.638488,41.851092],[-87.638532,41.852792],[-87.636966,41.852838],[-87.637015,41.855646],[-87.635321,41.857225],[-87.634509,41.859384],[-87.634515,41.860133],[-87.640947,41.859994],[-87.640869,41.857635],[-87.639967,41.857648],[-87.639902,41.855691],[-87.642776,41.85565],[-87.642751,41.854772],[-87.643701,41.854761],[-87.643684,41.854233],[-87.644388,41.854225],[-87.644742,41.852668],[-87.647058,41.852636],[-87.647101,41.85394],[-87.656302,41.853801],[-87.656321,41.854317],[-87.661218,41.854246],[-87.661164,41.852418],[-87.666024,41.852331],[-87.685447,41.844838]]]},"properties":{"name":"Pilsen","description":"Pilsen","styleUrl":"#poly-000000-1200-77","fill-opacity":0.30196078431372547,"fill":"#000000","stroke-opacity":1,"stroke":"#000000","stroke-width":1.2,"objectid":"12","no":"16","region":"West","hud_qualif":"2","region_num":"0","acres":"1,070.19879422","miles":"1.67218562","shape_area":"46,617,859.4765","shape_len":"44,279.324921"}},{"type":"Feature","geometry":{"type":"Polygon","coordinates":[[[-87.74477,41.822036],[-87.744671,41.816682],[-87.684985,41.835272],[-87.685281,41.838017],[-87.685483,41.838453],[-87.686042,41.838625],[-87.68716,41.838206],[-87.689553,41.838154],[-87.691283,41.837474],[-87.699925,41.837324],[-87.700036,41.840975],[-87.701252,41.840978],[-87.701311,41.842746],[-87.702179,41.842735],[-87.703838,41.840896],[-87.70306,41.840898],[-87.703009,41.839082],[-87.702424,41.839004],[-87.702388,41.837775],[-87.703608,41.837549],[-87.703599,41.837254],[-87.715811,41.837034],[-87.715738,41.834473],[-87.717568,41.833934],[-87.717556,41.833397],[-87.73214,41.833177],[-87.732178,41.836797],[-87.736551,41.836748],[-87.736509,41.837188],[-87.735897,41.837216],[-87.735939,41.838592],[-87.736561,41.838585],[-87.736636,41.84104],[-87.73894,41.841013],[-87.738486,41.82212],[-87.74477,41.822036]]]},"properties":{"name":"Little Village","description":"Little Village","styleUrl":"#poly-000000-1200-77","fill-opacity":0.30196078431372547,"fill":"#000000","stroke-opacity":1,"stroke":"#000000","stroke-width":1.2,"objectid":"13","no":"12","region":"West","hud_qualif":"2","region_num":"0","acres":"1,252.25960618","miles":"1.95665563","shape_area":"54,548,428.4452","shape_len":"53,060.154803"}},{"type":"Feature","geometry":{"type":"Polygon","coordinates":[[[-87.769409,41.870361],[-87.769317,41.868357],[-87.768089,41.868368],[-87.768053,41.867386],[-87.764448,41.867437],[-87.764309,41.865601],[-87.739981,41.865959],[-87.739083,41.845649],[-87.724685,41.848867],[-87.724745,41.851088],[-87.735491,41.84729],[-87.735601,41.850829],[-87.734484,41.85086],[-87.734735,41.85873],[-87.737176,41.858692],[-87.737246,41.860642],[-87.737291,41.862341],[-87.734848,41.862381],[-87.734965,41.866033],[-87.732496,41.866067],[-87.732541,41.867886],[-87.725245,41.867992],[-87.725301,41.869557],[-87.730791,41.869456],[-87.730808,41.869959],[-87.731424,41.86995],[-87.731474,41.871309],[-87.738901,41.869247],[-87.738979,41.871509],[-87.7425,41.871248],[-87.742436,41.869578],[-87.744875,41.869356],[-87.74902,41.869309],[-87.749078,41.871116],[-87.754726,41.871044],[-87.754649,41.869047],[-87.769409,41.870361]]]},"properties":{"name":"Roosevelt/Cicero","description":"Roosevelt/Cicero","styleUrl":"#poly-000000-1200-77","fill-opacity":0.30196078431372547,"fill":"#000000","stroke-opacity":1,"stroke":"#000000","stroke-width":1.2,"objectid":"14","no":"20","region":"West","hud_qualif":"2","region_num":"0","acres":"598.4005664","miles":"0.93500089","shape_area":"26,066,328.6724","shape_len":"53,441.010102"}},{"type":"Feature","geometry":{"type":"Polygon","coordinates":[[[-87.684072,41.815703],[-87.683942,41.811153],[-87.682066,41.81116],[-87.681993,41.808433],[-87.6791,41.808462],[-87.678121,41.810814],[-87.67606,41.81215],[-87.674713,41.812161],[-87.674692,41.810333],[-87.672304,41.810356],[-87.672449,41.815807],[-87.666376,41.815857],[-87.666392,41.817689],[-87.665188,41.81771],[-87.665064,41.812222],[-87.660345,41.812253],[-87.660106,41.808669],[-87.650397,41.808795],[-87.650343,41.806972],[-87.653975,41.806928],[-87.653926,41.80469],[-87.645428,41.804784],[-87.645801,41.818962],[-87.640939,41.818989],[-87.640988,41.820779],[-87.638546,41.820809],[-87.63852,41.819922],[-87.636222,41.819975],[-87.636196,41.819053],[-87.631269,41.819131],[-87.63134,41.821983],[-87.633188,41.821907],[-87.633237,41.823623],[-87.645928,41.823459],[-87.645984,41.825558],[-87.649221,41.825519],[-87.649245,41.826556],[-87.650864,41.826562],[-87.650968,41.830685],[-87.657385,41.8306],[-87.65743,41.831197],[-87.65856,41.832448],[-87.659955,41.831785],[-87.660595,41.832375],[-87.664344,41.832358],[-87.6643,41.830519],[-87.665568,41.830501],[-87.665462,41.82315],[-87.676318,41.823091],[-87.676273,41.821194],[-87.683949,41.821109],[-87.68147,41.81754],[-87.682918,41.817531],[-87.682943,41.815709],[-87.684072,41.815703]]]},"properties":{"name":"Stockyards","description":"Stockyards","styleUrl":"#poly-000000-1200-77","fill-opacity":0.30196078431372547,"fill":"#000000","stroke-opacity":1,"stroke":"#000000","stroke-width":1.2,"objectid":"15","no":"22","region":"West","hud_qualif":"3","region_num":"0","acres":"1,497.80388308","miles":"2.34031857","shape_area":"65,244,337.147","shape_len":"60,770.650881"}},{"type":"Feature","geometry":{"type":"Polygon","coordinates":[[[-87.741999,41.7688],[-87.741925,41.76547],[-87.736728,41.764085],[-87.736687,41.762994],[-87.737317,41.762981],[-87.737648,41.762266],[-87.741837,41.762181],[-87.741715,41.759407],[-87.740779,41.759418],[-87.740746,41.758255],[-87.732501,41.758439],[-87.732371,41.754962],[-87.72546,41.755064],[-87.725496,41.757994],[-87.722197,41.758022],[-87.722176,41.756801],[-87.71513,41.756906],[-87.715119,41.756486],[-87.714306,41.756452],[-87.714132,41.750399],[-87.711909,41.750427],[-87.7121,41.756893],[-87.707561,41.756964],[-87.707376,41.753338],[-87.69639,41.753543],[-87.696348,41.753198],[-87.701987,41.750688],[-87.701565,41.750154],[-87.70217,41.749804],[-87.687627,41.750035],[-87.687714,41.753743],[-87.687095,41.755043],[-87.68682,41.755316],[-87.682988,41.755385],[-87.682847,41.750103],[-87.677866,41.750171],[-87.678111,41.759271],[-87.680549,41.759259],[-87.680515,41.757965],[-87.68306,41.757859],[-87.683048,41.757395],[-87.687943,41.757316],[-87.68795,41.757586],[-87.694835,41.758606],[-87.694845,41.759073],[-87.702663,41.759048],[-87.702798,41.760772],[-87.707536,41.760693],[-87.707554,41.758408],[-87.7121,41.758316],[-87.712241,41.760597],[-87.718606,41.760555],[-87.72231,41.762371],[-87.722355,41.7641],[-87.725877,41.764158],[-87.735268,41.768907],[-87.736399,41.769938],[-87.737007,41.771205],[-87.737697,41.771194],[-87.737989,41.76989],[-87.738851,41.769125],[-87.741999,41.7688]]]},"properties":{"name":"Greater Southwest","description":"Greater Southwest","styleUrl":"#poly-000000-1200-77","fill-opacity":0.30196078431372547,"fill":"#000000","stroke-opacity":1,"stroke":"#000000","stroke-width":1.2,"objectid":"16","no":"7","region":"West","hud_qualif":"3","region_num":"0","acres":"1,022.91122233","miles":"1.59829878","shape_area":"44,558,012.8444","shape_len":"66,556.920137"}},{"type":"Feature","geometry":{"type":"Polygon","coordinates":[[[-87.765496,41.971308],[-87.764344,41.971891],[-87.76618,41.973941],[-87.772634,41.977545],[-87.772219,41.977957],[-87.772464,41.978143],[-87.772933,41.977711],[-87.774174,41.978411],[-87.774179,41.977761],[-87.774915,41.978176],[-87.7745,41.978585],[-87.77569,41.979248],[-87.775677,41.979879],[-87.77687,41.980165],[-87.776867,41.980541],[-87.777464,41.980805],[-87.778077,41.980808],[-87.778066,41.981424],[-87.779241,41.981425],[-87.779232,41.981856],[-87.780403,41.982113],[-87.78043,41.9829],[-87.781668,41.982905],[-87.781664,41.983228],[-87.78287,41.983548],[-87.783463,41.984291],[-87.78407,41.984289],[-87.784109,41.983949],[-87.785269,41.984594],[-87.785252,41.98522],[-87.785818,41.98548],[-87.786188,41.985111],[-87.78648,41.985267],[-87.786466,41.985898],[-87.787018,41.986145],[-87.787392,41.985788],[-87.787676,41.985944],[-87.787658,41.986557],[-87.788786,41.986567],[-87.791603,41.988139],[-87.791922,41.987815],[-87.793257,41.988566],[-87.792937,41.988874],[-87.795253,41.990182],[-87.794792,41.990637],[-87.796339,41.991518],[-87.796826,41.99105],[-87.798089,41.991783],[-87.79842,41.991489],[-87.801594,41.99329],[-87.801212,41.993652],[-87.806792,41.996975],[-87.806793,41.996238],[-87.812358,41.999386],[-87.812039,41.999659],[-87.813214,42.000375],[-87.813546,42.000092],[-87.815053,42.000961],[-87.815317,42.000702],[-87.817173,42.001765],[-87.817691,42.001252],[-87.808775,41.996201],[-87.810194,41.996221],[-87.8102,41.995889],[-87.808188,41.995877],[-87.807344,41.995399],[-87.806815,41.995399],[-87.806805,41.995776],[-87.768513,41.9742],[-87.768376,41.972492],[-87.765496,41.971308]]]},"properties":{"name":"Northwest Highway","description":"Northwest Highway","styleUrl":"#poly-000000-1200-77","fill-opacity":0.30196078431372547,"fill":"#000000","stroke-opacity":1,"stroke":"#000000","stroke-width":1.2,"objectid":"26","no":"25","region":"North","hud_qualif":"","region_num":"0","acres":"142.56530986","miles":"0","shape_area":"6,210,144.88075","shape_len":"42,463.617773"}},{"type":"Feature","geometry":{"type":"Polygon","coordinates":[[[-87.80118,41.783844],[-87.800899,41.777292],[-87.799285,41.777318],[-87.798559,41.778138],[-87.797614,41.778168],[-87.798336,41.77735],[-87.795968,41.777411],[-87.796012,41.778368],[-87.79504,41.778374],[-87.795014,41.77743],[-87.791018,41.77753],[-87.791015,41.777988],[-87.790436,41.777996],[-87.790511,41.780009],[-87.791088,41.780033],[-87.79113,41.781196],[-87.790555,41.781203],[-87.790624,41.783035],[-87.791214,41.783171],[-87.790634,41.783326],[-87.790661,41.784043],[-87.80118,41.783844]]]},"properties":{"name":"Harlem","description":"Harlem","styleUrl":"#poly-000000-1200-77","fill-opacity":0.30196078431372547,"fill":"#000000","stroke-opacity":1,"stroke":"#000000","stroke-width":1.2,"objectid":"17","no":"8","region":"West","hud_qualif":"2","region_num":"0","acres":"150.24550271","miles":"0.2347586","shape_area":"6,544,694.09788","shape_len":"12,527.04899"}},{"type":"Feature","geometry":{"type":"Polygon","coordinates":[[[-87.716231,41.807965],[-87.716071,41.802997],[-87.713823,41.803894],[-87.71375,41.800685],[-87.714793,41.800672],[-87.714686,41.797006],[-87.711007,41.79706],[-87.711126,41.800716],[-87.708672,41.800754],[-87.708708,41.802592],[-87.706307,41.802628],[-87.706333,41.803598],[-87.70386,41.804131],[-87.703766,41.800821],[-87.694,41.800989],[-87.694049,41.802806],[-87.68917,41.802896],[-87.689206,41.804341],[-87.686646,41.80439],[-87.686797,41.806613],[-87.689876,41.806572],[-87.689912,41.80787],[-87.690529,41.807866],[-87.690546,41.808341],[-87.691185,41.808331],[-87.691198,41.807874],[-87.692363,41.807861],[-87.692376,41.80831],[-87.692982,41.808301],[-87.693082,41.807908],[-87.694195,41.807894],[-87.694205,41.808281],[-87.703087,41.808137],[-87.703054,41.807017],[-87.703945,41.807003],[-87.703916,41.806074],[-87.702026,41.806104],[-87.701272,41.804681],[-87.705239,41.804545],[-87.705283,41.805681],[-87.705793,41.80567],[-87.705846,41.808096],[-87.716231,41.807965]]]},"properties":{"name":"Brighton Park","description":"Brighton Park","styleUrl":"#poly-000000-1200-77","fill-opacity":0.30196078431372547,"fill":"#000000","stroke-opacity":1,"stroke":"#000000","stroke-width":1.2,"objectid":"18","no":"3","region":"West","hud_qualif":"2","region_num":"0","acres":"399.93797723","miles":"0.62490309","shape_area":"17,421,298.288","shape_len":"31,793.406207"}},{"type":"Feature","geometry":{"type":"Polygon","coordinates":[[[-87.656597,41.679322],[-87.656519,41.677611],[-87.655259,41.677628],[-87.655186,41.675804],[-87.6565,41.675786],[-87.656401,41.672782],[-87.654264,41.673717],[-87.651403,41.673926],[-87.649088,41.673953],[-87.649036,41.672251],[-87.642942,41.672338],[-87.642975,41.673185],[-87.642357,41.673194],[-87.642385,41.674031],[-87.644099,41.674011],[-87.644108,41.674286],[-87.64242,41.674583],[-87.64249,41.676889],[-87.644314,41.676864],[-87.644346,41.67778],[-87.646778,41.677746],[-87.646838,41.679564],[-87.647454,41.679554],[-87.647482,41.680603],[-87.648089,41.680595],[-87.648113,41.681358],[-87.651125,41.681324],[-87.651097,41.679478],[-87.656597,41.679322]]]},"properties":{"name":"West Pullman","description":"West Pullman","styleUrl":"#poly-000000-1200-77","fill-opacity":0.30196078431372547,"fill":"#000000","stroke-opacity":1,"stroke":"#000000","stroke-width":1.2,"objectid":"19","no":"23","region":"South","hud_qualif":"1","region_num":"0","acres":"192.33467881","miles":"0.30052294","shape_area":"8,378,098.60886","shape_len":"16,439.61881"}},{"type":"Feature","geometry":{"type":"Polygon","coordinates":[[[-87.559316,41.644644],[-87.555692,41.646151],[-87.554682,41.645936],[-87.552421,41.644593],[-87.540872,41.644561],[-87.557405,41.657513],[-87.558003,41.65814],[-87.558071,41.659198],[-87.559279,41.659189],[-87.558882,41.661326],[-87.558859,41.666184],[-87.552184,41.66669],[-87.549564,41.666505],[-87.549565,41.665955],[-87.548992,41.665958],[-87.548482,41.666035],[-87.548482,41.666449],[-87.546515,41.666436],[-87.54649,41.661793],[-87.546312,41.660959],[-87.54593,41.660958],[-87.545926,41.659154],[-87.541684,41.659138],[-87.540632,41.664404],[-87.539642,41.6644],[-87.53878,41.668649],[-87.539964,41.672087],[-87.5401,41.688227],[-87.543727,41.68821],[-87.543773,41.69377],[-87.544369,41.69377],[-87.544397,41.700947],[-87.543778,41.700952],[-87.543767,41.702763],[-87.541904,41.702758],[-87.541903,41.708192],[-87.539998,41.708192],[-87.539998,41.709088],[-87.539542,41.709088],[-87.539542,41.709959],[-87.538904,41.710038],[-87.538923,41.722914],[-87.537991,41.722924],[-87.537994,41.723434],[-87.537721,41.723438],[-87.538757,41.724702],[-87.538195,41.724958],[-87.538927,41.725851],[-87.537841,41.726297],[-87.534885,41.722965],[-87.524471,41.723177],[-87.524548,41.724039],[-87.525159,41.724378],[-87.525942,41.726084],[-87.525075,41.726548],[-87.52603,41.726386],[-87.526324,41.726706],[-87.52935,41.732115],[-87.538472,41.728412],[-87.538857,41.728356],[-87.539631,41.729384],[-87.539528,41.730225],[-87.540103,41.730217],[-87.544165,41.727469],[-87.546544,41.72446],[-87.547277,41.724002],[-87.545677,41.722821],[-87.547773,41.722754],[-87.547156,41.721766],[-87.547152,41.720549],[-87.552308,41.70791],[-87.553755,41.706214],[-87.557281,41.703883],[-87.558258,41.702772],[-87.559603,41.702777],[-87.559512,41.695541],[-87.564499,41.695476],[-87.564326,41.684586],[-87.559377,41.684658],[-87.559255,41.669418],[-87.559722,41.669546],[-87.560441,41.669225],[-87.563851,41.666611],[-87.565065,41.666576],[-87.566981,41.665641],[-87.567279,41.664687],[-87.569524,41.663409],[-87.575378,41.663614],[-87.575488,41.68079],[-87.576451,41.684849],[-87.581206,41.683492],[-87.581149,41.68277],[-87.601386,41.68286],[-87.601194,41.676645],[-87.600534,41.674468],[-87.590286,41.66231],[-87.587679,41.661853],[-87.583402,41.659912],[-87.583351,41.659493],[-87.582435,41.659306],[-87.572557,41.659199],[-87.572457,41.657954],[-87.560937,41.658096],[-87.559881,41.657978],[-87.559292,41.657551],[-87.559316,41.644644]]]},"properties":{"name":"Calumet","description":"Calumet","styleUrl":"#poly-000000-1200-77","fill-opacity":0.30196078431372547,"fill":"#000000","stroke-opacity":1,"stroke":"#000000","stroke-width":1.2,"objectid":"20","no":"5","region":"South","hud_qualif":"3","region_num":"0","acres":"4,197.0273707","miles":"6.55785527","shape_area":"182,822,512.268","shape_len":"134,394.713971"}},{"type":"Feature","geometry":{"type":"Polygon","coordinates":[[[-87.742855,41.796679],[-87.742764,41.794643],[-87.741985,41.793031],[-87.736734,41.793084],[-87.736739,41.793541],[-87.736039,41.793549],[-87.736063,41.794495],[-87.735455,41.794503],[-87.735492,41.796001],[-87.736102,41.795994],[-87.736126,41.79675],[-87.736736,41.796744],[-87.736856,41.800395],[-87.73558,41.800448],[-87.735819,41.807714],[-87.728476,41.807809],[-87.728742,41.81513],[-87.723862,41.815195],[-87.723822,41.814165],[-87.721978,41.814196],[-87.721959,41.813387],[-87.721349,41.813396],[-87.721274,41.811582],[-87.718817,41.811571],[-87.718544,41.807933],[-87.714187,41.807989],[-87.712428,41.809071],[-87.712638,41.815324],[-87.704262,41.815421],[-87.70444,41.82259],[-87.714068,41.822453],[-87.714121,41.824197],[-87.710597,41.824311],[-87.710589,41.825623],[-87.709269,41.825682],[-87.706931,41.825703],[-87.706902,41.824366],[-87.705676,41.824383],[-87.7057,41.825293],[-87.702133,41.825371],[-87.699631,41.825415],[-87.699571,41.824972],[-87.696409,41.825037],[-87.696393,41.824578],[-87.694662,41.824614],[-87.694712,41.826367],[-87.69227,41.826415],[-87.69224,41.825575],[-87.689798,41.825627],[-87.689769,41.824712],[-87.688539,41.824735],[-87.688563,41.826661],[-87.689824,41.826636],[-87.689852,41.827449],[-87.702078,41.827207],[-87.702106,41.828125],[-87.698372,41.828197],[-87.698323,41.829963],[-87.687608,41.830234],[-87.687708,41.834429],[-87.742178,41.817475],[-87.742125,41.814945],[-87.74092,41.814961],[-87.740863,41.813135],[-87.739648,41.813138],[-87.739418,41.805095],[-87.738825,41.8051],[-87.738775,41.804026],[-87.738265,41.804025],[-87.738163,41.800387],[-87.739287,41.800369],[-87.739191,41.796717],[-87.739806,41.796711],[-87.73979,41.795953],[-87.74163,41.795923],[-87.741656,41.796695],[-87.742855,41.796679]]]},"properties":{"name":"Stevenson","description":"Stevenson","styleUrl":"#poly-000000-1200-77","fill-opacity":0.30196078431372547,"fill":"#000000","stroke-opacity":1,"stroke":"#000000","stroke-width":1.2,"objectid":"21","no":"21","region":"West","hud_qualif":"2","region_num":"0","acres":"1,245.3648621","miles":"1.9458826","shape_area":"54,248,093.3925","shape_len":"78,971.268528"}},{"type":"Feature","geometry":{"type":"Polygon","coordinates":[[[-87.754651,41.887153],[-87.754611,41.886306],[-87.750391,41.88636],[-87.750407,41.886911],[-87.745498,41.886626],[-87.745478,41.885953],[-87.736002,41.885612],[-87.735622,41.885226],[-87.726326,41.885074],[-87.726268,41.885481],[-87.722489,41.885294],[-87.7225,41.885774],[-87.723118,41.885883],[-87.72316,41.887771],[-87.722561,41.887896],[-87.72587,41.887854],[-87.726022,41.893307],[-87.728665,41.893418],[-87.728718,41.89532],[-87.735944,41.895185],[-87.735972,41.896135],[-87.738436,41.896093],[-87.738543,41.900198],[-87.739834,41.900175],[-87.739854,41.901073],[-87.738565,41.901098],[-87.738577,41.901548],[-87.736119,41.901592],[-87.73624,41.906136],[-87.740051,41.906085],[-87.74015,41.9097],[-87.738547,41.909721],[-87.738661,41.913386],[-87.736223,41.91347],[-87.736275,41.915227],[-87.738664,41.915199],[-87.738752,41.916109],[-87.739702,41.916101],[-87.739717,41.916548],[-87.738766,41.916562],[-87.738796,41.917474],[-87.739408,41.917473],[-87.739584,41.920671],[-87.739595,41.921124],[-87.738904,41.921136],[-87.738916,41.921593],[-87.741352,41.921582],[-87.741375,41.922476],[-87.738943,41.922507],[-87.738996,41.924336],[-87.743866,41.92427],[-87.743853,41.92377],[-87.742636,41.923786],[-87.742563,41.920632],[-87.741696,41.920644],[-87.741604,41.916983],[-87.743694,41.916961],[-87.743622,41.915006],[-87.744421,41.914888],[-87.744404,41.91436],[-87.746012,41.914559],[-87.74599,41.913924],[-87.742239,41.912431],[-87.742147,41.909816],[-87.743601,41.909651],[-87.743545,41.906476],[-87.744778,41.906462],[-87.744792,41.90712],[-87.746052,41.907078],[-87.745865,41.897775],[-87.745289,41.897788],[-87.745275,41.896876],[-87.745854,41.89686],[-87.745807,41.895004],[-87.74139,41.895097],[-87.741166,41.89145],[-87.743233,41.891417],[-87.743175,41.890068],[-87.745634,41.890038],[-87.745551,41.887918],[-87.754439,41.887822],[-87.754421,41.887139],[-87.754651,41.887153]]]},"properties":{"name":"Northwest","description":"Northwest","styleUrl":"#poly-000000-1200-77","fill-opacity":0.30196078431372547,"fill":"#000000","stroke-opacity":1,"stroke":"#000000","stroke-width":1.2,"objectid":"22","no":"14","region":"North","hud_qualif":"2","region_num":"0","acres":"799.61073552","miles":"1.249329","shape_area":"34,831,043.6391","shape_len":"59,138.183062"}},{"type":"Feature","geometry":{"type":"Polygon","coordinates":[[[-87.792011,41.960117],[-87.794198,41.960059],[-87.795715,41.959394],[-87.794657,41.958084],[-87.794824,41.956246],[-87.792538,41.956295],[-87.792451,41.954271],[-87.792118,41.95343],[-87.79352,41.953405],[-87.793499,41.952796],[-87.793835,41.952793],[-87.793795,41.951588],[-87.791372,41.951623],[-87.791348,41.951019],[-87.790688,41.951032],[-87.790714,41.95163],[-87.78892,41.951657],[-87.788988,41.952881],[-87.791248,41.952836],[-87.791754,41.9545],[-87.792011,41.960117]]]},"properties":{"name":"Wright Business Park","description":"Wright Business Park","styleUrl":"#poly-000000-1200-77","fill-opacity":0.30196078431372547,"fill":"#000000","stroke-opacity":1,"stroke":"#000000","stroke-width":1.2,"objectid":"23","no":"26","region":"North","hud_qualif":"","region_num":"0","acres":"48.85039698","miles":"0","shape_area":"2,127,923.29278","shape_len":"10,676.426684"}},{"type":"Feature","geometry":{"type":"Polygon","coordinates":[[[-87.698857,41.885101],[-87.701314,41.884918],[-87.701291,41.884076],[-87.697554,41.884208],[-87.69759,41.883745],[-87.69636,41.883789],[-87.692982,41.884017],[-87.692995,41.884378],[-87.692279,41.884407],[-87.69225,41.883685],[-87.690271,41.8837],[-87.688548,41.883763],[-87.688567,41.88456],[-87.647474,41.885665],[-87.647548,41.888038],[-87.649773,41.890063],[-87.662233,41.889943],[-87.662249,41.890482],[-87.669911,41.890559],[-87.686681,41.890243],[-87.686657,41.88956],[-87.687897,41.889545],[-87.687905,41.889997],[-87.688508,41.889989],[-87.688531,41.890438],[-87.687918,41.89051],[-87.687927,41.890848],[-87.694165,41.89333],[-87.694237,41.895668],[-87.699911,41.895629],[-87.706646,41.898311],[-87.706674,41.899195],[-87.708813,41.899171],[-87.711384,41.900196],[-87.711675,41.902788],[-87.714838,41.902768],[-87.710977,41.899498],[-87.706595,41.89667],[-87.706525,41.894521],[-87.705907,41.894525],[-87.705928,41.895083],[-87.705311,41.895089],[-87.704678,41.894914],[-87.704673,41.89453],[-87.704064,41.894537],[-87.703965,41.891417],[-87.703191,41.891373],[-87.703266,41.890446],[-87.702752,41.890451],[-87.70272,41.889362],[-87.703902,41.889332],[-87.703883,41.888675],[-87.706349,41.888648],[-87.706334,41.888152],[-87.701352,41.888232],[-87.701303,41.887053],[-87.698037,41.887062],[-87.698054,41.887351],[-87.696454,41.88737],[-87.696374,41.884245],[-87.69679,41.884225],[-87.697158,41.88497],[-87.698857,41.885101]]]},"properties":{"name":"Kinzie","description":"Kinzie","styleUrl":"#poly-000000-1200-77","fill-opacity":0.30196078431372547,"fill":"#000000","stroke-opacity":1,"stroke":"#000000","stroke-width":1.2,"objectid":"24","no":"10","region":"West","hud_qualif":"","region_num":"0","acres":"831.10484722","miles":"1.33501594","shape_area":"36,202,927.1521","shape_len":"54,084.466702"}},{"type":"Feature","geometry":{"type":"Polygon","coordinates":[[[-87.612984,41.67973],[-87.612523,41.676607],[-87.612492,41.673748],[-87.611932,41.673743],[-87.603103,41.66928],[-87.603702,41.669966],[-87.603003,41.670312],[-87.60667,41.674705],[-87.601466,41.674635],[-87.601976,41.676431],[-87.602222,41.685079],[-87.603415,41.685838],[-87.604312,41.685522],[-87.606561,41.685486],[-87.605273,41.687064],[-87.605017,41.689507],[-87.601508,41.68942],[-87.600811,41.690797],[-87.600594,41.692857],[-87.602051,41.692875],[-87.600566,41.69565],[-87.597429,41.694695],[-87.594266,41.700411],[-87.594286,41.706898],[-87.593894,41.709929],[-87.594474,41.710519],[-87.594871,41.710151],[-87.599967,41.710069],[-87.601843,41.710313],[-87.601749,41.707521],[-87.601189,41.70753],[-87.60117,41.706629],[-87.599089,41.706537],[-87.598383,41.705722],[-87.601197,41.702046],[-87.606292,41.701946],[-87.606145,41.69826],[-87.608608,41.698218],[-87.609861,41.692771],[-87.605438,41.692823],[-87.605339,41.6873],[-87.606683,41.685485],[-87.611081,41.685445],[-87.611588,41.684002],[-87.612028,41.683903],[-87.612984,41.67973]]]},"properties":{"name":"Pullman","description":"Pullman","styleUrl":"#poly-000000-1200-77","fill-opacity":0.30196078431372547,"fill":"#000000","stroke-opacity":1,"stroke":"#000000","stroke-width":1.2,"objectid":"25","no":"18","region":"South","hud_qualif":"2","region_num":"0","acres":"692.08221608","miles":"1.08137846","shape_area":"30,147,101.3327","shape_len":"45,704.019933"}}]}