{"type":"FeatureCollection","features":[{"type":"Feature","geometry":{"type":"Polygon","coordinates":[[[-87.61576,41.785699],[-87.616526,41.785689],[-87.616253,41.780137],[-87.617241,41.780119],[-87.617142,41.776547],[-87.605258,41.776809],[-87.605265,41.78051],[-87.604459,41.780518],[-87.604469,41.780978],[-87.605296,41.780915],[-87.605208,41.785244],[-87.60548,41.785239],[-87.6055,41.785882],[-87.61576,41.785699]]]},"properties":{"name":"West Woodlawn","description":"West Woodlawn","styleUrl":"#poly-880E4F-1200-77","fill-opacity":0.30196078431372547,"fill":"#880e4f","stroke-opacity":1,"stroke":"#880e4f","stroke-width":1.2,"objectid_1":"1","objectid":"1","shape_leng":"13,793.1144472","shape_le_1":"13,793.1144472","shape_area":"10,390,964.6006","type":"Existing"}},{"type":"Feature","geometry":{"type":"Polygon","coordinates":[[[-87.652059,41.755987],[-87.658607,41.755885],[-87.658589,41.754998],[-87.657193,41.755014],[-87.657048,41.750461],[-87.6575,41.750455],[-87.65749,41.750076],[-87.644034,41.750254],[-87.644184,41.756092],[-87.652059,41.755987]]]},"properties":{"name":"Auburn Gresham","description":"Auburn Gresham","styleUrl":"#poly-A52714-1200-77","fill-opacity":0.30196078431372547,"fill":"#a52714","stroke-opacity":1,"stroke":"#a52714","stroke-width":1.2,"objectid_1":"2","objectid":"2","shape_leng":"12,401.8641642","shape_le_1":"12,395.9245466","shape_area":"7,775,884.30501","type":"Existing"}},{"type":"Feature","geometry":{"type":"Polygon","coordinates":[[[-87.661599,41.68482],[-87.661365,41.677544],[-87.641909,41.677815],[-87.64194,41.6788],[-87.645119,41.685043],[-87.661599,41.68482]]]},"properties":{"name":"West Pullman","description":"West Pullman","styleUrl":"#poly-F9A825-1200-77","fill-opacity":0.30196078431372547,"fill":"#f9a825","stroke-opacity":1,"stroke":"#f9a825","stroke-width":1.2,"objectid_1":"3","objectid":"3","shape_leng":"15,265.8946528","shape_le_1":"15,265.8946528","shape_area":"13,143,769.5228","type":"Existing"}},{"type":"Feature","geometry":{"type":"Polygon","coordinates":[[[-87.716434,41.899104],[-87.717017,41.899099],[-87.716787,41.890503],[-87.716317,41.890509],[-87.716295,41.8902],[-87.706398,41.890304],[-87.706556,41.89555],[-87.712059,41.895498],[-87.712166,41.899141],[-87.716434,41.899104]]]},"properties":{"name":"Humboldt Park","description":"Humboldt Park","styleUrl":"#poly-FFD600-1200-77","fill-opacity":0.30196078431372547,"fill":"#ffd600","stroke-opacity":1,"stroke":"#ffd600","stroke-width":1.2,"objectid_1":"4","objectid":"4","shape_leng":"12,771.3910886","shape_le_1":"12,131.8327596","shape_area":"7,133,098.33213","type":"Existing"}},{"type":"Feature","geometry":{"type":"Polygon","coordinates":[[[-87.624509,41.811071],[-87.624272,41.80198],[-87.615709,41.802112],[-87.615748,41.803253],[-87.616172,41.803373],[-87.616378,41.811201],[-87.624509,41.811071]]]},"properties":{"name":"Grand Blvd","description":"Grand Blvd","styleUrl":"#poly-817717-1200-77","fill-opacity":0.30196078431372547,"fill":"#817717","stroke-opacity":1,"stroke":"#817717","stroke-width":1.2,"objectid_1":"9","objectid":"11","shape_leng":"11,281.5899833","shape_le_1":"11,281.5899833","shape_area":"7,395,942.91928","type":"Existing"}},{"type":"Feature","geometry":{"type":"Polygon","coordinates":[[[-87.648522,41.783332],[-87.649129,41.783323],[-87.648801,41.772414],[-87.626427,41.772695],[-87.627226,41.774265],[-87.629667,41.776503],[-87.631024,41.778374],[-87.631394,41.779765],[-87.631512,41.783619],[-87.635144,41.783549],[-87.635135,41.783984],[-87.640024,41.783907],[-87.640097,41.784221],[-87.640737,41.784214],[-87.644895,41.784133],[-87.644878,41.783386],[-87.648522,41.783332]]]},"properties":{"name":"Englewood","description":"Englewood","styleUrl":"#poly-558B2F-1200-77","fill-opacity":0.30196078431372547,"fill":"#558b2f","stroke-opacity":1,"stroke":"#558b2f","stroke-width":1.2,"objectid_1":"5","objectid":"7","shape_leng":"18,940.1905785","shape_le_1":"19,808.205401","shape_area":"21,224,847.2798","type":"Existing"}},{"type":"Feature","geometry":{"type":"Polygon","coordinates":[[[-87.688009,41.782844],[-87.688625,41.782836],[-87.688666,41.78457],[-87.688058,41.784578],[-87.688118,41.786495],[-87.693595,41.786407],[-87.693392,41.779116],[-87.688523,41.779188],[-87.688536,41.779663],[-87.68793,41.77967],[-87.688009,41.782844]]]},"properties":{"name":"Chicago Lawn","description":"Chicago Lawn","styleUrl":"#poly-097138-1200-77","fill-opacity":0.30196078431372547,"fill":"#097138","stroke-opacity":1,"stroke":"#097138","stroke-width":1.2,"objectid_1":"6","objectid":"8","shape_leng":"9,009.26808577","shape_le_1":"8,640.13713054","shape_area":"3,846,153.29254","type":"Existing"}},{"type":"Feature","geometry":{"type":"Polygon","coordinates":[[[-87.755964,41.92412],[-87.755947,41.916925],[-87.746103,41.916932],[-87.746301,41.924245],[-87.755964,41.92412]]]},"properties":{"name":"Belmont Cragin","description":"Belmont Cragin","styleUrl":"#poly-01579B-1200-77","fill-opacity":0.30196078431372547,"fill":"#01579b","stroke-opacity":1,"stroke":"#01579b","stroke-width":1.2,"objectid_1":"7","objectid":"9","shape_leng":"10,645.7910011","shape_le_1":"10,645.7910011","shape_area":"7,118,495.49547","type":"Existing"}},{"type":"Feature","geometry":{"type":"Polygon","coordinates":[[[-87.757003,41.931402],[-87.756773,41.924577],[-87.757576,41.924566],[-87.757563,41.924227],[-87.746302,41.924244],[-87.746595,41.931538],[-87.757003,41.931402]]]},"properties":{"name":"North Belmont Cragin","description":"North Belmont Cragin","styleUrl":"#poly-1A237E-1200-77","fill-opacity":0.30196078431372547,"fill":"#1a237e","stroke-opacity":1,"stroke":"#1a237e","stroke-width":1.2,"objectid_1":"10","objectid":"12","shape_leng":"13,347.2494912","shape_le_1":"11,439.4098644","shape_area":"7,578,005.7126","type":"New"}},{"type":"Feature","geometry":{"type":"Polygon","coordinates":[[[-87.715894,41.880856],[-87.715663,41.873843],[-87.705926,41.874256],[-87.706123,41.880973],[-87.715894,41.880856]]]},"properties":{"name":"East Garfield Park","description":"East Garfield Park","styleUrl":"#poly-673AB7-1200-77","fill-opacity":0.30196078431372547,"fill":"#673ab7","stroke-opacity":1,"stroke":"#673ab7","stroke-width":1.2,"objectid_1":"14","objectid":"13","shape_leng":"10,326.4189178","shape_le_1":"10,326.4189178","shape_area":"6,749,510.49239","type":"New"}},{"type":"Feature","geometry":{"type":"Polygon","coordinates":[[[-87.765395,41.894854],[-87.765119,41.887729],[-87.763292,41.887709],[-87.763275,41.887254],[-87.755319,41.887202],[-87.755599,41.894936],[-87.765395,41.894854]]]},"properties":{"name":"Austin","description":"Austin","styleUrl":"#poly-4E342E-1200-77","fill-opacity":0.30196078431372547,"fill":"#4e342e","stroke-opacity":1,"stroke":"#4e342e","stroke-width":1.2,"objectid_1":"16","objectid":"14","shape_leng":"10,917.3663355","shape_le_1":"10,917.3663355","shape_area":"7,306,881.91698","type":"New"}},{"type":"Feature","geometry":{"type":"Polygon","coordinates":[[[-87.606518,41.707433],[-87.608608,41.698218],[-87.602496,41.698262],[-87.602848,41.707504],[-87.606518,41.707433]]]},"properties":{"name":"North Pullman","description":"North Pullman","styleUrl":"#poly-C2185B-1200-77","fill-opacity":0.30196078431372547,"fill":"#c2185b","stroke-opacity":1,"stroke":"#c2185b","stroke-width":1.2,"objectid_1":"17","objectid":"15","shape_leng":"9,447.47177063","shape_le_1":"9,447.47177062","shape_area":"4,475,232.51455","type":"New"}},{"type":"Feature","geometry":{"type":"Polygon","coordinates":[[[-87.605215,41.751286],[-87.605033,41.74397],[-87.598697,41.744047],[-87.597032,41.751371],[-87.605215,41.751286]]]},"properties":{"name":"Chatham","description":"Chatham","styleUrl":"#poly-0288D1-1200-77","fill-opacity":0.30196078431372547,"fill":"#0288d1","stroke-opacity":1,"stroke":"#0288d1","stroke-width":1.2,"objectid_1":"18","objectid":"1","shape_leng":"9,336.25055868","shape_le_1":"9,336.25055868","shape_area":"5,278,392.02671","type":"Revised"}}]}