{"type":"FeatureCollection","features":[{"type":"Feature","geometry":{"type":"Point","coordinates":[-87.765423,41.882513,0]},"properties":{"name":"The Kehrein Center for the Arts","description":"","styleUrl":"#icon-1899-0288D1","label-scale":0,"icon-opacity":1,"icon-color":"#0288d1","icon-scale":1,"icon-offset":[32,64],"icon-offset-units":["pixels","insetPixels"],"icon":"https://www.gstatic.com/mapspro/images/stock/503-wht-blank_maps.png","project_name":"The Kehrein Center for the Arts","applicant_name":"Ed Siderewicz","address_number":"5608","address_number_high":"5628","street_direction":"W","street_name":"Washington","street_type":"Blvd","ward":"29","community_area":"Austin","approval_date":"12/12/2018","completion_date":"09/01/2019","property_type":"Mixed-use: retail and commercial","square_footage":"30,000","project_description":"Rehab a vacant auditorium into a Performing Arts Center with 1,000 seat theater.  Expand educational and recreational offerings.","incentive_amount":"$1,000,000","total_project_cost":"$3,953,689","jobs_created_aspirational":"","jobs_retained_aspirational":""}},{"type":"Feature","geometry":{"type":"Point","coordinates":[-87.722881,41.840724,0]},"properties":{"name":"Enlace Chicago","description":"","styleUrl":"#icon-1899-0288D1","label-scale":0,"icon-opacity":1,"icon-color":"#0288d1","icon-scale":1,"icon-offset":[32,64],"icon-offset-units":["pixels","insetPixels"],"icon":"https://www.gstatic.com/mapspro/images/stock/503-wht-blank_maps.png","project_name":"Enlace Chicago","applicant_name":"Enlace Chicago","address_number":"2759","address_number_high":"","street_direction":"S","street_name":"Harding","street_type":"Ave","ward":"22","community_area":"South Lawndale","approval_date":"09/13/2019","completion_date":"02/09/2022","property_type":"General Commercial","square_footage":"9,000","project_description":"Development of a Enlace's new office and community space.","incentive_amount":"$550,000","total_project_cost":"$1,850,168","jobs_created_aspirational":"","jobs_retained_aspirational":""}},{"type":"Feature","geometry":{"type":"Point","coordinates":[-87.623444,41.823948,0]},"properties":{"name":"Bronzeville Salon Suites","description":"","styleUrl":"#icon-1899-0288D1","label-scale":0,"icon-opacity":1,"icon-color":"#0288d1","icon-scale":1,"icon-offset":[32,64],"icon-offset-units":["pixels","insetPixels"],"icon":"https://www.gstatic.com/mapspro/images/stock/503-wht-blank_maps.png","project_name":"Bronzeville Salon Suites","applicant_name":"Eric Dantzler","address_number":"80","address_number_high":"","street_direction":"E","street_name":"Pershing","street_type":"Rd","ward":"4","community_area":"Bronzeville","approval_date":"10/17/2018","completion_date":"","property_type":"Retail","square_footage":"6,500","project_description":"New construction of 18, fully-equipped salon suites.","incentive_amount":"$720,334","total_project_cost":"$1,765,471","jobs_created_aspirational":"","jobs_retained_aspirational":""}},{"type":"Feature","geometry":{"type":"Point","coordinates":[-87.710301,41.867844,0]},"properties":{"name":"North Lawndale Employment Network","description":"","styleUrl":"#icon-1899-0288D1","label-scale":0,"icon-opacity":1,"icon-color":"#0288d1","icon-scale":1,"icon-offset":[32,64],"icon-offset-units":["pixels","insetPixels"],"icon":"https://www.gstatic.com/mapspro/images/stock/503-wht-blank_maps.png","project_name":"North Lawndale Employment Network","applicant_name":"North Lawndale Employment Network","address_number":"1111","address_number_high":"","street_direction":"S","street_name":"Homan","street_type":"Ave","ward":"24","community_area":"North Lawndale","approval_date":"09/29/2020","completion_date":"","property_type":"Mixed-Use: Retail and Commercial","square_footage":"20,000","project_description":"North Lawndale Employment Network will acquire and renovate a former bank building into the new North Lawndale Employment Network Campus.  The campus will be home to NLEN’s subsidiary, Sweet Beginnings, a café, office space, and a Wintrust Bank branch.","incentive_amount":"$2,500,000","total_project_cost":"$8,277,353","jobs_created_aspirational":"13","jobs_retained_aspirational":"41"}},{"type":"Feature","geometry":{"type":"Point","coordinates":[-87.584991,41.723734,0]},"properties":{"name":"Huddle House","description":"","styleUrl":"#icon-1899-0288D1","label-scale":0,"icon-opacity":1,"icon-color":"#0288d1","icon-scale":1,"icon-offset":[32,64],"icon-offset-units":["pixels","insetPixels"],"icon":"https://www.gstatic.com/mapspro/images/stock/503-wht-blank_maps.png","project_name":"Huddle House","applicant_name":"Siraj Elahi","address_number":"9421","address_number_high":"","street_direction":"S","street_name":"Stony Island","street_type":"Ave","ward":"8","community_area":"Calumet Heights","approval_date":"05/28/2021","completion_date":"","property_type":"Retail","square_footage":"3,349","project_description":"New construction of a Huddle House restaurant at 9421 S Stony Island.","incentive_amount":"$1,100,000","total_project_cost":"$2,907,432","jobs_created_aspirational":"","jobs_retained_aspirational":""}},{"type":"Feature","geometry":{"type":"Point","coordinates":[-87.654955,41.77941,0]},"properties":{"name":"IMAN Healthy Marketplace","description":"","styleUrl":"#icon-1899-0288D1","label-scale":0,"icon-opacity":1,"icon-color":"#0288d1","icon-scale":1,"icon-offset":[32,64],"icon-offset-units":["pixels","insetPixels"],"icon":"https://www.gstatic.com/mapspro/images/stock/503-wht-blank_maps.png","project_name":"IMAN Healthy Marketplace","applicant_name":"Inner City Muslim Action Network (IMAN)","address_number":"1207","address_number_high":"1211","street_direction":"W","street_name":"63rd","street_type":"St","ward":"16","community_area":"West Englewood","approval_date":"06/17/2020","completion_date":"05/23/2022","property_type":"Retail","square_footage":"7,000","project_description":"A model for the corner store, the Marketplace will respond to the pervasive community need for healthier food options.","incentive_amount":"$1,500,000","total_project_cost":"$4,968,169","jobs_created_aspirational":"","jobs_retained_aspirational":""}}]}