{"type":"FeatureCollection","features":[{"type":"Feature","geometry":{"type":"Polygon","coordinates":[[[-87.710149,41.691514],[-87.710124,41.690946],[-87.70922,41.690852],[-87.708236,41.690867],[-87.708253,41.691362],[-87.708011,41.691365],[-87.707997,41.690955],[-87.701441,41.691054],[-87.700914,41.690734],[-87.700156,41.690751],[-87.700169,41.691094],[-87.696218,41.691147],[-87.696208,41.691529],[-87.696231,41.692083],[-87.697011,41.692073],[-87.697025,41.692572],[-87.698545,41.692478],[-87.69853,41.692069],[-87.700203,41.692048],[-87.700321,41.693696],[-87.701022,41.69369],[-87.700997,41.693024],[-87.701482,41.693017],[-87.701453,41.6922],[-87.704587,41.691983],[-87.704602,41.692421],[-87.705134,41.692413],[-87.705119,41.691973],[-87.709513,41.691911],[-87.709498,41.691524],[-87.710149,41.691514]]]},"properties":{"name":"111th/Kedzie","description":"SSA#55","styleUrl":"#poly-FF0000-1000-0","fill-opacity":0,"fill":"#ff0000","stroke-opacity":1,"stroke":"#ff0000","stroke-width":1,"SSA Name":"Active"}},{"type":"Feature","geometry":{"type":"Polygon","coordinates":[[[-87.681909,41.721421],[-87.68188,41.720488],[-87.667662,41.720637],[-87.665361,41.721027],[-87.66521,41.720537],[-87.664089,41.720727],[-87.664392,41.721337],[-87.663876,41.721345],[-87.664131,41.721848],[-87.670473,41.721594],[-87.67047,41.721351],[-87.679764,41.72141],[-87.679775,41.721757],[-87.681909,41.721421]]]},"properties":{"name":"95th/Beverly","description":"SSA# 4","styleUrl":"#poly-FF0000-1000-0","fill-opacity":0,"fill":"#ff0000","stroke-opacity":1,"stroke":"#ff0000","stroke-width":1,"SSA Name":"Active"}},{"type":"Feature","geometry":{"type":"Polygon","coordinates":[[[-87.625889,41.808947],[-87.625851,41.80751],[-87.625262,41.807519],[-87.625298,41.808888],[-87.622052,41.808937],[-87.62197,41.808595],[-87.621378,41.808604],[-87.621389,41.809028],[-87.620432,41.809044],[-87.620423,41.808687],[-87.619759,41.808697],[-87.619766,41.808986],[-87.611569,41.809079],[-87.611584,41.80988],[-87.615627,41.809832],[-87.615663,41.811121],[-87.616272,41.811111],[-87.616245,41.810169],[-87.617522,41.810148],[-87.61751,41.809735],[-87.618761,41.809784],[-87.61884,41.810256],[-87.618916,41.809698],[-87.621041,41.809699],[-87.62105,41.810031],[-87.621417,41.810027],[-87.622663,41.809656],[-87.622691,41.810737],[-87.62432,41.810986],[-87.624275,41.809505],[-87.625309,41.80949],[-87.625336,41.810421],[-87.625928,41.810411],[-87.625889,41.808947]]]},"properties":{"name":"Bronzeville","description":"SSA#56-2022","styleUrl":"#poly-FF0000-1000-0","fill-opacity":0,"fill":"#ff0000","stroke-opacity":1,"stroke":"#ff0000","stroke-width":1,"SSA Name":"Active"}},{"type":"Feature","geometry":{"type":"Polygon","coordinates":[[[-87.713138,41.807918],[-87.713671,41.807911],[-87.713562,41.805871],[-87.713066,41.80513],[-87.712138,41.804646],[-87.705216,41.804628],[-87.704676,41.804984],[-87.70456,41.805471],[-87.704012,41.80548],[-87.70402,41.805793],[-87.705793,41.805761],[-87.705844,41.808011],[-87.713138,41.807918]]]},"properties":{"name":"Kedzie Tract Industrial","description":"SSA# 7","styleUrl":"#poly-FF0000-1000-0","fill-opacity":0,"fill":"#ff0000","stroke-opacity":1,"stroke":"#ff0000","stroke-width":1,"SSA Name":"Active"}},{"type":"Feature","geometry":{"type":"Polygon","coordinates":[[[-87.627088,41.901168],[-87.627085,41.900948],[-87.627597,41.900939],[-87.627315,41.90035],[-87.625141,41.900387],[-87.625153,41.900797],[-87.624876,41.9008],[-87.624889,41.901218],[-87.627088,41.901168]]]},"properties":{"name":"Oak Street","description":"SSA#75","styleUrl":"#poly-FF0000-1000-0","fill-opacity":0,"fill":"#ff0000","stroke-opacity":1,"stroke":"#ff0000","stroke-width":1,"SSA Name":"Active"}},{"type":"Feature","geometry":{"type":"Polygon","coordinates":[[[-87.658583,41.932466],[-87.658563,41.931904],[-87.657219,41.930851],[-87.65609,41.930561],[-87.656077,41.930173],[-87.655576,41.930193],[-87.655798,41.93002],[-87.655369,41.929545],[-87.654582,41.929482],[-87.654789,41.92908],[-87.653598,41.928787],[-87.653581,41.928282],[-87.653067,41.928405],[-87.653256,41.928258],[-87.652792,41.927777],[-87.652816,41.927302],[-87.65156,41.927322],[-87.65131,41.927145],[-87.651622,41.926905],[-87.651018,41.926475],[-87.650701,41.926712],[-87.650525,41.926586],[-87.650838,41.926354],[-87.650247,41.925932],[-87.649592,41.92592],[-87.649793,41.925531],[-87.649066,41.925544],[-87.648631,41.925217],[-87.648611,41.924641],[-87.647345,41.923741],[-87.646863,41.923748],[-87.64685,41.923301],[-87.646149,41.923449],[-87.645457,41.922342],[-87.643367,41.921466],[-87.641984,41.921485],[-87.641999,41.922009],[-87.642205,41.922391],[-87.642631,41.922385],[-87.642642,41.922728],[-87.643689,41.922716],[-87.643666,41.921985],[-87.643912,41.922104],[-87.643926,41.922529],[-87.644618,41.923233],[-87.64599,41.92358],[-87.646002,41.92413],[-87.646169,41.923758],[-87.646415,41.923889],[-87.646684,41.925071],[-87.647048,41.924854],[-87.647488,41.925205],[-87.647317,41.92539],[-87.647661,41.925385],[-87.647673,41.925801],[-87.648657,41.925981],[-87.648643,41.925552],[-87.648909,41.926224],[-87.649533,41.926128],[-87.649427,41.926514],[-87.650328,41.927158],[-87.65107,41.927149],[-87.651087,41.927668],[-87.651677,41.927658],[-87.65155,41.927844],[-87.652469,41.928227],[-87.65248,41.928553],[-87.652889,41.928546],[-87.652649,41.929462],[-87.653628,41.929444],[-87.653615,41.929045],[-87.653863,41.929218],[-87.653956,41.931982],[-87.654475,41.931974],[-87.654414,41.930244],[-87.654989,41.930024],[-87.655221,41.93074],[-87.656191,41.930878],[-87.655917,41.931124],[-87.657649,41.932482],[-87.658583,41.932466]]]},"properties":{"name":"Lincoln Avenue","description":"SSA#35-2015","styleUrl":"#poly-FF0000-1000-0","fill-opacity":0,"fill":"#ff0000","stroke-opacity":1,"stroke":"#ff0000","stroke-width":1,"SSA Name":"Active"}},{"type":"Feature","geometry":{"type":"Polygon","coordinates":[[[-87.631828,41.855375],[-87.631802,41.854318],[-87.634815,41.852863],[-87.635747,41.853904],[-87.63635,41.85361],[-87.636709,41.854039],[-87.636693,41.852758],[-87.636901,41.852755],[-87.63688,41.851864],[-87.634983,41.852782],[-87.634794,41.852495],[-87.632777,41.852519],[-87.632451,41.851443],[-87.632821,41.850506],[-87.63236,41.850492],[-87.632491,41.848242],[-87.631911,41.848251],[-87.631921,41.84867],[-87.631331,41.848677],[-87.631424,41.852526],[-87.630776,41.852537],[-87.631006,41.855387],[-87.631828,41.855375]]]},"properties":{"name":"Chinatown","description":"SSA#73","styleUrl":"#poly-FF0000-1000-0","fill-opacity":0,"fill":"#ff0000","stroke-opacity":1,"stroke":"#ff0000","stroke-width":1,"SSA Name":"Active"}},{"type":"Feature","geometry":{"type":"Polygon","coordinates":[[[-87.647945,41.881769],[-87.647852,41.878774],[-87.648439,41.878764],[-87.648404,41.877704],[-87.647818,41.877683],[-87.647775,41.8763],[-87.646684,41.876313],[-87.646803,41.87677],[-87.646273,41.878051],[-87.646555,41.880594],[-87.64572,41.880604],[-87.645753,41.881798],[-87.647945,41.881769]]]},"properties":{"name":"Greek Town","description":"SSA#16","styleUrl":"#poly-FF0000-1000-0","fill-opacity":0,"fill":"#ff0000","stroke-opacity":1,"stroke":"#ff0000","stroke-width":1,"SSA Name":"Active"}},{"type":"Feature","geometry":{"type":"Polygon","coordinates":[[[-87.750338,41.993998],[-87.750522,41.991903],[-87.749396,41.991367],[-87.748514,41.991474],[-87.748508,41.990028],[-87.749249,41.990018],[-87.749253,41.989744],[-87.750042,41.989552],[-87.747686,41.988467],[-87.747685,41.989418],[-87.747109,41.989409],[-87.747112,41.99039],[-87.747688,41.990384],[-87.747695,41.992728],[-87.750338,41.993998]]]},"properties":{"name":"Sauganash","description":"SSA#62","styleUrl":"#poly-FF0000-1000-0","fill-opacity":0,"fill":"#ff0000","stroke-opacity":1,"stroke":"#ff0000","stroke-width":1,"SSA Name":"Active"}},{"type":"Feature","geometry":{"type":"Polygon","coordinates":[[[-87.607621,41.822136],[-87.607603,41.820371],[-87.606792,41.820012],[-87.606771,41.819485],[-87.60741,41.819481],[-87.607376,41.818593],[-87.608612,41.818571],[-87.608568,41.816784],[-87.607946,41.816793],[-87.607932,41.815909],[-87.607345,41.81592],[-87.607324,41.814983],[-87.608332,41.81497],[-87.608318,41.814383],[-87.607525,41.814394],[-87.607218,41.810059],[-87.610108,41.810019],[-87.610137,41.8113],[-87.610229,41.810013],[-87.611468,41.809994],[-87.611447,41.809019],[-87.607206,41.809087],[-87.607163,41.807258],[-87.607742,41.807249],[-87.60767,41.804059],[-87.607323,41.804064],[-87.607423,41.80223],[-87.606407,41.802251],[-87.60642,41.807717],[-87.605948,41.807723],[-87.605966,41.809069],[-87.604126,41.80893],[-87.604126,41.80919],[-87.601694,41.809257],[-87.601704,41.809476],[-87.595834,41.809488],[-87.595822,41.808815],[-87.594389,41.808762],[-87.594275,41.807941],[-87.59388,41.808468],[-87.594279,41.808477],[-87.594281,41.808731],[-87.593177,41.808833],[-87.593185,41.809571],[-87.591603,41.809698],[-87.592257,41.810618],[-87.59297,41.810141],[-87.593856,41.810881],[-87.594834,41.810242],[-87.595198,41.810549],[-87.596845,41.810297],[-87.596839,41.810034],[-87.597354,41.810028],[-87.597732,41.810586],[-87.601714,41.810249],[-87.601702,41.809697],[-87.602519,41.809688],[-87.602536,41.810245],[-87.60582,41.810192],[-87.606215,41.819475],[-87.606588,41.819478],[-87.606666,41.819832],[-87.606728,41.822143],[-87.607621,41.822136]]]},"properties":{"name":"Cottage Grove - 47th St","description":"SSA#47","styleUrl":"#poly-FF0000-1000-0","fill-opacity":0,"fill":"#ff0000","stroke-opacity":1,"stroke":"#ff0000","stroke-width":1,"SSA Name":"Active"}},{"type":"Feature","geometry":{"type":"Polygon","coordinates":[[[-87.72353,41.851414],[-87.725362,41.851537],[-87.725049,41.850491],[-87.725532,41.85032],[-87.725486,41.848688],[-87.739323,41.845593],[-87.739075,41.845405],[-87.738943,41.841015],[-87.734072,41.841073],[-87.734148,41.843648],[-87.725143,41.843745],[-87.724976,41.837306],[-87.724632,41.837308],[-87.72461,41.836879],[-87.726785,41.836853],[-87.726772,41.836426],[-87.723725,41.836257],[-87.723733,41.836484],[-87.722807,41.836454],[-87.722522,41.837096],[-87.723747,41.837124],[-87.723926,41.843817],[-87.717864,41.844116],[-87.712216,41.843942],[-87.711001,41.844214],[-87.709776,41.843974],[-87.705638,41.844067],[-87.705551,41.841239],[-87.706158,41.841229],[-87.706139,41.840858],[-87.705547,41.840866],[-87.705507,41.839764],[-87.706117,41.839755],[-87.706093,41.839033],[-87.70569,41.839035],[-87.709447,41.83715],[-87.707902,41.837511],[-87.705962,41.838578],[-87.705931,41.837208],[-87.70423,41.837243],[-87.704297,41.840064],[-87.701212,41.843462],[-87.700123,41.844104],[-87.700018,41.844579],[-87.695355,41.84464],[-87.695377,41.845475],[-87.695906,41.845469],[-87.695896,41.845139],[-87.702716,41.845078],[-87.702707,41.844774],[-87.704432,41.844753],[-87.704469,41.846051],[-87.703852,41.846061],[-87.703861,41.84635],[-87.705125,41.846333],[-87.705148,41.84814],[-87.705749,41.848131],[-87.705735,41.846481],[-87.714728,41.84645],[-87.714716,41.846035],[-87.713,41.845967],[-87.705693,41.846167],[-87.705684,41.844736],[-87.712485,41.844896],[-87.714919,41.844616],[-87.714971,41.846479],[-87.717286,41.846369],[-87.717275,41.846],[-87.715443,41.846051],[-87.715411,41.844773],[-87.720284,41.844544],[-87.723954,41.844827],[-87.724037,41.847923],[-87.723421,41.847931],[-87.72344,41.84857],[-87.724542,41.848326],[-87.724551,41.848669],[-87.714974,41.850806],[-87.714982,41.85104],[-87.723785,41.849184],[-87.723484,41.84977],[-87.72353,41.851414]],[[-87.704418,41.844302],[-87.704329,41.841328],[-87.703839,41.841334],[-87.703829,41.840979],[-87.704321,41.840973],[-87.704304,41.840379],[-87.702172,41.842735],[-87.703117,41.842722],[-87.703155,41.844062],[-87.704418,41.844302]],[[-87.725218,41.846986],[-87.725267,41.848508],[-87.73417,41.846512],[-87.734151,41.844602],[-87.725192,41.844727],[-87.725218,41.846986]]]},"properties":{"name":"Little Village","description":"SSA#25","styleUrl":"#poly-FF0000-1000-0","fill-opacity":0,"fill":"#ff0000","stroke-opacity":1,"stroke":"#ff0000","stroke-width":1,"SSA Name":"Active"}},{"type":"Feature","geometry":{"type":"Polygon","coordinates":[[[-87.661915,42.006393],[-87.661614,42.005415],[-87.661481,42.001576],[-87.662597,42.002247],[-87.661569,42.002453],[-87.66292,42.002435],[-87.663679,42.00293],[-87.664823,42.004083],[-87.665519,42.005458],[-87.665731,42.0054],[-87.664504,42.003398],[-87.661699,42.001503],[-87.663013,42.001305],[-87.662999,42.00089],[-87.661773,42.000902],[-87.661758,42.000517],[-87.661324,42.000521],[-87.661256,41.998623],[-87.661742,41.998618],[-87.661712,41.998178],[-87.659232,41.998206],[-87.659416,41.998989],[-87.655133,41.999042],[-87.65557,41.999254],[-87.656082,42.001106],[-87.659789,42.001059],[-87.660512,42.006669],[-87.661675,42.006651],[-87.661915,42.006393]]]},"properties":{"name":"Sheridan Rd","description":"SSA#54","styleUrl":"#poly-FF0000-1000-0","fill-opacity":0,"fill":"#ff0000","stroke-opacity":1,"stroke":"#ff0000","stroke-width":1,"SSA Name":"Active"}},{"type":"Feature","geometry":{"type":"Polygon","coordinates":[[[-87.6563245,41.973024],[-87.655595,41.972941],[-87.65556,41.971661],[-87.654886,41.971669],[-87.655557,41.971507],[-87.655507,41.969611],[-87.657627,41.969446],[-87.65764,41.969861],[-87.658376,41.969852],[-87.658353,41.969036],[-87.658574,41.969032],[-87.658641,41.971464],[-87.659551,41.971451],[-87.658645,41.971617],[-87.658774,41.976338],[-87.660579,41.976313],[-87.660488,41.97185],[-87.661118,41.971841],[-87.661097,41.971116],[-87.660468,41.971123],[-87.660445,41.970231],[-87.660571,41.969784],[-87.661063,41.969778],[-87.661053,41.969443],[-87.661788,41.969432],[-87.661737,41.968995],[-87.660403,41.969014],[-87.660321,41.967189],[-87.65965,41.967198],[-87.659644,41.966687],[-87.659164,41.966693],[-87.659214,41.965757],[-87.663133,41.965546],[-87.664667,41.965656],[-87.664463,41.966155],[-87.664756,41.966133],[-87.665556,41.965898],[-87.665486,41.965558],[-87.666148,41.965469],[-87.666041,41.964961],[-87.663791,41.964825],[-87.663814,41.965058],[-87.662415,41.965107],[-87.660292,41.964855],[-87.660277,41.963531],[-87.65842,41.963637],[-87.657938,41.961738],[-87.657355,41.961744],[-87.657254,41.96126],[-87.65709,41.954459],[-87.648753,41.954578],[-87.648765,41.955041],[-87.650194,41.954732],[-87.650384,41.955561],[-87.650969,41.956077],[-87.650293,41.956435],[-87.650372,41.956853],[-87.651371,41.956584],[-87.651909,41.957232],[-87.651668,41.95786],[-87.651969,41.957834],[-87.652356,41.958455],[-87.652147,41.958878],[-87.653041,41.960083],[-87.653538,41.959906],[-87.653744,41.960201],[-87.652298,41.960719],[-87.652314,41.961343],[-87.649906,41.961604],[-87.649887,41.960951],[-87.648666,41.960975],[-87.648679,41.961399],[-87.648312,41.961405],[-87.648325,41.961868],[-87.649907,41.961841],[-87.650019,41.965488],[-87.648615,41.965505],[-87.650031,41.970493],[-87.651027,41.970479],[-87.650664,41.969636],[-87.65416,41.969592],[-87.654166,41.970814],[-87.654534,41.97081],[-87.654554,41.971584],[-87.654174,41.971589],[-87.654319,41.976406],[-87.658554,41.976342],[-87.658459,41.9729],[-87.6563245,41.973024]],[[-87.656324,41.973024],[-87.656329,41.973198],[-87.6563245,41.973024],[-87.656324,41.973024]],[[-87.656206,41.967302],[-87.656208,41.967472],[-87.656207,41.967344],[-87.656206,41.967302]],[[-87.653876,41.954968],[-87.651468,41.955002],[-87.651479,41.955463],[-87.651858,41.955459],[-87.65228,41.956117],[-87.65391,41.955919],[-87.653876,41.954968]],[[-87.655503,41.967482],[-87.655515,41.968716],[-87.656951,41.968697],[-87.656946,41.968285],[-87.65762,41.968276],[-87.657624,41.968732],[-87.658287,41.968724],[-87.65826,41.967627],[-87.655503,41.967482]],[[-87.656343,41.973731],[-87.65562,41.97374],[-87.655683,41.976158],[-87.657809,41.976085],[-87.657782,41.975014],[-87.657109,41.975023],[-87.657072,41.973651],[-87.656343,41.973731]],[[-87.653921,41.95762],[-87.653975,41.956164],[-87.652249,41.956469],[-87.653267,41.957972],[-87.653944,41.957963],[-87.653921,41.95762]],[[-87.656204,41.967015],[-87.657853,41.966864],[-87.656749,41.965896],[-87.655488,41.966057],[-87.655495,41.966688],[-87.6562,41.966681],[-87.656206,41.967302],[-87.656204,41.967015]],[[-87.650704,41.964849],[-87.654174,41.964798],[-87.654198,41.962219],[-87.650421,41.962265],[-87.650704,41.964849]],[[-87.654165,41.967289],[-87.653759,41.966389],[-87.654188,41.966382],[-87.654182,41.965929],[-87.650816,41.965981],[-87.651104,41.967335],[-87.650793,41.96734],[-87.650773,41.968248],[-87.650368,41.968253],[-87.650374,41.968741],[-87.650107,41.968789],[-87.654155,41.968737],[-87.654165,41.967289]],[[-87.657006,41.960359],[-87.656883,41.955916],[-87.656688,41.955507],[-87.656283,41.955513],[-87.656685,41.95537],[-87.656726,41.95482],[-87.655412,41.95487],[-87.655498,41.957916],[-87.656685,41.957805],[-87.656847,41.958521],[-87.656841,41.95907],[-87.655529,41.959088],[-87.655596,41.961502],[-87.657078,41.961748],[-87.657006,41.960359]]]},"properties":{"name":"Uptown","description":"SSA#34","styleUrl":"#poly-FF0000-1000-0","fill-opacity":0,"fill":"#ff0000","stroke-opacity":1,"stroke":"#ff0000","stroke-width":1,"SSA Name":"Active"}},{"type":"Feature","geometry":{"type":"Polygon","coordinates":[[[-87.664011,41.818917],[-87.66541,41.818969],[-87.665433,41.819886],[-87.668238,41.819707],[-87.668843,41.81941],[-87.668799,41.817665],[-87.666522,41.817696],[-87.666478,41.815948],[-87.665335,41.816027],[-87.665329,41.815777],[-87.665751,41.815774],[-87.665687,41.813419],[-87.665271,41.813354],[-87.665253,41.812599],[-87.665664,41.812596],[-87.665624,41.810944],[-87.665212,41.810882],[-87.665622,41.810878],[-87.665601,41.809979],[-87.665189,41.809917],[-87.666104,41.809918],[-87.666079,41.809019],[-87.675038,41.808926],[-87.675235,41.811052],[-87.675623,41.81204],[-87.675982,41.812073],[-87.678121,41.810814],[-87.679102,41.808462],[-87.674687,41.80851],[-87.674674,41.808032],[-87.673247,41.808045],[-87.673073,41.808434],[-87.673063,41.808047],[-87.672466,41.80844],[-87.672452,41.808067],[-87.672126,41.808035],[-87.666055,41.808121],[-87.666023,41.806345],[-87.665514,41.80635],[-87.665481,41.805049],[-87.6647,41.805054],[-87.66423,41.80506],[-87.664263,41.806293],[-87.663818,41.8063],[-87.663829,41.806709],[-87.664328,41.806567],[-87.664379,41.808524],[-87.658674,41.808688],[-87.659944,41.809381],[-87.660152,41.810396],[-87.661488,41.810381],[-87.661477,41.809922],[-87.661935,41.809917],[-87.661924,41.809478],[-87.662682,41.809475],[-87.663458,41.810184],[-87.664394,41.80973],[-87.664402,41.813985],[-87.664919,41.813978],[-87.664935,41.814658],[-87.664472,41.814665],[-87.664303,41.815798],[-87.665002,41.815915],[-87.665059,41.818296],[-87.663996,41.81831],[-87.664011,41.818917]]]},"properties":{"name":"Back of the Yards","description":"SSA#10","styleUrl":"#poly-FF0000-1000-0","fill-opacity":0,"fill":"#ff0000","stroke-opacity":1,"stroke":"#ff0000","stroke-width":1,"SSA Name":"Active"}},{"type":"Feature","geometry":{"type":"Polygon","coordinates":[[[-87.722872,41.789487],[-87.722497,41.790585],[-87.723724,41.790571],[-87.723611,41.786404],[-87.724541,41.786394],[-87.724516,41.785826],[-87.723479,41.785839],[-87.723413,41.779137],[-87.737115,41.778987],[-87.737415,41.778961],[-87.737404,41.778597],[-87.738008,41.77859],[-87.738507,41.778585],[-87.738519,41.778976],[-87.74231,41.778931],[-87.742055,41.771129],[-87.741437,41.771139],[-87.741631,41.777963],[-87.737879,41.778006],[-87.737697,41.771194],[-87.737201,41.771202],[-87.737351,41.776577],[-87.734787,41.776604],[-87.734827,41.778039],[-87.723388,41.77817],[-87.723074,41.765993],[-87.726149,41.765863],[-87.726113,41.764275],[-87.722017,41.764007],[-87.721822,41.763667],[-87.722091,41.77818],[-87.713931,41.778307],[-87.713922,41.777964],[-87.713101,41.777977],[-87.712783,41.764238],[-87.712234,41.764246],[-87.712742,41.778322],[-87.703614,41.778489],[-87.703605,41.778126],[-87.703354,41.77813],[-87.703395,41.77705],[-87.702451,41.777065],[-87.702485,41.778388],[-87.702024,41.778489],[-87.684282,41.778754],[-87.684239,41.777339],[-87.683376,41.777305],[-87.68282,41.777312],[-87.682857,41.778659],[-87.682157,41.778669],[-87.682168,41.779084],[-87.681194,41.779098],[-87.681183,41.778683],[-87.679722,41.778704],[-87.679737,41.779347],[-87.680254,41.77934],[-87.680294,41.780985],[-87.681293,41.780969],[-87.681258,41.779712],[-87.682933,41.779688],[-87.682969,41.780947],[-87.682388,41.780956],[-87.682667,41.783642],[-87.683584,41.783628],[-87.683567,41.783011],[-87.684395,41.782995],[-87.684306,41.779747],[-87.69085,41.77965],[-87.690889,41.781065],[-87.692348,41.781044],[-87.692309,41.779629],[-87.702514,41.779475],[-87.702555,41.780889],[-87.703314,41.780889],[-87.703773,41.780881],[-87.703728,41.779452],[-87.712798,41.779311],[-87.712788,41.778833],[-87.71313,41.778824],[-87.71529,41.778886],[-87.7153,41.779262],[-87.722118,41.779153],[-87.722223,41.782397],[-87.722682,41.78239],[-87.722691,41.782731],[-87.722387,41.782736],[-87.722263,41.784944],[-87.722324,41.786378],[-87.722789,41.786371],[-87.722583,41.787672],[-87.722847,41.788575],[-87.722493,41.788581],[-87.722511,41.789149],[-87.722862,41.789144],[-87.722872,41.789487]]]},"properties":{"name":"63rd Street","description":"SSA# 3","styleUrl":"#poly-FF0000-1000-0","fill-opacity":0,"fill":"#ff0000","stroke-opacity":1,"stroke":"#ff0000","stroke-width":1,"SSA Name":"Active"}},{"type":"Feature","geometry":{"type":"Polygon","coordinates":[[[-87.628516,41.801987],[-87.628493,41.801098],[-87.627099,41.801123],[-87.627121,41.801832],[-87.620831,41.80142],[-87.620838,41.801689],[-87.619393,41.801444],[-87.619399,41.801668],[-87.61883,41.801673],[-87.618837,41.80197],[-87.618118,41.801982],[-87.617861,41.801702],[-87.617625,41.80199],[-87.616282,41.801601],[-87.616298,41.802109],[-87.616772,41.802101],[-87.61678,41.80246],[-87.61798,41.802508],[-87.618669,41.802154],[-87.618683,41.802702],[-87.622656,41.802242],[-87.623472,41.802354],[-87.623483,41.802755],[-87.624294,41.802734],[-87.624275,41.802065],[-87.625894,41.802036],[-87.625922,41.803117],[-87.627083,41.803095],[-87.627091,41.80343],[-87.627597,41.80342],[-87.627589,41.803084],[-87.628535,41.802738],[-87.628516,41.801987]]]},"properties":{"name":"51st Street","description":"SSA#52-2021","styleUrl":"#poly-FF0000-1000-0","fill-opacity":0,"fill":"#ff0000","stroke-opacity":1,"stroke":"#ff0000","stroke-width":1,"SSA Name":"Active"}},{"type":"Feature","geometry":{"type":"Polygon","coordinates":[[[-87.681269,41.713653],[-87.682518,41.713667],[-87.681745,41.688161],[-87.686081,41.688107],[-87.686022,41.686288],[-87.681622,41.686346],[-87.681321,41.677283],[-87.680696,41.677257],[-87.681126,41.690792],[-87.680584,41.690799],[-87.680534,41.69295],[-87.678818,41.69298],[-87.678848,41.69401],[-87.680681,41.693976],[-87.680697,41.694491],[-87.680093,41.694502],[-87.680105,41.69489],[-87.680654,41.694879],[-87.680671,41.695401],[-87.68091,41.695397],[-87.680926,41.696003],[-87.68056,41.69601],[-87.681269,41.713653]]]},"properties":{"name":"South Western Avenue","description":"SSA#20","styleUrl":"#poly-FF0000-1000-0","fill-opacity":0,"fill":"#ff0000","stroke-opacity":1,"stroke":"#ff0000","stroke-width":1,"SSA Name":"Active"}},{"type":"Feature","geometry":{"type":"Polygon","coordinates":[[[-87.645096,41.932891],[-87.646486,41.932864],[-87.646466,41.932113],[-87.645417,41.932157],[-87.644617,41.93062],[-87.644291,41.930695],[-87.644167,41.930008],[-87.64323,41.929501],[-87.642637,41.92849],[-87.643134,41.928348],[-87.642374,41.927065],[-87.641854,41.927005],[-87.641616,41.926484],[-87.641965,41.926369],[-87.641548,41.925659],[-87.640753,41.925491],[-87.640877,41.925134],[-87.640161,41.923668],[-87.639737,41.923674],[-87.639584,41.92279],[-87.63909,41.922796],[-87.639056,41.921868],[-87.638557,41.921875],[-87.638542,41.921265],[-87.637928,41.920066],[-87.637673,41.920069],[-87.637824,41.91934],[-87.637225,41.919348],[-87.637814,41.91905],[-87.636263,41.919068],[-87.636295,41.920267],[-87.637068,41.920258],[-87.63697,41.920817],[-87.637576,41.921826],[-87.637942,41.921884],[-87.638005,41.922403],[-87.637183,41.922418],[-87.637209,41.923362],[-87.63885,41.923401],[-87.638658,41.924484],[-87.638999,41.924479],[-87.63902,41.925081],[-87.639803,41.925068],[-87.63982,41.925688],[-87.64031,41.92608],[-87.63991,41.926261],[-87.639992,41.926538],[-87.640197,41.926774],[-87.640751,41.926592],[-87.640898,41.926838],[-87.640638,41.926925],[-87.641373,41.927728],[-87.641137,41.928266],[-87.641346,41.928622],[-87.641862,41.928451],[-87.642201,41.929043],[-87.641524,41.929496],[-87.641849,41.930054],[-87.642878,41.929974],[-87.643204,41.930349],[-87.642535,41.930563],[-87.6431,41.931522],[-87.643242,41.931762],[-87.643806,41.931569],[-87.644081,41.932008],[-87.644092,41.93235],[-87.641335,41.932476],[-87.640338,41.932345],[-87.640144,41.931727],[-87.639515,41.931738],[-87.639567,41.932997],[-87.645096,41.932891]]]},"properties":{"name":"Lincoln Park/Clark St","description":"SSA#23","styleUrl":"#poly-FF0000-1000-0","fill-opacity":0,"fill":"#ff0000","stroke-opacity":1,"stroke":"#ff0000","stroke-width":1,"SSA Name":"Active"}},{"type":"Feature","geometry":{"type":"Polygon","coordinates":[[[-87.775697,41.93889],[-87.776111,41.938885],[-87.776079,41.938015],[-87.767089,41.938109],[-87.766889,41.933184],[-87.765727,41.9332],[-87.765903,41.938147],[-87.761703,41.9382],[-87.761733,41.93907],[-87.765842,41.939018],[-87.765884,41.940319],[-87.766321,41.940313],[-87.766357,41.941227],[-87.767172,41.941216],[-87.767113,41.939389],[-87.768836,41.939367],[-87.768822,41.938983],[-87.773441,41.938919],[-87.773476,41.939834],[-87.773832,41.93983],[-87.773797,41.938936],[-87.775697,41.93889]]]},"properties":{"name":"Belmont/Central","description":"SSA# 2","styleUrl":"#poly-FF0000-1000-0","fill-opacity":0,"fill":"#ff0000","stroke-opacity":1,"stroke":"#ff0000","stroke-width":1,"SSA Name":"Active"}},{"type":"Feature","geometry":{"type":"Polygon","coordinates":[[[-87.627086,41.886709],[-87.628784,41.886706],[-87.628423,41.884393],[-87.629311,41.88439],[-87.629296,41.883824],[-87.629004,41.883825],[-87.629283,41.883311],[-87.628844,41.88331],[-87.628959,41.882111],[-87.628399,41.882118],[-87.628606,41.879541],[-87.628265,41.879545],[-87.628255,41.879158],[-87.628616,41.877705],[-87.628263,41.877709],[-87.628258,41.87744],[-87.62861,41.877436],[-87.628576,41.875811],[-87.626909,41.875813],[-87.626996,41.879965],[-87.62631,41.879958],[-87.626347,41.881533],[-87.627062,41.881464],[-87.627077,41.882179],[-87.62636,41.88219],[-87.626375,41.882714],[-87.627073,41.882582],[-87.627073,41.883327],[-87.626394,41.88333],[-87.626425,41.884389],[-87.627269,41.884385],[-87.627287,41.885176],[-87.626868,41.885178],[-87.626883,41.885642],[-87.627469,41.88564],[-87.627491,41.886322],[-87.627075,41.886325],[-87.627086,41.886709]]]},"properties":{"name":"State Street","description":"SSA# 1-2015","styleUrl":"#poly-FF0000-1000-0","fill-opacity":0,"fill":"#ff0000","stroke-opacity":1,"stroke":"#ff0000","stroke-width":1,"SSA Name":"Active"}},{"type":"Feature","geometry":{"type":"Polygon","coordinates":[[[-87.667487,41.718015],[-87.66768,41.714372],[-87.668276,41.714363],[-87.66823,41.712053],[-87.667669,41.712062],[-87.668624,41.709853],[-87.668975,41.707205],[-87.670523,41.707385],[-87.670634,41.707114],[-87.670684,41.706552],[-87.669974,41.706564],[-87.67,41.706114],[-87.669106,41.706124],[-87.669941,41.699243],[-87.669573,41.699251],[-87.668734,41.70616],[-87.667105,41.706157],[-87.667134,41.707144],[-87.667804,41.707134],[-87.66782,41.707656],[-87.668553,41.707647],[-87.668272,41.709772],[-87.667267,41.712161],[-87.667237,41.71344],[-87.666807,41.713446],[-87.666664,41.713901],[-87.666683,41.71454],[-87.667298,41.714529],[-87.667517,41.720706],[-87.667487,41.718015]]]},"properties":{"name":"103rd/Beverly","description":"SSA#44","styleUrl":"#poly-FF0000-1000-0","fill-opacity":0,"fill":"#ff0000","stroke-opacity":1,"stroke":"#ff0000","stroke-width":1,"SSA Name":"Active"}},{"type":"Feature","geometry":{"type":"Polygon","coordinates":[[[-87.593202,41.798974],[-87.588333,41.799207],[-87.588118,41.797654],[-87.588375,41.797651],[-87.588356,41.796698],[-87.588909,41.796692],[-87.58888,41.79531],[-87.588335,41.795317],[-87.588315,41.794674],[-87.587764,41.794681],[-87.587772,41.795092],[-87.584103,41.795136],[-87.58411,41.795509],[-87.58684,41.795424],[-87.586856,41.796082],[-87.586955,41.795423],[-87.587354,41.795421],[-87.587088,41.798015],[-87.586363,41.798025],[-87.586388,41.798919],[-87.586003,41.799217],[-87.586009,41.799475],[-87.58645,41.79947],[-87.586939,41.802486],[-87.587715,41.802476],[-87.587285,41.801034],[-87.587583,41.801031],[-87.587829,41.801796],[-87.587767,41.80156],[-87.588539,41.801552],[-87.58895,41.80067],[-87.589799,41.800916],[-87.589783,41.80022],[-87.595156,41.799967],[-87.595161,41.800187],[-87.596541,41.800171],[-87.596527,41.799567],[-87.594905,41.799586],[-87.594885,41.798752],[-87.593202,41.798974]]]},"properties":{"name":"Hyde Park","description":"SSA#61-2023","styleUrl":"#poly-FF0000-1000-0","fill-opacity":0,"fill":"#ff0000","stroke-opacity":1,"stroke":"#ff0000","stroke-width":1,"SSA Name":"Active"}},{"type":"Feature","geometry":{"type":"Polygon","coordinates":[[[-87.643113,41.717827],[-87.643725,41.717614],[-87.64366,41.715244],[-87.644265,41.715237],[-87.644237,41.714196],[-87.643635,41.714207],[-87.643451,41.707373],[-87.646493,41.707331],[-87.646466,41.706427],[-87.643424,41.706454],[-87.643007,41.692968],[-87.643612,41.692797],[-87.643596,41.692342],[-87.643022,41.69235],[-87.642813,41.686893],[-87.645217,41.686958],[-87.645276,41.688775],[-87.646185,41.688764],[-87.646544,41.689477],[-87.646622,41.691851],[-87.647108,41.691843],[-87.647121,41.6923],[-87.648781,41.692277],[-87.645127,41.685042],[-87.645515,41.685037],[-87.643693,41.681429],[-87.643724,41.678234],[-87.644366,41.678223],[-87.644346,41.67778],[-87.640705,41.677827],[-87.640693,41.677421],[-87.629856,41.677538],[-87.629878,41.678398],[-87.641206,41.678274],[-87.641641,41.688088],[-87.641036,41.688095],[-87.641054,41.688734],[-87.641657,41.688728],[-87.641754,41.691579],[-87.64171,41.692364],[-87.641165,41.692368],[-87.641182,41.692838],[-87.641788,41.692834],[-87.642213,41.706448],[-87.639179,41.706511],[-87.639204,41.70745],[-87.642238,41.707404],[-87.642417,41.714213],[-87.641807,41.71422],[-87.64183,41.715144],[-87.642442,41.715127],[-87.642509,41.717836],[-87.643113,41.717827]]]},"properties":{"name":"103rd/Halsted","description":"SSA#45","styleUrl":"#poly-FF0000-1000-0","fill-opacity":0,"fill":"#ff0000","stroke-opacity":1,"stroke":"#ff0000","stroke-width":1,"SSA Name":"Active"}},{"type":"Feature","geometry":{"type":"Polygon","coordinates":[[[-87.635189,41.911797],[-87.636679,41.911768],[-87.636657,41.911099],[-87.637709,41.911083],[-87.637696,41.910601],[-87.635217,41.910833],[-87.635167,41.909123],[-87.635635,41.908929],[-87.634863,41.908747],[-87.635211,41.908649],[-87.63503,41.90669],[-87.635382,41.906319],[-87.635063,41.90494],[-87.635546,41.904937],[-87.635747,41.904481],[-87.635287,41.904307],[-87.635275,41.903843],[-87.636942,41.903817],[-87.636423,41.902083],[-87.633877,41.902205],[-87.633919,41.903376],[-87.632921,41.903727],[-87.632938,41.904373],[-87.633721,41.904454],[-87.63375,41.905506],[-87.63399,41.905502],[-87.633766,41.905745],[-87.633825,41.907483],[-87.634156,41.90791],[-87.633839,41.907915],[-87.633853,41.908745],[-87.634117,41.90874],[-87.634142,41.909545],[-87.633841,41.909549],[-87.634105,41.910748],[-87.631658,41.910756],[-87.631841,41.911518],[-87.63472,41.911476],[-87.634724,41.911806],[-87.635189,41.911797]]]},"properties":{"name":"Old Town","description":"SSA#48","styleUrl":"#poly-FF0000-1000-0","fill-opacity":0,"fill":"#ff0000","stroke-opacity":1,"stroke":"#ff0000","stroke-width":1,"SSA Name":"Active"}},{"type":"Feature","geometry":{"type":"Polygon","coordinates":[[[-87.709214,41.997871],[-87.709214,41.996924],[-87.70096,41.997057],[-87.700952,41.996826],[-87.700224,41.996839],[-87.700226,41.997092],[-87.691211,41.997225],[-87.691206,41.996908],[-87.6905,41.99692],[-87.690415,41.994175],[-87.689131,41.994193],[-87.689198,41.99726],[-87.68369,41.997358],[-87.683702,41.997745],[-87.680262,41.997805],[-87.680276,41.998323],[-87.689317,41.998204],[-87.689351,41.999461],[-87.69051,41.999441],[-87.690477,41.998193],[-87.694203,41.998132],[-87.694208,41.998338],[-87.709214,41.997871]]]},"properties":{"name":"Devon Ave","description":"SSA#43","styleUrl":"#poly-FF0000-1000-0","fill-opacity":0,"fill":"#ff0000","stroke-opacity":1,"stroke":"#ff0000","stroke-width":1,"SSA Name":"Active"}},{"type":"Feature","geometry":{"type":"Polygon","coordinates":[[[-87.751304,41.956088],[-87.750617,41.955297],[-87.751701,41.955283],[-87.751682,41.954715],[-87.751193,41.954721],[-87.751177,41.95422],[-87.749837,41.954233],[-87.749826,41.953902],[-87.752703,41.953876],[-87.752326,41.952321],[-87.749712,41.952353],[-87.749725,41.952871],[-87.747981,41.952893],[-87.747942,41.951473],[-87.746602,41.951487],[-87.746616,41.952008],[-87.746055,41.952016],[-87.74563,41.951501],[-87.742689,41.951664],[-87.74273,41.953107],[-87.744236,41.956011],[-87.745785,41.956017],[-87.74577,41.955583],[-87.747181,41.955567],[-87.747204,41.956247],[-87.74809,41.95624],[-87.748059,41.955328],[-87.749364,41.955312],[-87.749761,41.95622],[-87.750675,41.956405],[-87.751304,41.956088]]]},"properties":{"name":"Six Corners","description":"SSA#28-2014","styleUrl":"#poly-FF0000-1000-0","fill-opacity":0,"fill":"#ff0000","stroke-opacity":1,"stroke":"#ff0000","stroke-width":1,"SSA Name":"Active"}},{"type":"Feature","geometry":{"type":"Polygon","coordinates":[[[-87.591169,41.773285],[-87.591161,41.772856],[-87.586934,41.772902],[-87.586688,41.771204],[-87.58725,41.771199],[-87.587241,41.770156],[-87.586932,41.770157],[-87.587138,41.766483],[-87.589462,41.766462],[-87.589497,41.767846],[-87.59288,41.767819],[-87.593399,41.765554],[-87.591137,41.765566],[-87.590845,41.765304],[-87.590852,41.765563],[-87.587112,41.765591],[-87.58705,41.763316],[-87.587724,41.76331],[-87.587699,41.762399],[-87.586863,41.762406],[-87.586792,41.758759],[-87.588368,41.758745],[-87.588321,41.756925],[-87.586743,41.756938],[-87.5867,41.755114],[-87.589492,41.755096],[-87.590501,41.754283],[-87.586615,41.751493],[-87.585655,41.751502],[-87.586036,41.762502],[-87.58523,41.762511],[-87.585317,41.765695],[-87.583675,41.765989],[-87.583665,41.765628],[-87.58184,41.76565],[-87.581833,41.76527],[-87.581195,41.765278],[-87.581207,41.765783],[-87.578744,41.765575],[-87.57875,41.765826],[-87.577524,41.76584],[-87.57752,41.765636],[-87.57629,41.765649],[-87.576261,41.764331],[-87.573003,41.764365],[-87.571917,41.764377],[-87.571976,41.76583],[-87.567845,41.765818],[-87.567718,41.765335],[-87.567726,41.765879],[-87.566508,41.765893],[-87.566542,41.767158],[-87.568172,41.767143],[-87.568161,41.766685],[-87.571419,41.766657],[-87.571456,41.768029],[-87.572104,41.768022],[-87.572065,41.766557],[-87.575698,41.766547],[-87.575701,41.76677],[-87.576317,41.766794],[-87.577548,41.766781],[-87.57754,41.766497],[-87.579989,41.76642],[-87.58,41.766755],[-87.58062,41.766749],[-87.580613,41.766474],[-87.582796,41.766459],[-87.582802,41.766732],[-87.583583,41.766724],[-87.583589,41.767],[-87.584368,41.766991],[-87.584355,41.766511],[-87.585141,41.766501],[-87.585198,41.773344],[-87.591169,41.773285]]]},"properties":{"name":"71st - Stony Island","description":"SSA#42","styleUrl":"#poly-FF0000-1000-0","fill-opacity":0,"fill":"#ff0000","stroke-opacity":1,"stroke":"#ff0000","stroke-width":1,"SSA Name":"Active"}},{"type":"Feature","geometry":{"type":"Polygon","coordinates":[[[-87.704044,41.788144],[-87.703999,41.7866],[-87.705932,41.786723],[-87.705915,41.786295],[-87.708087,41.78626],[-87.708072,41.785694],[-87.70397,41.785811],[-87.703771,41.780882],[-87.702559,41.780892],[-87.702696,41.785778],[-87.68448,41.786075],[-87.684441,41.784636],[-87.683978,41.784644],[-87.683951,41.783615],[-87.682667,41.783642],[-87.682438,41.782746],[-87.681829,41.782748],[-87.68184,41.783152],[-87.680346,41.783173],[-87.680471,41.787018],[-87.683096,41.786985],[-87.683198,41.789709],[-87.682648,41.789716],[-87.682669,41.790213],[-87.684592,41.790204],[-87.684504,41.78703],[-87.702722,41.786733],[-87.702816,41.789984],[-87.704095,41.789959],[-87.704044,41.788144]]]},"properties":{"name":"59th Street","description":"SSA#59-2022","styleUrl":"#poly-FF0000-1000-0","fill-opacity":0,"fill":"#ff0000","stroke-opacity":1,"stroke":"#ff0000","stroke-width":1,"SSA Name":"Active"}},{"type":"Feature","geometry":{"type":"Polygon","coordinates":[[[-87.551293,41.737493],[-87.55216,41.737482],[-87.552133,41.736205],[-87.552643,41.736199],[-87.552624,41.73543],[-87.552116,41.735436],[-87.551998,41.730603],[-87.552797,41.730593],[-87.552776,41.729745],[-87.553144,41.72974],[-87.553151,41.730163],[-87.553609,41.730158],[-87.5536,41.729568],[-87.554057,41.729493],[-87.551013,41.726803],[-87.55045,41.726809],[-87.550474,41.727767],[-87.547779,41.727809],[-87.547789,41.728179],[-87.547547,41.728182],[-87.547538,41.727812],[-87.546275,41.727772],[-87.546352,41.726371],[-87.544828,41.726377],[-87.543024,41.728456],[-87.544105,41.728443],[-87.544115,41.72887],[-87.550499,41.728805],[-87.550517,41.72955],[-87.54971,41.729559],[-87.549737,41.73063],[-87.550543,41.73062],[-87.550708,41.7375],[-87.551293,41.737493]]]},"properties":{"name":"Commercial Avenue","description":"SSA# 5","styleUrl":"#poly-FF0000-1000-0","fill-opacity":0,"fill":"#ff0000","stroke-opacity":1,"stroke":"#ff0000","stroke-width":1,"SSA Name":"Active"}},{"type":"Feature","geometry":{"type":"Polygon","coordinates":[[[-87.629524,41.707554],[-87.629114,41.706633],[-87.620858,41.706741],[-87.621177,41.704646],[-87.62166,41.704644],[-87.621654,41.704202],[-87.620016,41.704274],[-87.619663,41.706771],[-87.607572,41.706956],[-87.60747,41.707412],[-87.607035,41.707418],[-87.613601,41.679146],[-87.615216,41.680472],[-87.619851,41.682834],[-87.620408,41.690803],[-87.620428,41.692117],[-87.620013,41.692127],[-87.619905,41.692626],[-87.619918,41.693128],[-87.620264,41.693125],[-87.620137,41.694804],[-87.62078,41.694797],[-87.620771,41.69533],[-87.621403,41.695322],[-87.621585,41.693055],[-87.624296,41.693022],[-87.624304,41.693482],[-87.625396,41.693469],[-87.625386,41.69301],[-87.626595,41.692996],[-87.626607,41.693453],[-87.627923,41.693438],[-87.627899,41.692072],[-87.621625,41.692131],[-87.621404,41.685339],[-87.62289,41.685322],[-87.622849,41.684015],[-87.621277,41.683302],[-87.621238,41.682977],[-87.620665,41.682913],[-87.621239,41.682843],[-87.621253,41.682244],[-87.619534,41.682474],[-87.615528,41.680425],[-87.615738,41.680422],[-87.613901,41.678972],[-87.614089,41.67815],[-87.613022,41.678166],[-87.613246,41.678585],[-87.606864,41.706509],[-87.606075,41.706518],[-87.605965,41.706977],[-87.604635,41.706997],[-87.604007,41.707214],[-87.604014,41.707464],[-87.606655,41.707424],[-87.607445,41.707523],[-87.607363,41.707869],[-87.619352,41.707591],[-87.619349,41.708146],[-87.620982,41.708113],[-87.621013,41.707661],[-87.622914,41.707536],[-87.624745,41.707745],[-87.629524,41.707554]]]},"properties":{"name":"Roseland","description":"SSA#71","styleUrl":"#poly-FF0000-1000-0","fill-opacity":0,"fill":"#ff0000","stroke-opacity":1,"stroke":"#ff0000","stroke-width":1,"SSA Name":"Active"}},{"type":"Feature","geometry":{"type":"Polygon","coordinates":[[[-87.680974,42.018994],[-87.677634,42.01924],[-87.677637,42.018899],[-87.676945,42.018893],[-87.677043,42.019319],[-87.67667,42.019321],[-87.676341,42.017898],[-87.675691,42.017887],[-87.675407,42.017094],[-87.673204,42.017577],[-87.673202,42.017009],[-87.671573,42.017779],[-87.669745,42.01626],[-87.670173,42.016253],[-87.669926,42.015497],[-87.669847,42.01591],[-87.669333,42.015919],[-87.666144,42.012783],[-87.666882,42.014024],[-87.668104,42.015148],[-87.668121,42.015527],[-87.667634,42.015536],[-87.667652,42.016059],[-87.668263,42.016047],[-87.668281,42.016569],[-87.669648,42.016426],[-87.671014,42.017557],[-87.671017,42.018043],[-87.67076,42.018799],[-87.669643,42.019064],[-87.669556,42.018742],[-87.668926,42.019041],[-87.668238,42.018956],[-87.668231,42.018696],[-87.665881,42.018729],[-87.666116,42.019508],[-87.66754,42.0197],[-87.668245,42.019365],[-87.668246,42.019833],[-87.670111,42.019984],[-87.670135,42.020534],[-87.670848,42.020539],[-87.670855,42.019891],[-87.672503,42.019819],[-87.672492,42.02109],[-87.67369,42.021097],[-87.673702,42.019861],[-87.67311,42.019385],[-87.684653,42.019485],[-87.684605,42.019113],[-87.683873,42.019106],[-87.683838,42.018746],[-87.680974,42.018994]]]},"properties":{"name":"Howard Street","description":"SSA#19","styleUrl":"#poly-FF0000-1000-0","fill-opacity":0,"fill":"#ff0000","stroke-opacity":1,"stroke":"#ff0000","stroke-width":1,"SSA Name":"Active"}},{"type":"Feature","geometry":{"type":"Polygon","coordinates":[[[-87.606033,41.758009],[-87.605881,41.751665],[-87.614969,41.751576],[-87.616366,41.751451],[-87.616358,41.75109],[-87.617966,41.751062],[-87.618163,41.751448],[-87.618833,41.7516],[-87.619779,41.751431],[-87.619757,41.750591],[-87.615771,41.750719],[-87.61575,41.750115],[-87.614907,41.750128],[-87.614923,41.75066],[-87.605829,41.750821],[-87.605638,41.743962],[-87.606116,41.743383],[-87.60609,41.742472],[-87.606027,41.74217],[-87.605166,41.742176],[-87.605113,41.740317],[-87.606769,41.740302],[-87.606755,41.739832],[-87.607811,41.739816],[-87.607384,41.736703],[-87.608548,41.736686],[-87.608535,41.736158],[-87.605481,41.736183],[-87.605448,41.734816],[-87.604778,41.734825],[-87.604757,41.733913],[-87.605428,41.733904],[-87.605299,41.728432],[-87.604626,41.728445],[-87.604607,41.727531],[-87.60528,41.72752],[-87.605154,41.723737],[-87.604699,41.723667],[-87.604673,41.722593],[-87.60512,41.722702],[-87.605105,41.721907],[-87.598988,41.722],[-87.598976,41.721637],[-87.594779,41.721702],[-87.594793,41.722201],[-87.585125,41.722345],[-87.585137,41.722949],[-87.58704,41.72292],[-87.586752,41.722458],[-87.587194,41.722451],[-87.588134,41.722904],[-87.603143,41.722813],[-87.603312,41.722073],[-87.604058,41.722062],[-87.603862,41.72292],[-87.604317,41.723008],[-87.604334,41.723704],[-87.603577,41.72417],[-87.603861,41.724363],[-87.603939,41.727543],[-87.603643,41.728887],[-87.603877,41.728885],[-87.604048,41.736203],[-87.603378,41.736214],[-87.603387,41.736578],[-87.601295,41.736607],[-87.601314,41.737082],[-87.604224,41.737075],[-87.604563,41.750822],[-87.597906,41.750822],[-87.597924,41.751755],[-87.60095,41.751778],[-87.600944,41.751518],[-87.601549,41.751511],[-87.601556,41.751786],[-87.604581,41.751686],[-87.604743,41.75812],[-87.602926,41.758137],[-87.602949,41.759086],[-87.619934,41.7587],[-87.61992,41.757955],[-87.606033,41.758009]]]},"properties":{"name":"Chatham","description":"SSA#51","styleUrl":"#poly-FF0000-1000-0","fill-opacity":0,"fill":"#ff0000","stroke-opacity":1,"stroke":"#ff0000","stroke-width":1,"SSA Name":"Active"}},{"type":"Feature","geometry":{"type":"Polygon","coordinates":[[[-87.691757,41.97587],[-87.693232,41.97586],[-87.693147,41.974844],[-87.69286,41.974849],[-87.692029,41.972979],[-87.69234,41.972973],[-87.692244,41.972302],[-87.691422,41.972299],[-87.69059,41.9708],[-87.690314,41.970803],[-87.68959,41.969125],[-87.693812,41.969007],[-87.693955,41.969667],[-87.693933,41.969004],[-87.694914,41.968997],[-87.694935,41.969658],[-87.695178,41.969657],[-87.695157,41.968995],[-87.696215,41.968986],[-87.696237,41.969648],[-87.697039,41.969641],[-87.697017,41.96898],[-87.699345,41.968961],[-87.699354,41.968092],[-87.68947,41.968171],[-87.689414,41.966301],[-87.693223,41.96627],[-87.693238,41.966749],[-87.69423,41.966741],[-87.694216,41.966261],[-87.698275,41.966278],[-87.694213,41.966158],[-87.6942,41.965696],[-87.693208,41.965705],[-87.69322,41.966166],[-87.68941,41.966196],[-87.689276,41.961742],[-87.694262,41.96171],[-87.69425,41.961277],[-87.683824,41.961378],[-87.68389,41.963201],[-87.684483,41.963197],[-87.687613,41.968183],[-87.684535,41.968228],[-87.684032,41.96838],[-87.684056,41.969132],[-87.687704,41.969077],[-87.687714,41.969344],[-87.68835,41.969336],[-87.688387,41.97043],[-87.688965,41.970412],[-87.688983,41.970952],[-87.689586,41.970945],[-87.690006,41.971849],[-87.68984,41.972193],[-87.690364,41.972185],[-87.690923,41.972997],[-87.69094,41.973526],[-87.691479,41.974145],[-87.691757,41.97587]],[[-87.687934,41.966339],[-87.688255,41.966225],[-87.688162,41.963144],[-87.685742,41.963179],[-87.686334,41.964023],[-87.686361,41.964907],[-87.686839,41.9649],[-87.6872,41.96573],[-87.687934,41.966339]]]},"properties":{"name":"Lincoln Square","description":"SSA#21-2016","styleUrl":"#poly-FF0000-1000-0","fill-opacity":0,"fill":"#ff0000","stroke-opacity":1,"stroke":"#ff0000","stroke-width":1,"SSA Name":"Active"}},{"type":"Feature","geometry":{"type":"Polygon","coordinates":[[[-87.674729,41.983392],[-87.67497,41.983388],[-87.674675,41.972365],[-87.675409,41.972354],[-87.675595,41.969231],[-87.676932,41.969312],[-87.676971,41.970514],[-87.677004,41.969279],[-87.678422,41.969254],[-87.678509,41.972416],[-87.679889,41.97239],[-87.679884,41.972161],[-87.679289,41.972171],[-87.67927,41.970573],[-87.679898,41.970563],[-87.679852,41.969005],[-87.684058,41.969181],[-87.68391,41.968237],[-87.679174,41.968308],[-87.679119,41.966452],[-87.679725,41.966333],[-87.679577,41.966002],[-87.679108,41.966008],[-87.679095,41.965511],[-87.678387,41.965521],[-87.678416,41.966509],[-87.678793,41.966503],[-87.678809,41.96703],[-87.67843,41.967036],[-87.67847,41.968388],[-87.676903,41.968408],[-87.676882,41.967653],[-87.6754,41.96788],[-87.675334,41.965509],[-87.676117,41.9655],[-87.676107,41.96514],[-87.679084,41.965096],[-87.679029,41.963274],[-87.67683,41.963305],[-87.676878,41.964763],[-87.675318,41.964922],[-87.67523,41.961866],[-87.678211,41.96199],[-87.678204,41.96176],[-87.680606,41.961795],[-87.680596,41.961464],[-87.68036,41.961471],[-87.68035,41.961],[-87.675551,41.961224],[-87.675539,41.960829],[-87.675273,41.960833],[-87.675271,41.957422],[-87.674463,41.957433],[-87.674446,41.956865],[-87.674982,41.956857],[-87.674945,41.955238],[-87.67433,41.955245],[-87.674314,41.95468],[-87.674897,41.954672],[-87.67483,41.953183],[-87.675082,41.95318],[-87.675074,41.952848],[-87.674797,41.952852],[-87.674713,41.951386],[-87.675197,41.950646],[-87.674781,41.950651],[-87.674848,41.949791],[-87.675624,41.949656],[-87.674004,41.947325],[-87.673765,41.939628],[-87.673536,41.939631],[-87.673722,41.946927],[-87.673122,41.947045],[-87.673132,41.947387],[-87.6735,41.947384],[-87.673535,41.94875],[-87.673141,41.948851],[-87.673186,41.950585],[-87.673586,41.95058],[-87.673652,41.954224],[-87.66905,41.95432],[-87.669062,41.95471],[-87.670642,41.95493],[-87.672219,41.954747],[-87.672213,41.954512],[-87.673035,41.954646],[-87.673169,41.959349],[-87.673665,41.959342],[-87.673782,41.959814],[-87.673192,41.960078],[-87.673227,41.961289],[-87.671652,41.961237],[-87.671608,41.959736],[-87.670781,41.959748],[-87.670831,41.96135],[-87.66584,41.961193],[-87.665954,41.961635],[-87.665417,41.96164],[-87.665648,41.963201],[-87.666348,41.96345],[-87.665742,41.963549],[-87.666896,41.969009],[-87.667385,41.969002],[-87.667707,41.971852],[-87.668779,41.971864],[-87.668704,41.969135],[-87.670514,41.969366],[-87.670506,41.969119],[-87.67336,41.969055],[-87.673391,41.970154],[-87.674371,41.970143],[-87.674729,41.983392]],[[-87.669581,41.968768],[-87.670181,41.968462],[-87.673345,41.968545],[-87.673337,41.965407],[-87.672517,41.965419],[-87.6725,41.964829],[-87.673321,41.964814],[-87.673286,41.963465],[-87.673547,41.963241],[-87.673277,41.96313],[-87.673243,41.961818],[-87.669273,41.962076],[-87.669267,41.961815],[-87.666982,41.961885],[-87.667063,41.965155],[-87.667917,41.965363],[-87.668004,41.967148],[-87.66921,41.967131],[-87.667892,41.967188],[-87.667908,41.967813],[-87.669226,41.967793],[-87.668747,41.967895],[-87.668818,41.968367],[-87.669571,41.968352],[-87.669581,41.968768]]]},"properties":{"name":"Greater Ravenswood","description":"SSA#31","styleUrl":"#poly-FF0000-1000-0","fill-opacity":0,"fill":"#ff0000","stroke-opacity":1,"stroke":"#ff0000","stroke-width":1,"SSA Name":"Active"}},{"type":"Feature","geometry":{"type":"Polygon","coordinates":[[[-87.666119,41.998496],[-87.665944,41.99786],[-87.661214,41.997816],[-87.660808,41.98475],[-87.661263,41.984749],[-87.661256,41.984233],[-87.661669,41.984047],[-87.661175,41.984006],[-87.660768,41.983525],[-87.660511,41.976403],[-87.658777,41.976429],[-87.658574,41.969031],[-87.658353,41.969034],[-87.658594,41.977803],[-87.657975,41.977813],[-87.657983,41.978087],[-87.658602,41.978078],[-87.658744,41.983257],[-87.657326,41.983032],[-87.657333,41.983306],[-87.656728,41.983316],[-87.656748,41.984046],[-87.658711,41.984152],[-87.658859,41.988898],[-87.658302,41.988907],[-87.658344,41.990285],[-87.658958,41.990278],[-87.659081,41.994202],[-87.657063,41.994208],[-87.657103,41.995503],[-87.657709,41.995496],[-87.657692,41.994947],[-87.659104,41.99493],[-87.659206,41.998206],[-87.661968,41.998175],[-87.661982,41.998538],[-87.666119,41.998496]]]},"properties":{"name":"Edgewater","description":"SSA#26","styleUrl":"#poly-FF0000-1000-0","fill-opacity":0,"fill":"#ff0000","stroke-opacity":1,"stroke":"#ff0000","stroke-width":1,"SSA Name":"Active"}},{"type":"Feature","geometry":{"type":"Polygon","coordinates":[[[-87.684535,41.901239],[-87.682098,41.901284],[-87.682129,41.902636],[-87.674806,41.902746],[-87.674781,41.901829],[-87.673554,41.901849],[-87.67358,41.902691],[-87.673055,41.902892],[-87.666625,41.90288],[-87.665969,41.902467],[-87.665597,41.902792],[-87.666479,41.903366],[-87.660525,41.90346],[-87.660547,41.904011],[-87.66262,41.903786],[-87.664487,41.904046],[-87.666165,41.903724],[-87.666888,41.904176],[-87.667102,41.910294],[-87.665245,41.910252],[-87.665229,41.909751],[-87.664833,41.909463],[-87.665223,41.909463],[-87.665202,41.908844],[-87.662779,41.908716],[-87.662835,41.910703],[-87.664371,41.910679],[-87.66544,41.912348],[-87.665443,41.911989],[-87.66604,41.911981],[-87.666019,41.911116],[-87.667142,41.911071],[-87.667433,41.912453],[-87.667202,41.912458],[-87.667188,41.913215],[-87.666931,41.913217],[-87.667237,41.914197],[-87.666562,41.914205],[-87.668627,41.916983],[-87.668735,41.916542],[-87.669522,41.916529],[-87.669511,41.916085],[-87.66786,41.916115],[-87.667845,41.915623],[-87.668413,41.91562],[-87.66839,41.91476],[-87.669024,41.91475],[-87.669001,41.913855],[-87.668418,41.913862],[-87.668276,41.912851],[-87.668265,41.912447],[-87.66896,41.912437],[-87.668922,41.911046],[-87.67691,41.910802],[-87.677125,41.912315],[-87.676854,41.912319],[-87.676884,41.913779],[-87.677238,41.913773],[-87.677244,41.914244],[-87.676335,41.914234],[-87.676349,41.915087],[-87.676953,41.915076],[-87.676963,41.915474],[-87.67736,41.915466],[-87.677369,41.915946],[-87.67684,41.915954],[-87.676969,41.917771],[-87.67732,41.917763],[-87.677088,41.91911],[-87.677457,41.919106],[-87.677401,41.920065],[-87.677123,41.920069],[-87.677208,41.922337],[-87.677801,41.922675],[-87.678389,41.922646],[-87.678357,41.921822],[-87.677979,41.921828],[-87.677957,41.921388],[-87.678242,41.921384],[-87.678045,41.914707],[-87.678414,41.9147],[-87.678408,41.914329],[-87.677546,41.914273],[-87.677538,41.913827],[-87.679446,41.913801],[-87.679432,41.913038],[-87.67801,41.913066],[-87.677929,41.911168],[-87.681443,41.913435],[-87.681087,41.913736],[-87.681192,41.914049],[-87.682309,41.914021],[-87.687218,41.917203],[-87.686898,41.917542],[-87.687142,41.924551],[-87.686877,41.924554],[-87.686886,41.924909],[-87.688164,41.924895],[-87.688055,41.921221],[-87.688367,41.921218],[-87.688349,41.92068],[-87.68859,41.920665],[-87.688582,41.920406],[-87.688123,41.92041],[-87.688047,41.919548],[-87.68838,41.919546],[-87.688363,41.919025],[-87.688024,41.919027],[-87.687986,41.917563],[-87.688578,41.917559],[-87.68782,41.917083],[-87.688137,41.916796],[-87.687393,41.916306],[-87.687934,41.916189],[-87.687848,41.91485],[-87.687637,41.914851],[-87.687879,41.91399],[-87.687322,41.913868],[-87.688532,41.913857],[-87.68852,41.913443],[-87.68788,41.913452],[-87.687786,41.910314],[-87.687219,41.910317],[-87.687006,41.902083],[-87.684565,41.90229],[-87.684535,41.901239]],[[-87.684565,41.90229],[-87.684567,41.902378],[-87.6845698,41.9024856],[-87.684565,41.90229]],[[-87.6725838,41.9108426],[-87.672568,41.910126],[-87.676089,41.910038],[-87.670005,41.906079],[-87.670031,41.906955],[-87.668084,41.906984],[-87.66817,41.910255],[-87.672565,41.910209],[-87.6725838,41.9108426]],[[-87.678731,41.910703],[-87.679686,41.911251],[-87.68006,41.911916],[-87.681304,41.911894],[-87.681355,41.912669],[-87.682416,41.913039],[-87.687163,41.915989],[-87.68716,41.915636],[-87.686398,41.915149],[-87.686967,41.915125],[-87.687039,41.914721],[-87.68677,41.913955],[-87.686495,41.91396],[-87.68648,41.913493],[-87.686727,41.913489],[-87.686651,41.910773],[-87.679504,41.910999],[-87.678857,41.910451],[-87.678412,41.910458],[-87.678731,41.910703]],[[-87.6845698,41.9024856],[-87.684596,41.903562],[-87.669847,41.903721],[-87.66986,41.904236],[-87.669325,41.904696],[-87.676913,41.909358],[-87.677299,41.908871],[-87.674603,41.907163],[-87.679073,41.90711],[-87.679106,41.908225],[-87.678078,41.908246],[-87.678127,41.909933],[-87.679139,41.909919],[-87.679166,41.910225],[-87.680637,41.91013],[-87.680648,41.909891],[-87.686624,41.909897],[-87.686544,41.907789],[-87.685938,41.907796],[-87.685919,41.907324],[-87.686531,41.907317],[-87.686429,41.90353],[-87.684598,41.903542],[-87.6845698,41.9024856]]]},"properties":{"name":"Wicker Park","description":"SSA#33","styleUrl":"#poly-FF0000-1000-0","fill-opacity":0,"fill":"#ff0000","stroke-opacity":1,"stroke":"#ff0000","stroke-width":1,"SSA Name":"Active"}},{"type":"Feature","geometry":{"type":"Polygon","coordinates":[[[-87.69474,41.820053],[-87.695446,41.820025],[-87.697112,41.818887],[-87.697727,41.818865],[-87.699536,41.81756],[-87.699522,41.81719],[-87.700773,41.817166],[-87.700762,41.816866],[-87.701736,41.816246],[-87.702275,41.816236],[-87.702339,41.815335],[-87.703287,41.815319],[-87.704351,41.814443],[-87.704865,41.814435],[-87.709133,41.811626],[-87.709575,41.811621],[-87.710004,41.811074],[-87.710731,41.810902],[-87.710723,41.810646],[-87.711361,41.81057],[-87.711348,41.810227],[-87.712578,41.810098],[-87.712558,41.80962],[-87.712855,41.809438],[-87.713673,41.809428],[-87.713249,41.809389],[-87.713653,41.808948],[-87.713348,41.808638],[-87.714548,41.807899],[-87.716105,41.807878],[-87.716085,41.807289],[-87.716849,41.807275],[-87.716839,41.806997],[-87.718727,41.8056],[-87.720624,41.804723],[-87.720883,41.804155],[-87.722825,41.803786],[-87.722927,41.807444],[-87.723388,41.807438],[-87.723408,41.808003],[-87.72294,41.807989],[-87.723042,41.811449],[-87.724362,41.811435],[-87.724066,41.802275],[-87.724768,41.802271],[-87.724757,41.801884],[-87.725738,41.801733],[-87.725708,41.800614],[-87.723187,41.800637],[-87.723238,41.802289],[-87.721005,41.803662],[-87.720693,41.803382],[-87.719733,41.803977],[-87.71994,41.804164],[-87.718457,41.804558],[-87.71617,41.806058],[-87.716184,41.806615],[-87.714215,41.80782],[-87.714129,41.804326],[-87.713711,41.804331],[-87.713798,41.808067],[-87.712254,41.80811],[-87.712281,41.808771],[-87.7109,41.809159],[-87.71092,41.809656],[-87.710229,41.809825],[-87.705976,41.812586],[-87.705247,41.812594],[-87.705264,41.813005],[-87.704836,41.813079],[-87.704603,41.808027],[-87.705844,41.808011],[-87.705793,41.805761],[-87.703778,41.805796],[-87.703745,41.804627],[-87.701311,41.804738],[-87.702533,41.80707],[-87.702608,41.808056],[-87.703842,41.808037],[-87.703859,41.808565],[-87.703342,41.808572],[-87.703515,41.813896],[-87.701874,41.814901],[-87.701888,41.815343],[-87.700433,41.815361],[-87.700451,41.815932],[-87.699252,41.81636],[-87.699265,41.816792],[-87.698733,41.8168],[-87.694659,41.819348],[-87.69474,41.820053]]]},"properties":{"name":"Brighton/Archer","description":"SSA#39","styleUrl":"#poly-FF0000-1000-0","fill-opacity":0,"fill":"#ff0000","stroke-opacity":1,"stroke":"#ff0000","stroke-width":1,"SSA Name":"Active"}},{"type":"Feature","geometry":{"type":"Polygon","coordinates":[[[-87.649438,41.951146],[-87.648935,41.949875],[-87.649434,41.949867],[-87.649426,41.949593],[-87.649059,41.949599],[-87.64797,41.947222],[-87.648438,41.947219],[-87.648387,41.946469],[-87.647482,41.946478],[-87.647234,41.945764],[-87.646896,41.945872],[-87.646404,41.945373],[-87.646399,41.944983],[-87.647109,41.944967],[-87.646961,41.944557],[-87.646463,41.944562],[-87.646309,41.944068],[-87.645599,41.944074],[-87.64528,41.943596],[-87.645566,41.9433],[-87.644782,41.942688],[-87.644749,41.941772],[-87.645743,41.941759],[-87.64583,41.941194],[-87.644707,41.941209],[-87.644681,41.940908],[-87.645088,41.940902],[-87.645097,41.940563],[-87.649159,41.940355],[-87.648885,41.940078],[-87.646723,41.940107],[-87.646698,41.939582],[-87.646521,41.939928],[-87.645416,41.939943],[-87.645408,41.939599],[-87.644963,41.939605],[-87.645192,41.938137],[-87.644826,41.938142],[-87.644759,41.937638],[-87.645239,41.937317],[-87.645111,41.936927],[-87.644782,41.936931],[-87.644706,41.934952],[-87.644763,41.934409],[-87.645818,41.934395],[-87.646114,41.935472],[-87.64662,41.935476],[-87.647409,41.936539],[-87.647412,41.936895],[-87.647115,41.936899],[-87.647273,41.937289],[-87.647995,41.937279],[-87.64864,41.937933],[-87.648653,41.938368],[-87.649092,41.938324],[-87.649103,41.938618],[-87.648645,41.938624],[-87.648621,41.939521],[-87.646939,41.93954],[-87.646948,41.939923],[-87.650749,41.93987],[-87.64998,41.93892],[-87.650367,41.938912],[-87.650079,41.938069],[-87.650407,41.938063],[-87.650386,41.93743],[-87.649301,41.937453],[-87.649287,41.937094],[-87.65029,41.937073],[-87.650245,41.936444],[-87.649263,41.936465],[-87.649708,41.936005],[-87.649626,41.933165],[-87.649429,41.932807],[-87.647791,41.932839],[-87.647804,41.933223],[-87.648391,41.933212],[-87.648646,41.935446],[-87.648636,41.936061],[-87.648134,41.93607],[-87.647184,41.934682],[-87.64646,41.934554],[-87.646666,41.93455],[-87.64663,41.933463],[-87.646172,41.933331],[-87.647239,41.933439],[-87.647548,41.932844],[-87.640193,41.932985],[-87.640206,41.933396],[-87.643428,41.933196],[-87.64344,41.933597],[-87.644184,41.93358],[-87.644108,41.934892],[-87.643649,41.9349],[-87.643996,41.937061],[-87.643664,41.938246],[-87.64406,41.939128],[-87.643761,41.939132],[-87.644026,41.940142],[-87.643612,41.940148],[-87.643625,41.940779],[-87.64396,41.940774],[-87.643853,41.941692],[-87.644316,41.941818],[-87.644167,41.94285],[-87.644506,41.943876],[-87.644891,41.943872],[-87.645338,41.94489],[-87.646087,41.945618],[-87.645717,41.945743],[-87.646021,41.946245],[-87.645627,41.946681],[-87.646007,41.947309],[-87.646937,41.947362],[-87.647796,41.949254],[-87.648276,41.949561],[-87.647862,41.95004],[-87.648652,41.951344],[-87.649438,41.951146]]]},"properties":{"name":"Lake View East","description":"SSA# 8","styleUrl":"#poly-FF0000-1000-0","fill-opacity":0,"fill":"#ff0000","stroke-opacity":1,"stroke":"#ff0000","stroke-width":1,"SSA Name":"Active"}},{"type":"Feature","geometry":{"type":"Polygon","coordinates":[[[-87.728718,41.895319],[-87.728665,41.893418],[-87.727278,41.892546],[-87.726004,41.892571],[-87.726041,41.893924],[-87.725401,41.89393],[-87.725429,41.894921],[-87.707766,41.895095],[-87.70775,41.894635],[-87.707169,41.894641],[-87.70715,41.894123],[-87.706513,41.894119],[-87.70587,41.894174],[-87.705895,41.895089],[-87.705313,41.895089],[-87.704723,41.894925],[-87.70471,41.894527],[-87.704062,41.894537],[-87.704087,41.895285],[-87.705326,41.895565],[-87.705533,41.896064],[-87.706574,41.896058],[-87.706552,41.895559],[-87.708851,41.895531],[-87.708897,41.897021],[-87.709955,41.896986],[-87.709923,41.896018],[-87.726096,41.895871],[-87.726745,41.895837],[-87.726741,41.895357],[-87.728718,41.895319]]]},"properties":{"name":"West Humboldt Park","description":"SSA#63","styleUrl":"#poly-FF0000-1000-0","fill-opacity":0,"fill":"#ff0000","stroke-opacity":1,"stroke":"#ff0000","stroke-width":1,"SSA Name":"Active"}},{"type":"Feature","geometry":{"type":"Polygon","coordinates":[[[-87.68646,41.896235],[-87.686644,41.895257],[-87.678137,41.895522],[-87.678129,41.895249],[-87.677775,41.895256],[-87.677783,41.895528],[-87.677341,41.895536],[-87.677214,41.894174],[-87.676797,41.89418],[-87.676745,41.89542],[-87.661492,41.895779],[-87.661477,41.895186],[-87.660878,41.895193],[-87.660875,41.895789],[-87.659026,41.895819],[-87.658404,41.895631],[-87.658393,41.895232],[-87.658025,41.89524],[-87.658042,41.895836],[-87.656043,41.895767],[-87.656033,41.895408],[-87.65523,41.894884],[-87.654919,41.895182],[-87.653685,41.894848],[-87.65367,41.894297],[-87.653013,41.894304],[-87.652999,41.89378],[-87.651922,41.893657],[-87.651919,41.893434],[-87.650866,41.893445],[-87.650828,41.89388],[-87.651212,41.893875],[-87.651217,41.894179],[-87.652341,41.894924],[-87.653286,41.89513],[-87.65347,41.895873],[-87.647841,41.895966],[-87.648324,41.896487],[-87.649272,41.896773],[-87.650969,41.896721],[-87.650959,41.896481],[-87.651338,41.896763],[-87.653492,41.896664],[-87.653503,41.897055],[-87.654207,41.897047],[-87.655119,41.896637],[-87.656688,41.897221],[-87.656704,41.897724],[-87.65744,41.897667],[-87.657704,41.898298],[-87.658687,41.898536],[-87.658701,41.898944],[-87.659955,41.899739],[-87.660638,41.899728],[-87.66161,41.900878],[-87.661315,41.901129],[-87.661798,41.901473],[-87.662563,41.90146],[-87.664479,41.902719],[-87.663183,41.902939],[-87.663171,41.902528],[-87.661819,41.902426],[-87.661845,41.903304],[-87.66608,41.903235],[-87.660912,41.899905],[-87.66158,41.899893],[-87.661552,41.899362],[-87.66006,41.89899],[-87.660038,41.898499],[-87.6591,41.897932],[-87.658485,41.897942],[-87.658032,41.897286],[-87.657428,41.897295],[-87.65741,41.896771],[-87.656874,41.896658],[-87.659853,41.896688],[-87.659889,41.897919],[-87.662579,41.897874],[-87.662541,41.896539],[-87.66678,41.896536],[-87.667062,41.901442],[-87.666754,41.902835],[-87.667666,41.902871],[-87.668076,41.902864],[-87.667988,41.899788],[-87.668511,41.899779],[-87.668478,41.898621],[-87.667955,41.89863],[-87.667895,41.896538],[-87.68646,41.896235]]]},"properties":{"name":"West Town-2014","description":"SSA#29","styleUrl":"#poly-FF0000-1000-0","fill-opacity":0,"fill":"#ff0000","stroke-opacity":1,"stroke":"#ff0000","stroke-width":1,"SSA Name":"Active"}},{"type":"Feature","geometry":{"type":"Polygon","coordinates":[[[-87.663509,41.730259],[-87.66335,41.723483],[-87.664551,41.723455],[-87.664278,41.722914],[-87.664667,41.722909],[-87.663802,41.721198],[-87.664317,41.721191],[-87.66382,41.720127],[-87.662987,41.72036],[-87.662655,41.719704],[-87.662696,41.721213],[-87.661465,41.721229],[-87.661476,41.721696],[-87.66205,41.72168],[-87.662313,41.73208],[-87.661746,41.732249],[-87.662323,41.732316],[-87.662412,41.735169],[-87.661833,41.73526],[-87.661849,41.735809],[-87.662555,41.735799],[-87.662353,41.739445],[-87.662783,41.748457],[-87.664001,41.74844],[-87.663687,41.736285],[-87.66379,41.735781],[-87.664279,41.735774],[-87.66427,41.73544],[-87.663235,41.735286],[-87.663212,41.734516],[-87.663637,41.734511],[-87.663579,41.732563],[-87.66297,41.731992],[-87.663563,41.731865],[-87.663509,41.730259]]]},"properties":{"name":"95th/Ashland","description":"SSA#69","styleUrl":"#poly-FF0000-1000-0","fill-opacity":0,"fill":"#ff0000","stroke-opacity":1,"stroke":"#ff0000","stroke-width":1,"SSA Name":"Active"}},{"type":"Feature","geometry":{"type":"Polygon","coordinates":[[[-87.687625,41.945008],[-87.687907,41.953375],[-87.686139,41.953572],[-87.68615,41.953917],[-87.685897,41.953577],[-87.684173,41.953557],[-87.684152,41.952915],[-87.683697,41.952921],[-87.683721,41.953606],[-87.67932,41.95367],[-87.679295,41.952758],[-87.678064,41.952433],[-87.67805,41.951907],[-87.677305,41.95153],[-87.676959,41.950623],[-87.676444,41.950629],[-87.6761,41.950139],[-87.676074,41.949199],[-87.67543,41.948821],[-87.674581,41.947219],[-87.674086,41.947032],[-87.675766,41.949659],[-87.674848,41.949791],[-87.674873,41.95065],[-87.675805,41.950638],[-87.676155,41.951365],[-87.67647,41.95136],[-87.676676,41.95227],[-87.677107,41.952264],[-87.677379,41.953149],[-87.677681,41.953145],[-87.677783,41.953701],[-87.674976,41.953738],[-87.675043,41.95467],[-87.678192,41.954627],[-87.678202,41.955016],[-87.678904,41.955007],[-87.678936,41.95623],[-87.679542,41.956221],[-87.680181,41.956782],[-87.682477,41.960398],[-87.682899,41.960392],[-87.682754,41.960794],[-87.683114,41.961309],[-87.6837,41.961302],[-87.68367,41.96024],[-87.683319,41.959656],[-87.682902,41.959662],[-87.683093,41.958221],[-87.682276,41.958233],[-87.681795,41.957852],[-87.679712,41.954621],[-87.686173,41.954509],[-87.686211,41.955786],[-87.687942,41.955762],[-87.688103,41.961235],[-87.68926,41.961219],[-87.689056,41.954478],[-87.694144,41.95452],[-87.694237,41.953857],[-87.695441,41.952134],[-87.690875,41.952162],[-87.690921,41.953534],[-87.689088,41.953544],[-87.688979,41.950261],[-87.689597,41.950256],[-87.689551,41.948676],[-87.688903,41.948597],[-87.688844,41.946658],[-87.693117,41.946649],[-87.693042,41.943816],[-87.690825,41.943832],[-87.690518,41.940994],[-87.688611,41.941006],[-87.688569,41.939573],[-87.68823,41.939575],[-87.688393,41.944998],[-87.687625,41.945008]]]},"properties":{"name":"Northcenter","description":"SSA#38","styleUrl":"#poly-FF0000-1000-0","fill-opacity":0,"fill":"#ff0000","stroke-opacity":1,"stroke":"#ff0000","stroke-width":1,"SSA Name":"Active"}},{"type":"Feature","geometry":{"type":"Polygon","coordinates":[[[-87.65856,41.832448],[-87.659955,41.831785],[-87.660687,41.832384],[-87.664344,41.832358],[-87.664309,41.830972],[-87.664913,41.830965],[-87.6649,41.830511],[-87.665568,41.830501],[-87.665218,41.81897],[-87.664011,41.818917],[-87.663996,41.81831],[-87.665059,41.818296],[-87.665002,41.815915],[-87.664303,41.815798],[-87.664472,41.814665],[-87.664935,41.814658],[-87.664919,41.813978],[-87.664403,41.813983],[-87.664419,41.812214],[-87.660268,41.812244],[-87.660129,41.809678],[-87.658674,41.808688],[-87.659631,41.808675],[-87.659626,41.808233],[-87.657661,41.808244],[-87.657672,41.808699],[-87.656167,41.808722],[-87.656155,41.808286],[-87.655987,41.808631],[-87.65589,41.808289],[-87.655538,41.808294],[-87.655459,41.808638],[-87.654732,41.806918],[-87.652776,41.806943],[-87.653096,41.807845],[-87.652673,41.807851],[-87.652685,41.808305],[-87.650384,41.808338],[-87.650293,41.80474],[-87.645423,41.804784],[-87.645507,41.807949],[-87.646137,41.807936],[-87.646147,41.808388],[-87.646544,41.808405],[-87.646547,41.808863],[-87.645538,41.808864],[-87.645801,41.818962],[-87.640941,41.818989],[-87.640988,41.820779],[-87.638543,41.820809],[-87.63852,41.819925],[-87.636222,41.819975],[-87.63569,41.809046],[-87.635954,41.819058],[-87.631269,41.819131],[-87.6313,41.821756],[-87.62946,41.821963],[-87.633188,41.821907],[-87.633237,41.823623],[-87.645928,41.823459],[-87.645984,41.825558],[-87.650834,41.825499],[-87.650968,41.830685],[-87.657385,41.8306],[-87.65743,41.831197],[-87.65856,41.832448]],[[-87.653481,41.808318],[-87.65349,41.808661],[-87.653685,41.808662],[-87.653481,41.808318]],[[-87.653763,41.808543],[-87.653957,41.808657],[-87.653939,41.808318],[-87.653763,41.808543]]]},"properties":{"name":"Stockyards","description":"SSA#13","styleUrl":"#poly-FF0000-1000-0","fill-opacity":0,"fill":"#ff0000","stroke-opacity":1,"stroke":"#ff0000","stroke-width":1,"SSA Name":"Active"}},{"type":"Feature","geometry":{"type":"Polygon","coordinates":[[[-87.669049,41.987147],[-87.669856,41.987139],[-87.669824,41.983731],[-87.669254,41.983735],[-87.669243,41.983485],[-87.669479,41.983482],[-87.669284,41.98305],[-87.669828,41.983042],[-87.669781,41.98136],[-87.669095,41.98137],[-87.669076,41.980437],[-87.668719,41.979928],[-87.669739,41.97982],[-87.66915,41.97965],[-87.669053,41.97618],[-87.669435,41.976175],[-87.669427,41.97586],[-87.669056,41.975864],[-87.668968,41.974347],[-87.668748,41.973446],[-87.668515,41.973443],[-87.668849,41.973203],[-87.668783,41.971864],[-87.667188,41.971861],[-87.66729,41.972647],[-87.667583,41.972642],[-87.667305,41.973049],[-87.667605,41.973594],[-87.667758,41.976866],[-87.668063,41.976872],[-87.667739,41.97702],[-87.667641,41.979765],[-87.667863,41.982566],[-87.665681,41.982687],[-87.668009,41.98265],[-87.669049,41.987147]]]},"properties":{"name":"Andersonville-Clark St","description":"SSA#22","styleUrl":"#poly-FF0000-1000-0","fill-opacity":0,"fill":"#ff0000","stroke-opacity":1,"stroke":"#ff0000","stroke-width":1,"SSA Name":"Active"}},{"type":"Feature","geometry":{"type":"Polygon","coordinates":[[[-87.5961877,41.7575975],[-87.596024,41.757266],[-87.597293,41.751698],[-87.597306,41.752257],[-87.597937,41.752268],[-87.597906,41.750904],[-87.597472,41.75091],[-87.600715,41.736705],[-87.597555,41.736749],[-87.59751,41.734927],[-87.594871,41.734956],[-87.592502,41.730524],[-87.592263,41.730505],[-87.592709,41.731258],[-87.591813,41.731271],[-87.589645,41.728224],[-87.588728,41.726679],[-87.588255,41.724818],[-87.588634,41.725851],[-87.591091,41.725813],[-87.589665,41.723419],[-87.588783,41.723306],[-87.594816,41.723216],[-87.594806,41.722804],[-87.585137,41.722949],[-87.585125,41.722345],[-87.575353,41.722468],[-87.575382,41.723621],[-87.583186,41.723522],[-87.583222,41.725103],[-87.584291,41.725089],[-87.584132,41.727824],[-87.584398,41.728729],[-87.584578,41.736033],[-87.584131,41.736039],[-87.584141,41.736488],[-87.575709,41.7366],[-87.575631,41.733407],[-87.574416,41.733424],[-87.574464,41.735248],[-87.573248,41.735265],[-87.573284,41.736637],[-87.568171,41.736709],[-87.567664,41.737091],[-87.567839,41.737216],[-87.566753,41.737195],[-87.580556,41.747122],[-87.580045,41.747519],[-87.579985,41.748633],[-87.581618,41.748771],[-87.581632,41.749359],[-87.583463,41.750656],[-87.583491,41.751057],[-87.571094,41.751213],[-87.57111,41.752108],[-87.574775,41.752073],[-87.574782,41.752428],[-87.576004,41.752582],[-87.575991,41.751993],[-87.585763,41.75187],[-87.585753,41.751481],[-87.586593,41.751472],[-87.590501,41.754284],[-87.58955,41.75505],[-87.590095,41.75545],[-87.590121,41.755849],[-87.590668,41.755844],[-87.592038,41.756893],[-87.59255,41.756887],[-87.592602,41.75763],[-87.594189,41.758215],[-87.594201,41.758686],[-87.594962,41.75868],[-87.595195,41.757652],[-87.605582,41.765125],[-87.605563,41.764353],[-87.5961877,41.7575975]],[[-87.590587,41.752996],[-87.588449,41.751453],[-87.587633,41.751462],[-87.590989,41.753874],[-87.591373,41.753561],[-87.590587,41.752996]],[[-87.596408,41.751868],[-87.596168,41.752307],[-87.595511,41.752295],[-87.595494,41.751574],[-87.594279,41.751656],[-87.594285,41.751928],[-87.591843,41.751863],[-87.591877,41.75324],[-87.593172,41.754094],[-87.593722,41.754088],[-87.595345,41.756994],[-87.596408,41.751868]],[[-87.584778,41.746036],[-87.584579,41.737388],[-87.579699,41.737403],[-87.579364,41.737156],[-87.576338,41.737547],[-87.574519,41.737347],[-87.574545,41.738891],[-87.572111,41.738924],[-87.572122,41.739542],[-87.571299,41.738934],[-87.570246,41.738946],[-87.584437,41.749144],[-87.584993,41.748711],[-87.584568,41.748407],[-87.584824,41.74821],[-87.584784,41.746326],[-87.585062,41.746323],[-87.584778,41.746036]],[[-87.593376,41.734564],[-87.588324,41.726037],[-87.587484,41.72396],[-87.587171,41.72405],[-87.587285,41.723328],[-87.586627,41.724149],[-87.585612,41.724158],[-87.585623,41.724618],[-87.58603,41.724613],[-87.586047,41.725524],[-87.585731,41.725533],[-87.585741,41.725983],[-87.587061,41.725967],[-87.587071,41.726425],[-87.586068,41.72644],[-87.586154,41.729618],[-87.586769,41.729761],[-87.586786,41.730696],[-87.586181,41.730704],[-87.5863,41.736449],[-87.594426,41.736336],[-87.593376,41.734564]],[[-87.591254,41.751249],[-87.593039,41.750847],[-87.595484,41.75118],[-87.596504,41.750906],[-87.598305,41.74404],[-87.599371,41.738513],[-87.599082,41.738474],[-87.599215,41.737918],[-87.598552,41.737831],[-87.598487,41.738776],[-87.597712,41.738755],[-87.597754,41.740485],[-87.59558,41.736777],[-87.595183,41.736783],[-87.595726,41.737696],[-87.593502,41.737241],[-87.586289,41.73736],[-87.586577,41.749655],[-87.586141,41.749659],[-87.588245,41.751198],[-87.591254,41.751249]]]},"properties":{"name":"Calumet Hts/Avalon","description":"SSA#50","styleUrl":"#poly-FF0000-1000-0","fill-opacity":0,"fill":"#ff0000","stroke-opacity":1,"stroke":"#ff0000","stroke-width":1,"SSA Name":"Active"}},{"type":"Feature","geometry":{"type":"Polygon","coordinates":[[[-87.739083,41.881215],[-87.740148,41.881202],[-87.740116,41.879682],[-87.739445,41.879689],[-87.739457,41.880067],[-87.735766,41.880109],[-87.735752,41.879731],[-87.73523,41.879738],[-87.735244,41.880116],[-87.725963,41.880225],[-87.72579,41.875175],[-87.726066,41.875171],[-87.726053,41.874787],[-87.726604,41.874779],[-87.726593,41.874437],[-87.724968,41.874459],[-87.72504,41.876662],[-87.724321,41.876671],[-87.724332,41.877013],[-87.723892,41.877018],[-87.723906,41.877532],[-87.724636,41.877523],[-87.724652,41.877898],[-87.724996,41.877894],[-87.724963,41.880282],[-87.720925,41.880265],[-87.720778,41.880897],[-87.720791,41.881811],[-87.72093,41.881239],[-87.721317,41.881234],[-87.723258,41.88127],[-87.723272,41.881782],[-87.724484,41.881767],[-87.724515,41.882856],[-87.725152,41.882847],[-87.725213,41.885013],[-87.725928,41.885602],[-87.725942,41.886098],[-87.726628,41.886137],[-87.726681,41.885645],[-87.72607,41.88561],[-87.725994,41.885099],[-87.726356,41.884534],[-87.726113,41.882927],[-87.726679,41.88292],[-87.726673,41.882693],[-87.726158,41.8827],[-87.726097,41.881867],[-87.72757,41.881884],[-87.727554,41.88135],[-87.739083,41.881215]]]},"properties":{"name":"West Garfield Park","description":"SSA#77","styleUrl":"#poly-FF0000-1000-0","fill-opacity":0,"fill":"#ff0000","stroke-opacity":1,"stroke":"#ff0000","stroke-width":1,"SSA Name":"Active"}},{"type":"Feature","geometry":{"type":"Polygon","coordinates":[[[-87.727921,41.968678],[-87.727953,41.969818],[-87.729423,41.969512],[-87.729399,41.968705],[-87.739071,41.9686],[-87.739078,41.968847],[-87.73978,41.968839],[-87.739835,41.968591],[-87.74038,41.968775],[-87.740658,41.968533],[-87.741413,41.968998],[-87.74193,41.968569],[-87.74387,41.968547],[-87.743931,41.967575],[-87.74016,41.967633],[-87.740144,41.96713],[-87.739438,41.967027],[-87.73943,41.966749],[-87.739888,41.9667],[-87.738975,41.96671],[-87.738479,41.966213],[-87.737868,41.96622],[-87.737857,41.965833],[-87.736364,41.964863],[-87.735894,41.964869],[-87.735637,41.964368],[-87.731118,41.961265],[-87.731429,41.961016],[-87.732043,41.961437],[-87.732158,41.961098],[-87.732855,41.96109],[-87.732828,41.960533],[-87.729565,41.960433],[-87.729555,41.960102],[-87.727993,41.959027],[-87.727045,41.958432],[-87.726408,41.95844],[-87.726434,41.959365],[-87.727154,41.959857],[-87.727172,41.960479],[-87.726368,41.960489],[-87.726382,41.961057],[-87.727706,41.96104],[-87.727803,41.964506],[-87.727284,41.964511],[-87.727382,41.967816],[-87.727896,41.967811],[-87.727921,41.968678]],[[-87.728673,41.967764],[-87.737064,41.96768],[-87.737764,41.967472],[-87.737748,41.966886],[-87.73723,41.966892],[-87.729165,41.961207],[-87.728467,41.96135],[-87.728673,41.967764]]]},"properties":{"name":"Lawrence/Pulaski/Elston","description":"SSA#79","styleUrl":"#poly-FF0000-1000-0","fill-opacity":0,"fill":"#ff0000","stroke-opacity":1,"stroke":"#ff0000","stroke-width":1,"SSA Name":"Active"}},{"type":"Feature","geometry":{"type":"Polygon","coordinates":[[[-87.716131,41.967939],[-87.713932,41.967963],[-87.713892,41.966668],[-87.713432,41.966673],[-87.713412,41.966006],[-87.709041,41.966042],[-87.7089,41.961615],[-87.717925,41.96154],[-87.717899,41.960659],[-87.708871,41.960678],[-87.708607,41.954396],[-87.717705,41.954249],[-87.717677,41.95331],[-87.698391,41.953453],[-87.698379,41.95453],[-87.707391,41.954412],[-87.707592,41.96076],[-87.705918,41.96092],[-87.701534,41.960588],[-87.698576,41.960859],[-87.698588,41.961246],[-87.695069,41.96127],[-87.69528,41.96173],[-87.707621,41.961648],[-87.70776,41.966052],[-87.69895,41.966125],[-87.707764,41.966157],[-87.707823,41.967983],[-87.700933,41.968094],[-87.701264,41.968422],[-87.702204,41.968414],[-87.703235,41.969604],[-87.703411,41.968924],[-87.707849,41.968937],[-87.707957,41.970706],[-87.708537,41.970701],[-87.708418,41.96654],[-87.709056,41.966534],[-87.709044,41.966146],[-87.711612,41.966126],[-87.711665,41.967824],[-87.709103,41.968014],[-87.709062,41.966715],[-87.708544,41.966719],[-87.708647,41.970181],[-87.709107,41.970176],[-87.709073,41.968926],[-87.727921,41.968678],[-87.727896,41.967811],[-87.716131,41.967939]]]},"properties":{"name":"Albany Park","description":"SSA#60","styleUrl":"#poly-FF0000-1000-0","fill-opacity":0,"fill":"#ff0000","stroke-opacity":1,"stroke":"#ff0000","stroke-width":1,"SSA Name":"Active"}},{"type":"Feature","geometry":{"type":"Polygon","coordinates":[[[-87.676362,42.017988],[-87.675541,42.012238],[-87.675144,42.012245],[-87.675007,42.011514],[-87.67552,42.011504],[-87.675505,42.011009],[-87.674972,42.01102],[-87.674925,42.010574],[-87.675489,42.010455],[-87.675442,42.008847],[-87.674784,42.008859],[-87.67395,42.00532],[-87.672041,42.000486],[-87.672076,41.999875],[-87.674968,41.999823],[-87.674958,41.999469],[-87.671621,41.999532],[-87.67135,41.998064],[-87.67056,41.998078],[-87.670993,41.999542],[-87.670551,41.999549],[-87.67046,42.000354],[-87.670956,42.000344],[-87.671005,42.001116],[-87.672691,42.00545],[-87.67295,42.006568],[-87.672556,42.006575],[-87.67269,42.007155],[-87.669227,42.00746],[-87.669219,42.007213],[-87.668262,42.00723],[-87.668272,42.007503],[-87.667988,42.007235],[-87.66648,42.007262],[-87.666201,42.006575],[-87.665925,42.00658],[-87.665868,42.005452],[-87.66555,42.005457],[-87.66566,42.007647],[-87.662224,42.007335],[-87.662636,42.008592],[-87.665249,42.008547],[-87.665757,42.010456],[-87.666051,42.010451],[-87.666025,42.009704],[-87.666559,42.009749],[-87.666409,42.008534],[-87.667549,42.008514],[-87.667724,42.008215],[-87.667733,42.008511],[-87.669262,42.008484],[-87.669254,42.008248],[-87.670188,42.008108],[-87.670796,42.008098],[-87.670808,42.008461],[-87.672976,42.008394],[-87.673554,42.011172],[-87.674045,42.011123],[-87.673967,42.011777],[-87.67366,42.011822],[-87.674403,42.013246],[-87.674461,42.016518],[-87.675108,42.016213],[-87.675603,42.017984],[-87.676362,42.017988]]]},"properties":{"name":"Clark St (Rogers Park)","description":"SSA#24","styleUrl":"#poly-FF0000-1000-0","fill-opacity":0,"fill":"#ff0000","stroke-opacity":1,"stroke":"#ff0000","stroke-width":1,"SSA Name":"Active"}},{"type":"Feature","geometry":{"type":"Polygon","coordinates":[[[-87.665093,41.788895],[-87.665038,41.787795],[-87.664426,41.787639],[-87.665079,41.787629],[-87.665069,41.787217],[-87.665916,41.787206],[-87.665906,41.786821],[-87.665015,41.786743],[-87.664829,41.778914],[-87.66322,41.779032],[-87.663226,41.779246],[-87.662976,41.779034],[-87.650447,41.779408],[-87.645375,41.779073],[-87.640855,41.779331],[-87.640847,41.779027],[-87.640336,41.779037],[-87.640347,41.779419],[-87.639891,41.779427],[-87.639945,41.78075],[-87.641535,41.78071],[-87.641517,41.779976],[-87.641969,41.780353],[-87.642928,41.780231],[-87.643496,41.781585],[-87.644187,41.781572],[-87.644214,41.782487],[-87.644857,41.782474],[-87.644786,41.779749],[-87.647333,41.779714],[-87.647334,41.780591],[-87.648315,41.780585],[-87.64905,41.780091],[-87.663614,41.779939],[-87.663867,41.7904],[-87.665127,41.790385],[-87.665093,41.788895]]]},"properties":{"name":"Englewood","description":"SSA#80","styleUrl":"#poly-FF0000-1000-0","fill-opacity":0,"fill":"#ff0000","stroke-opacity":1,"stroke":"#ff0000","stroke-width":1,"SSA Name":"Active"}},{"type":"Feature","geometry":{"type":"Polygon","coordinates":[[[-87.65018,41.952375],[-87.650096,41.951702],[-87.650747,41.951674],[-87.650908,41.95059],[-87.650686,41.950181],[-87.649568,41.950198],[-87.650206,41.950107],[-87.650184,41.948207],[-87.65072,41.948197],[-87.650697,41.947303],[-87.650115,41.94731],[-87.650028,41.94452],[-87.649781,41.944299],[-87.65002,41.944295],[-87.649993,41.942971],[-87.649724,41.942705],[-87.649986,41.942701],[-87.649978,41.941294],[-87.650602,41.941284],[-87.650063,41.940574],[-87.649406,41.940584],[-87.649729,41.940408],[-87.649575,41.940068],[-87.648883,41.940078],[-87.649163,41.94058],[-87.64861,41.940587],[-87.648626,41.941072],[-87.648863,41.94107],[-87.648574,41.942483],[-87.648822,41.944058],[-87.648381,41.944065],[-87.648395,41.944546],[-87.648839,41.944539],[-87.649097,41.946371],[-87.648786,41.946629],[-87.648806,41.947306],[-87.649119,41.947304],[-87.649134,41.94785],[-87.648314,41.947857],[-87.649057,41.949599],[-87.649424,41.949593],[-87.649432,41.949867],[-87.648932,41.949875],[-87.649458,41.950743],[-87.649217,41.950786],[-87.649436,41.951146],[-87.649105,41.95123],[-87.64895,41.954486],[-87.651417,41.954421],[-87.651407,41.954081],[-87.650871,41.95409],[-87.650255,41.953176],[-87.65018,41.952375]]]},"properties":{"name":"North Halsted","description":"SSA#18","styleUrl":"#poly-FF0000-1000-0","fill-opacity":0,"fill":"#ff0000","stroke-opacity":1,"stroke":"#ff0000","stroke-width":1,"SSA Name":"Active"}},{"type":"Feature","geometry":{"type":"Polygon","coordinates":[[[-87.66037,41.749988],[-87.654366,41.750072],[-87.65433,41.748667],[-87.653058,41.748688],[-87.653094,41.75002],[-87.644688,41.75019],[-87.644629,41.74881],[-87.644136,41.748816],[-87.642769,41.748842],[-87.642809,41.750258],[-87.639794,41.750198],[-87.643718,41.739578],[-87.643691,41.738635],[-87.63928,41.75056],[-87.639232,41.748888],[-87.638921,41.748879],[-87.638971,41.750632],[-87.638057,41.750261],[-87.635089,41.750211],[-87.635178,41.749793],[-87.634159,41.749813],[-87.634148,41.750314],[-87.625932,41.750448],[-87.62594,41.750928],[-87.626097,41.751402],[-87.627047,41.751388],[-87.627113,41.754552],[-87.629542,41.754508],[-87.629591,41.75633],[-87.63225,41.756288],[-87.633438,41.753772],[-87.634142,41.751152],[-87.638913,41.751108],[-87.633785,41.765374],[-87.634168,41.765368],[-87.639569,41.750804],[-87.639806,41.751119],[-87.64348,41.751061],[-87.643513,41.75246],[-87.644727,41.752451],[-87.644704,41.751529],[-87.64516,41.751523],[-87.645148,41.751054],[-87.662692,41.750837],[-87.662725,41.752185],[-87.664089,41.752167],[-87.664104,41.750773],[-87.673149,41.750659],[-87.673118,41.749756],[-87.66406,41.749874],[-87.664028,41.748524],[-87.662758,41.748537],[-87.662798,41.749954],[-87.66037,41.749988]]]},"properties":{"name":"Auburn Gresham/79th St","description":"SSA#32-2024","styleUrl":"#poly-FF0000-1000-0","fill-opacity":0,"fill":"#ff0000","stroke-opacity":1,"stroke":"#ff0000","stroke-width":1,"SSA Name":"Active"}},{"type":"Feature","geometry":{"type":"Polygon","coordinates":[[[-87.624161,41.900812],[-87.625152,41.900795],[-87.624791,41.899995],[-87.62619,41.899974],[-87.625951,41.899466],[-87.625397,41.899414],[-87.624885,41.898375],[-87.625104,41.898371],[-87.624976,41.897565],[-87.625976,41.89755],[-87.625505,41.896713],[-87.625448,41.894603],[-87.624763,41.894492],[-87.624734,41.893328],[-87.625414,41.893317],[-87.625332,41.890515],[-87.625028,41.89052],[-87.625014,41.890124],[-87.625309,41.890117],[-87.625291,41.889239],[-87.624065,41.889392],[-87.622297,41.889097],[-87.622652,41.890961],[-87.623231,41.89095],[-87.62337,41.891348],[-87.623337,41.89335],[-87.623775,41.893343],[-87.623786,41.893744],[-87.623216,41.893754],[-87.623455,41.895756],[-87.623143,41.895761],[-87.622934,41.896754],[-87.621724,41.896771],[-87.621861,41.898831],[-87.622379,41.898824],[-87.62239,41.899235],[-87.623062,41.899225],[-87.623081,41.900023],[-87.622462,41.900034],[-87.622477,41.90084],[-87.624161,41.900812]]]},"properties":{"name":"North Michigan Avenue","description":"SSA#76-2024","styleUrl":"#poly-FF0000-1000-0","fill-opacity":0,"fill":"#ff0000","stroke-opacity":1,"stroke":"#ff0000","stroke-width":1,"SSA Name":"Active"}},{"type":"Feature","geometry":{"type":"Polygon","coordinates":[[[-87.628524,41.743587],[-87.629383,41.743575],[-87.629416,41.744864],[-87.629494,41.744579],[-87.631712,41.74455],[-87.631688,41.743631],[-87.632577,41.743618],[-87.632596,41.744306],[-87.634129,41.744284],[-87.634108,41.743504],[-87.635938,41.744132],[-87.636211,41.743807],[-87.632742,41.736814],[-87.631716,41.735948],[-87.630797,41.735961],[-87.630777,41.735308],[-87.627984,41.733565],[-87.627857,41.734028],[-87.625797,41.731845],[-87.625455,41.731927],[-87.625746,41.743629],[-87.628524,41.743587]]]},"properties":{"name":"87th St Business Corridor","description":"SSA#81","styleUrl":"#poly-FF0000-1000-0","fill-opacity":0,"fill":"#ff0000","stroke-opacity":1,"stroke":"#ff0000","stroke-width":1,"SSA Name":"Active"}},{"type":"Feature","geometry":{"type":"Polygon","coordinates":[[[-87.631439,41.903742],[-87.631423,41.903137],[-87.629963,41.903155],[-87.629977,41.903664],[-87.629435,41.903669],[-87.62942,41.903161],[-87.628658,41.903171],[-87.628674,41.90369],[-87.6282,41.903696],[-87.627983,41.904226],[-87.630731,41.904473],[-87.631455,41.904269],[-87.631439,41.903742]]]},"properties":{"name":"Division/Dearborn","description":"SSA#82","styleUrl":"#poly-FF0000-1000-0","fill-opacity":0,"fill":"#ff0000","stroke-opacity":1,"stroke":"#ff0000","stroke-width":1,"SSA Name":"Active"}},{"type":"Feature","geometry":{"type":"Polygon","coordinates":[[[-87.65379,41.953593],[-87.653799,41.954028],[-87.651407,41.954059],[-87.65142,41.954536],[-87.655447,41.954481],[-87.65497,41.952659],[-87.654493,41.952666],[-87.654476,41.95213],[-87.653816,41.952142],[-87.653744,41.949379],[-87.6556,41.949213],[-87.655912,41.949516],[-87.6579,41.949529],[-87.658886,41.951053],[-87.659269,41.951048],[-87.659277,41.951682],[-87.659976,41.951517],[-87.660824,41.952582],[-87.661305,41.952574],[-87.659868,41.950524],[-87.659262,41.950533],[-87.659237,41.949596],[-87.658884,41.949603],[-87.658642,41.948976],[-87.658342,41.94898],[-87.658329,41.948503],[-87.657387,41.947401],[-87.657736,41.947174],[-87.657722,41.946706],[-87.657214,41.946717],[-87.657401,41.946253],[-87.656831,41.946722],[-87.654854,41.944468],[-87.654845,41.944014],[-87.656049,41.943995],[-87.654841,41.943867],[-87.654732,41.940315],[-87.658977,41.940205],[-87.658956,41.939474],[-87.654699,41.939483],[-87.654531,41.932625],[-87.649423,41.932717],[-87.64944,41.933168],[-87.653236,41.933103],[-87.65317,41.936665],[-87.653383,41.936661],[-87.653766,41.938935],[-87.653492,41.938941],[-87.653505,41.939373],[-87.651165,41.939398],[-87.65113,41.938991],[-87.64991,41.939007],[-87.650687,41.939961],[-87.649267,41.939982],[-87.649276,41.940274],[-87.649729,41.940395],[-87.649286,41.940585],[-87.650138,41.940573],[-87.651102,41.941778],[-87.651732,41.941769],[-87.651857,41.942674],[-87.652318,41.942655],[-87.65332,41.944037],[-87.653505,41.947117],[-87.653102,41.946889],[-87.650686,41.94695],[-87.650078,41.947026],[-87.650086,41.947314],[-87.65069,41.947303],[-87.650706,41.947791],[-87.653483,41.947711],[-87.653576,41.953596],[-87.65379,41.953593]],[[-87.6529,41.940337],[-87.651984,41.940557],[-87.652562,41.941302],[-87.65293,41.941297],[-87.6529,41.940337]],[[-87.65379,41.953593],[-87.65399,41.953128],[-87.653768,41.953131],[-87.65379,41.953593]]]},"properties":{"name":"CentLakeview/Wrigleyville","description":"SSA#17-2025","styleUrl":"#poly-FF0000-1000-0","fill-opacity":0,"fill":"#ff0000","stroke-opacity":1,"stroke":"#ff0000","stroke-width":1,"SSA Name":"Active"}},{"type":"Feature","geometry":{"type":"Polygon","coordinates":[[[-87.669623,41.93795],[-87.669246,41.937955],[-87.669202,41.936863],[-87.670868,41.936842],[-87.670775,41.934376],[-87.669533,41.934307],[-87.670752,41.933732],[-87.669052,41.933756],[-87.669036,41.932483],[-87.667759,41.932501],[-87.667977,41.93837],[-87.667263,41.937788],[-87.666292,41.937606],[-87.666272,41.937042],[-87.664758,41.936013],[-87.663808,41.936026],[-87.663781,41.935213],[-87.663182,41.935223],[-87.662414,41.93467],[-87.6624,41.934228],[-87.661262,41.934252],[-87.661204,41.932517],[-87.661128,41.933743],[-87.660821,41.933785],[-87.660546,41.932961],[-87.65951,41.932634],[-87.658839,41.932779],[-87.658854,41.933181],[-87.660079,41.934358],[-87.661148,41.934342],[-87.66096,41.939801],[-87.661355,41.938804],[-87.66129,41.934935],[-87.662004,41.935696],[-87.662852,41.935871],[-87.662863,41.936243],[-87.663371,41.936234],[-87.663597,41.936918],[-87.665109,41.93801],[-87.665873,41.937992],[-87.666078,41.938382],[-87.66611,41.939256],[-87.661292,41.939328],[-87.661181,41.939806],[-87.660928,41.939809],[-87.661047,41.939325],[-87.659074,41.939356],[-87.659101,41.940305],[-87.663167,41.940263],[-87.663582,41.947532],[-87.663379,41.947535],[-87.663515,41.952454],[-87.664495,41.95244],[-87.664484,41.952026],[-87.66495,41.95202],[-87.664941,41.951697],[-87.665659,41.951688],[-87.665631,41.950599],[-87.664765,41.950612],[-87.66447,41.940235],[-87.668097,41.940526],[-87.668227,41.947],[-87.669499,41.946982],[-87.669412,41.943759],[-87.669874,41.943697],[-87.669411,41.943704],[-87.669369,41.942169],[-87.669829,41.942164],[-87.66985,41.942846],[-87.670565,41.943227],[-87.670575,41.943618],[-87.67109,41.94361],[-87.671122,41.944712],[-87.671636,41.944705],[-87.671649,41.945217],[-87.672353,41.945343],[-87.672377,41.946174],[-87.672831,41.946168],[-87.672914,41.946828],[-87.673583,41.946819],[-87.67355,41.945712],[-87.673025,41.94536],[-87.672629,41.94411],[-87.672305,41.944114],[-87.671552,41.942824],[-87.671054,41.942831],[-87.671039,41.942177],[-87.670799,41.942112],[-87.671032,41.941861],[-87.670756,41.941864],[-87.670612,41.941013],[-87.669736,41.940681],[-87.669722,41.940156],[-87.673361,41.940246],[-87.673366,41.939151],[-87.671201,41.939181],[-87.671189,41.93875],[-87.670318,41.938764],[-87.670287,41.937942],[-87.669623,41.93795]]]},"properties":{"name":"West Lakeview","description":"SSA#27","styleUrl":"#poly-FF0000-1000-0","fill-opacity":0,"fill":"#ff0000","stroke-opacity":1,"stroke":"#ff0000","stroke-width":1,"SSA Name":"Active"}},{"type":"Feature","geometry":{"type":"Polygon","coordinates":[[[-87.760187,41.895372],[-87.765411,41.89525],[-87.765385,41.894538],[-87.746398,41.894491],[-87.746287,41.891376],[-87.745029,41.89162],[-87.745129,41.894506],[-87.743509,41.894544],[-87.743537,41.895538],[-87.745152,41.895511],[-87.745159,41.895963],[-87.746467,41.895945],[-87.746456,41.8955],[-87.758733,41.895381],[-87.758727,41.895139],[-87.760187,41.895372]]]},"properties":{"name":"Village:AustinChgoAvCCorr","description":"SSA#72","styleUrl":"#poly-FF0000-1000-0","fill-opacity":0,"fill":"#ff0000","stroke-opacity":1,"stroke":"#ff0000","stroke-width":1,"SSA Name":"Active"}}]}