{"type":"FeatureCollection","features":[{"type":"Feature","geometry":{"type":"Polygon","coordinates":[[[-87.61160818626499,41.77],[-87.6106387285368,41.7692984514037],[-87.6104014004331,41.7695161789969],[-87.61041351982861,41.77],[-87.61160818626499,41.77]]]},"properties":{"name":"West Woodlawn","description":"12/31/2034","fill-opacity":0,"stroke-opacity":1,"stroke":"#ff0000","District Name":"05/12/2010","Expiration Date":"6,20","Approval Date":"Existing"},"id":"Chicago_TIF_Districts.5"},{"type":"Feature","geometry":{"type":"MultiPolygon","coordinates":[[[[-87.615,41.75797859746497],[-87.6060377651347,41.7581264764461],[-87.6060637162683,41.7590157935172],[-87.607972226026,41.7589861368967],[-87.6079685046109,41.7588272262099],[-87.6101457233203,41.7589503026253],[-87.6149824246597,41.7588166280077],[-87.615,41.75797859746497]]],[[[-87.615,41.76534884511335],[-87.6122601665458,41.7655340260833],[-87.6122570827773,41.7653969020536],[-87.6115041861243,41.7654096276259],[-87.6115090588955,41.7656223965611],[-87.611055028665,41.7656303005548],[-87.6110501549302,41.7654177512843],[-87.609852212357,41.7655848057793],[-87.6093343537521,41.7655252306703],[-87.6093309840038,41.7653881047697],[-87.6085796984849,41.7654009311706],[-87.6073718645197,41.7655407795213],[-87.607849194434,41.7659281015236],[-87.6054173896702,41.765878808675],[-87.60550945996555,41.77],[-87.61041351982861,41.77],[-87.6103779388667,41.768541635152],[-87.61241251293939,41.77],[-87.6134573649275,41.77],[-87.6132730285636,41.7698678528684],[-87.6138000425006,41.7694591306195],[-87.615,41.76943652438316],[-87.615,41.76534884511335]]]]},"properties":{"name":"67th and Wentworth","description":"12/31/2035","fill-opacity":0,"stroke-opacity":1,"stroke":"#ff0000","District Name":"05/04/2011","Expiration Date":"5,6,16,17,20","Approval Date":"Existing"},"id":"Chicago_TIF_Districts.8"},{"type":"Feature","geometry":{"type":"MultiPolygon","coordinates":[[[[-87.5754962774608,41.7223292406168],[-87.5754721508314,41.7216047767934],[-87.5742190548397,41.721620710687],[-87.5742048081169,41.7219722184563],[-87.570457258891,41.72199374025],[-87.5704598635202,41.7221220341257],[-87.5698304562831,41.722197823133],[-87.569391021056,41.7222050567628],[-87.5693827506127,41.7218209076325],[-87.5695267256989,41.7217019939514],[-87.5693905451583,41.721608165745],[-87.5692460706296,41.7217198316116],[-87.5665668933246,41.7217525899068],[-87.5664153067093,41.7216425748871],[-87.5662829349591,41.7217463585811],[-87.5664316904955,41.7218543254597],[-87.5664400003477,41.7222398471864],[-87.5653694148691,41.722185658516],[-87.5653327013983,41.7220449600638],[-87.5600125697402,41.7221093363815],[-87.5599679964336,41.7188980801365],[-87.5580782083342,41.7189189906266],[-87.5581036188729,41.7207483576653],[-87.5578199903923,41.7207517127331],[-87.5578295810747,41.7221230550012],[-87.5564474544357,41.7221393512183],[-87.5564534764814,41.7225638816106],[-87.5544820779007,41.7225876401462],[-87.5544756702843,41.7221647646303],[-87.551798487671,41.7221950941628],[-87.5517804630489,41.7208229262626],[-87.5512027264295,41.720829751934],[-87.5511821529628,41.7192216647774],[-87.5517584115903,41.7192148282286],[-87.55174204898188,41.718],[-87.55029042685527,41.718],[-87.5503516274108,41.7226372327943],[-87.5459976070616,41.7227892929243],[-87.5477995359657,41.7241057495629],[-87.5478334436089,41.7300071780855],[-87.5500138477206,41.7299810641288],[-87.5500298191618,41.7306264145114],[-87.550543379462,41.7306201445134],[-87.5508390480075,41.7409352581901],[-87.5505329717945,41.7409391003837],[-87.5519360140595,41.7422774424761],[-87.5561637548229,41.7446832573875],[-87.5551936774613,41.7446968633026],[-87.5551971846531,41.7449222488581],[-87.5550728062287,41.7446985143264],[-87.5540959445598,41.7447122018718],[-87.5541095666872,41.745428171905],[-87.5550839385659,41.7454151822855],[-87.5550805490348,41.7451983041399],[-87.5553245238787,41.7453317924828],[-87.5553192094087,41.7449889941263],[-87.5626056827217,41.7449873872435],[-87.562599606827,41.7446006743815],[-87.5638150435585,41.7445846167539],[-87.5638076292298,41.7440953394589],[-87.5599183219399,41.7440823162504],[-87.5599242597935,41.7444546477853],[-87.559462707143,41.7444601024278],[-87.5594594356626,41.7442626008874],[-87.5589465046961,41.7442686392687],[-87.5589417069826,41.7439908846577],[-87.5581874953882,41.7439989162544],[-87.5581956917811,41.7444749980476],[-87.557490509703,41.7443546484988],[-87.5565226542485,41.7444971248191],[-87.5565158915425,41.7440991084093],[-87.5553054409212,41.744107979136],[-87.5552992146592,41.7437453170986],[-87.5533744280538,41.7427204311735],[-87.553372043603,41.7425904453395],[-87.5528639570743,41.7425968748264],[-87.5528600961871,41.7423891598862],[-87.5521649919461,41.7419176292174],[-87.5521333164228,41.7362052547357],[-87.5529364102385,41.7361953447272],[-87.5529172195416,41.7354259307156],[-87.5521156010048,41.7354359064611],[-87.5519984592875,41.7306028239326],[-87.5527970868065,41.7305929942382],[-87.5527865585567,41.7301673901498],[-87.5536136782764,41.7301574899102],[-87.5535995673274,41.7295676256327],[-87.5541460480814,41.7295571880474],[-87.5527463002766,41.728548139014],[-87.5527410688221,41.7283387125767],[-87.5531359331023,41.7283339294697],[-87.5552515129182,41.7298589074858],[-87.5553951319504,41.7356146922729],[-87.5584535028234,41.7355766295026],[-87.5584151814234,41.7341072895128],[-87.5597949007334,41.7340992975512],[-87.5597840817465,41.7336940548936],[-87.5603017628948,41.7340671417358],[-87.5608808478958,41.7340004523838],[-87.5608949223955,41.734501438728],[-87.5625083895918,41.7356523142149],[-87.5634425270057,41.7357623662906],[-87.5642045051815,41.7363113910418],[-87.5642187243701,41.7367653600411],[-87.5648228547837,41.7367573068847],[-87.5648378296936,41.7373002049874],[-87.5655637916759,41.7372906488037],[-87.565902464172,41.7375324892785],[-87.5659102458527,41.7380738292357],[-87.5666113315859,41.7385826379233],[-87.5666167041133,41.7389440984033],[-87.5674136690333,41.7389423089658],[-87.5683011971005,41.7383086126269],[-87.5659999142917,41.7366531515501],[-87.5659771674228,41.7358752190484],[-87.5512919074585,41.7252906510767],[-87.5512767924246,41.7247084620218],[-87.5518488688294,41.7246962349894],[-87.5518278694344,41.7236397902735],[-87.5704944038018,41.7234074799044],[-87.5705867484575,41.7226703964442],[-87.5718178473864,41.7226549722785],[-87.5718278881303,41.7223752977041],[-87.5754962774608,41.7223292406168]]],[[[-87.5489981503975,41.7186580246013],[-87.54898047508136,41.718],[-87.54797440607126,41.718],[-87.5475567840112,41.7190450051503],[-87.5484146103872,41.719034896461],[-87.5484098813189,41.7186649849623],[-87.5489981503975,41.7186580246013]]]]},"properties":{"name":"Commercial Avenue","description":"12/31/2026","fill-opacity":0,"stroke-opacity":1,"stroke":"#ff0000","District Name":"11/13/2002","Expiration Date":"7,8,10","Approval Date":"Existing"},"id":"Chicago_TIF_Districts.11"},{"type":"Feature","geometry":{"type":"Polygon","coordinates":[[[-87.5561637548229,41.7446832573875],[-87.5516646368514,41.7420845384078],[-87.5505329717945,41.7409391003837],[-87.549739077706,41.7398318515598],[-87.549249288709,41.7387214038172],[-87.5490098862251,41.7375225938808],[-87.5487678809992,41.7375257721022],[-87.5487574549186,41.7356971160797],[-87.5493461767058,41.7356898277938],[-87.5492214496872,41.7306359946222],[-87.5500298191618,41.7306264145114],[-87.5500138477206,41.7299810641288],[-87.5478334436089,41.7300071780855],[-87.5477995359657,41.7241057495629],[-87.5458703662953,41.7226913339902],[-87.543527237924,41.722720496629],[-87.5435862426379,41.7238523842711],[-87.5463581449957,41.7238896784949],[-87.5462886911347,41.7241898698692],[-87.5433510193245,41.724245014472],[-87.5429879821182,41.7254119788661],[-87.544328493363,41.7256352462056],[-87.5443316171733,41.7257451505665],[-87.5428590300166,41.7259502935581],[-87.5424877382933,41.7275975621219],[-87.5421395631473,41.7275744181937],[-87.5408517033949,41.7286682063982],[-87.54,41.72903556896823],[-87.54,41.72943112170902],[-87.5402894199034,41.7298074954369],[-87.54,41.72992795670521],[-87.5400468960635,41.7337561048171],[-87.5431309332666,41.7337212983691],[-87.5432243686496,41.7375913814398],[-87.5459634937729,41.7375620780839],[-87.5460003344047,41.7392733492071],[-87.5415545539573,41.7393251829128],[-87.5417043183816,41.7448755771207],[-87.5429389691521,41.7448592137],[-87.5429566025889,41.7456741177647],[-87.5468251103919,41.7456267879461],[-87.5468061489599,41.7448085277544],[-87.5492494454034,41.7447804948028],[-87.5492602130716,41.7453230069072],[-87.5504738718987,41.7453038397358],[-87.5504631474695,41.7447628649334],[-87.5550728062287,41.7446985143264],[-87.5551971846531,41.7449222488581],[-87.5551936774613,41.7446968633026],[-87.5561637548229,41.7446832573875]]]},"properties":{"name":"South Chicago","description":"12/31/2036","fill-opacity":0,"stroke-opacity":1,"stroke":"#ff0000","District Name":"04/12/2000","Expiration Date":"7,10","Approval Date":"Existing"},"id":"Chicago_TIF_Districts.45"},{"type":"Feature","geometry":{"type":"Polygon","coordinates":[[[-87.5831945681096,41.7519228794465],[-87.5831865507047,41.7516042142968],[-87.5827663545874,41.7516095841051],[-87.5827614002415,41.7510413809431],[-87.5829978704468,41.7510383669664],[-87.5829850529578,41.7503387634746],[-87.5827358306853,41.7501590355092],[-87.5830930117659,41.7498794694359],[-87.5829358789068,41.749766154955],[-87.5831919107065,41.7495826319019],[-87.5807596700031,41.7478400670812],[-87.5807972413747,41.7498192296896],[-87.5815198696162,41.749810128231],[-87.5815476833567,41.751056990995],[-87.5758530274836,41.7511734893734],[-87.5758589632036,41.7515165112908],[-87.5748825295409,41.7515288953342],[-87.5748756508975,41.751142013362],[-87.5673188030735,41.7512373640581],[-87.5668027972802,41.7513686856429],[-87.5662097591988,41.7510186170427],[-87.5662138189958,41.7512993859476],[-87.5648767577827,41.7505575579439],[-87.5648877509805,41.7512828399288],[-87.554228511566,41.7515260988457],[-87.5535302133147,41.7514670248794],[-87.5534523189911,41.7499941253134],[-87.5514491528047,41.7500213717664],[-87.5515703963149,41.7514478884836],[-87.5467203430249,41.7515206647897],[-87.5467319323184,41.7520878104933],[-87.5479770843012,41.752070378352],[-87.5485907360668,41.7526401709803],[-87.5491519531992,41.752303874485],[-87.5498151295965,41.7524066451301],[-87.5506903462711,41.7529744230881],[-87.5509624240481,41.7528114529556],[-87.551185956277,41.7530196782298],[-87.5522994765477,41.7523473791744],[-87.5527997127585,41.7530316926055],[-87.5525855158684,41.753160646937],[-87.5531713711817,41.7537057472507],[-87.5535255673949,41.7535100685118],[-87.5543156633206,41.7541867930328],[-87.5539362779733,41.7544166618744],[-87.554105015854,41.7545737376267],[-87.5546757925259,41.7542278740498],[-87.5549503013645,41.7544819892648],[-87.5543760278351,41.7548260189608],[-87.5551395175282,41.7555349954118],[-87.5555415742254,41.7552913899048],[-87.5558254466348,41.7555538001581],[-87.5562698155608,41.7552668803943],[-87.5541925413327,41.7533427997362],[-87.554170696784,41.7523733663556],[-87.5600452530588,41.7522915966446],[-87.5600429091193,41.7521680282661],[-87.5606562747506,41.7521595309415],[-87.5606588822867,41.7522967082012],[-87.5675745724936,41.7522464228666],[-87.5675720124113,41.7521220203433],[-87.5688067273557,41.7528156590877],[-87.5687922111852,41.752105612529],[-87.5746443166238,41.752094459592],[-87.5746590006734,41.7527414094859],[-87.5753663337305,41.7527376038336],[-87.575364070692,41.7526332760286],[-87.5761206378588,41.7526268274413],[-87.5761072303537,41.7520127249026],[-87.5831945681096,41.7519228794465]]]},"properties":{"name":"Avalon Park/South Shore","description":"12/31/2026","fill-opacity":0,"stroke-opacity":1,"stroke":"#ff0000","District Name":"07/31/2002","Expiration Date":"7,8","Approval Date":"Existing"},"id":"Chicago_TIF_Districts.66"},{"type":"Feature","geometry":{"type":"Polygon","coordinates":[[[-87.5400089180844,41.7223909882012],[-87.54,41.72239109867619],[-87.54,41.72279176658542],[-87.5400089180844,41.7223909882012]]]},"properties":{"name":"Ewing Avenue","description":"12/31/2034","fill-opacity":0,"stroke-opacity":1,"stroke":"#ff0000","District Name":"03/10/2010","Expiration Date":"10","Approval Date":"Existing"},"id":"Chicago_TIF_Districts.67"},{"type":"Feature","geometry":{"type":"Polygon","coordinates":[[[-87.6043335507275,41.7237035487472],[-87.6043172350797,41.7230080913643],[-87.6038619512447,41.7229201823936],[-87.6040578905771,41.7220615224825],[-87.6036849948538,41.7220671387886],[-87.6020337125098,41.7293010008327],[-87.6008918399552,41.7293173299502],[-87.6009169796674,41.7304195506931],[-87.6005845547076,41.731147582329],[-87.5972991905698,41.7311931068161],[-87.5973428790068,41.733014401437],[-87.5951583833727,41.7330447365383],[-87.5950761333378,41.729400531455],[-87.5938636853705,41.7294178732682],[-87.5938239367696,41.7275939123398],[-87.5926146743439,41.7276113164577],[-87.592573901735,41.7257902561652],[-87.5918794405767,41.7258009257384],[-87.5908887010545,41.7241372384353],[-87.5949567371322,41.7241131081506],[-87.5949364713203,41.7232140069844],[-87.5973541114007,41.7231777770242],[-87.5974012201339,41.7250848664725],[-87.5987232878754,41.7250652240415],[-87.5987313241423,41.725427470104],[-87.5993410671774,41.7254184130663],[-87.5993490143646,41.7258711549433],[-87.6024556539576,41.725825049629],[-87.60424183616239,41.718],[-87.60043838200315,41.718],[-87.5997854395306,41.7184794501098],[-87.5972119393853,41.7185152995398],[-87.59719512175964,41.718],[-87.59574457088033,41.718],[-87.5957621237349,41.7185390443211],[-87.5946786020173,41.718557643049],[-87.5946891575882,41.7189407169797],[-87.5988568206138,41.7188726517965],[-87.5989463309997,41.7216145211398],[-87.5946547813112,41.7216783994381],[-87.5946673462283,41.7220652640106],[-87.5870544904212,41.7220690386775],[-87.587151550925,41.7221775758118],[-87.5865808320772,41.7221860772253],[-87.5870400968764,41.7229203409066],[-87.5847629392099,41.7229533903401],[-87.5847745919895,41.723502164054],[-87.583185941591,41.7235222658606],[-87.583221846673,41.7251027857225],[-87.5842907972183,41.7250887371997],[-87.5843336323704,41.7270105940339],[-87.58411634071,41.7270132290695],[-87.5841322297196,41.7277328919526],[-87.5841367025163,41.7279139786936],[-87.5842642269597,41.7279122962856],[-87.5844214619127,41.7297793437074],[-87.5845546772932,41.7359423389556],[-87.5841282025763,41.7359486697176],[-87.5841405138397,41.7364657223202],[-87.5758319341625,41.7365763448066],[-87.575749137076,41.7333146838018],[-87.5730766066892,41.7333520828166],[-87.5731721394761,41.73700116156],[-87.5684702400349,41.7370683526923],[-87.5735592116254,41.740816988861],[-87.574695445154,41.7407995782348],[-87.5746392000306,41.7375218471737],[-87.5792467686198,41.7373646334914],[-87.5845541525006,41.7374069176465],[-87.5846239229972,41.7406614054642],[-87.5851405023214,41.7406541776969],[-87.5851561960802,41.741385527792],[-87.5846396874405,41.7413924787685],[-87.5847943498641,41.7482037532073],[-87.5843718796007,41.7485397118012],[-87.5860617152615,41.7497891360323],[-87.5866114732583,41.7497450767797],[-87.5864249035978,41.7422749228895],[-87.5859083272514,41.7422807842781],[-87.5858926689158,41.7415519610262],[-87.5864092508759,41.7415451111377],[-87.586346708238,41.7386328306401],[-87.5858300781377,41.7386396250551],[-87.5857949283418,41.7370008799904],[-87.5862528442027,41.7369946376427],[-87.586261090158,41.7373799802554],[-87.5879828482011,41.7373580224107],[-87.5879740581483,41.7369711277513],[-87.5882566399271,41.7369672540085],[-87.5882432110543,41.7364004117905],[-87.5857826369553,41.7363989740396],[-87.585726518398,41.7337693966442],[-87.5862716142161,41.7337618522258],[-87.586219722393,41.7313482820706],[-87.5856750026364,41.7313560448145],[-87.5856399453484,41.7297160917828],[-87.5861843592212,41.7297083253896],[-87.5860598286796,41.7245903399832],[-87.585530705003,41.7245981711611],[-87.5855241169832,41.7242881313471],[-87.5871752693696,41.7242308057424],[-87.5871832091862,41.7245577594809],[-87.5897606924152,41.7289124579654],[-87.5900325229107,41.7296536072655],[-87.5904587421003,41.7296408620806],[-87.5946407434566,41.7366990803404],[-87.5933896881316,41.7367164423984],[-87.593411743141,41.7373166538917],[-87.5943686600222,41.7373129882582],[-87.5957260843914,41.7376963633538],[-87.5975433155744,41.7409527732753],[-87.597713081498,41.7420148638316],[-87.5976116890821,41.7439571285861],[-87.5990723966796,41.743940895121],[-87.5998580065649,41.7404573856793],[-87.6014071638334,41.7404423667525],[-87.6013661018195,41.7389602335422],[-87.6002918067176,41.7389732548634],[-87.5998780433999,41.7403693141892],[-87.6006949716501,41.7367958551214],[-87.6011830135519,41.7367889647325],[-87.6012950003945,41.7366067013016],[-87.6016099234174,41.7352275518416],[-87.6022919113251,41.7322402370639],[-87.6017497359191,41.7321731469141],[-87.6020851353365,41.7307041116399],[-87.6026423709876,41.7307051526161],[-87.6030335355004,41.7289918193824],[-87.6033817138728,41.7274580912193],[-87.6030704194192,41.7274624833349],[-87.6034809360689,41.7256286578388],[-87.6032428786727,41.725632189359],[-87.6035767412599,41.7241696694416],[-87.6037179047063,41.7243653568924],[-87.6037905198404,41.724047148542],[-87.6043276265512,41.7238441372157],[-87.6043335507275,41.7237035487472]]]},"properties":{"name":"Stony Island Avenue Commercial and Burnside Industrial Corridors","description":"12/31/2034","fill-opacity":0,"stroke-opacity":1,"stroke":"#ff0000","District Name":"06/10/1998","Expiration Date":"8","Approval Date":"Existing"},"id":"Chicago_TIF_Districts.69"},{"type":"Feature","geometry":{"type":"Polygon","coordinates":[[[-87.6053182191137,41.7649368177322],[-87.596455592239,41.7585561542772],[-87.5957335863511,41.7585605663018],[-87.59312577124301,41.77],[-87.59583459420965,41.77],[-87.5957246656139,41.7659891248514],[-87.6043864466304,41.7658906466571],[-87.6048118044524,41.7655254567986],[-87.604679453789,41.7654303788484],[-87.6053182191137,41.7649368177322]]]},"properties":{"name":"73rd/University","description":"12/31/2030","fill-opacity":0,"stroke-opacity":1,"stroke":"#ff0000","District Name":"09/13/2006","Expiration Date":"5","Approval Date":"Existing"},"id":"Chicago_TIF_Districts.72"},{"type":"Feature","geometry":{"type":"MultiPolygon","coordinates":[[[[-87.5918914131494,41.7209609156533],[-87.59179623845738,41.718],[-87.58207519515784,41.718],[-87.5843107536658,41.720500264611],[-87.5844172343361,41.7204467855443],[-87.5859766520603,41.722019881173],[-87.585982314235,41.722195005451],[-87.587151550925,41.7221775758118],[-87.5870544904212,41.7220690386775],[-87.5913907521437,41.7221142989252],[-87.5917511093357,41.7216059629773],[-87.5918914131494,41.7209609156533]]],[[[-87.5484657263939,41.7227971139003],[-87.5484146103872,41.719034896461],[-87.5475567840112,41.7190450051503],[-87.54797440607126,41.718],[-87.54,41.718],[-87.54,41.72788767191464],[-87.5409621683825,41.7273585059948],[-87.541752420715,41.7265415378213],[-87.5401358588012,41.7256311902236],[-87.5401335901312,41.7249102446314],[-87.5403300747509,41.7244350534392],[-87.5426552077179,41.7244084550581],[-87.5431987866791,41.7237658536767],[-87.5431607657063,41.72272503956],[-87.5484657263939,41.7227971139003]]]]},"properties":{"name":"Lake Calumet Area Industrial","description":"12/31/2036","fill-opacity":0,"stroke-opacity":1,"stroke":"#ff0000","District Name":"12/13/2000","Expiration Date":"7,8,9,10","Approval Date":"Existing"},"id":"Chicago_TIF_Districts.79"},{"type":"Feature","geometry":{"type":"Polygon","coordinates":[[[-87.5966256610816,41.7513703191671],[-87.5963946852229,41.751372674347],[-87.5966214367368,41.7504131782805],[-87.5960708654999,41.750418593559],[-87.5960841556004,41.7509674291368],[-87.5953327478179,41.7509724496414],[-87.5953363663148,41.7511244877941],[-87.593629000477,41.7511284920894],[-87.5936330626471,41.7512918038415],[-87.5931699319076,41.7512965049128],[-87.5931623725024,41.7509757526578],[-87.59170785121,41.7510799373519],[-87.5917117466727,41.751244565315],[-87.5907372629947,41.7512536942594],[-87.5907321784881,41.751042334428],[-87.5888691158914,41.7510582312408],[-87.5888722850988,41.7511899779594],[-87.5884504823082,41.7511957516109],[-87.5884473860408,41.7510641142987],[-87.5882052188581,41.751051676689],[-87.5864045444378,41.7497474187064],[-87.5860617152615,41.7497891360323],[-87.5853343016807,41.7492314981692],[-87.5853475008602,41.7497962275017],[-87.5840770107334,41.7488865841247],[-87.582941244403,41.7497661899977],[-87.5830983772717,41.7498795044713],[-87.5827411950117,41.7501590705536],[-87.5834547205705,41.7506736158163],[-87.583461170357,41.751032557346],[-87.5827614002415,41.7510413809431],[-87.5827663545874,41.7516095841051],[-87.5831865507047,41.7516042142968],[-87.5831945681096,41.7519228794465],[-87.5842960658169,41.7519088803245],[-87.5843064319223,41.7523222937876],[-87.5849753021775,41.7523121079845],[-87.5850607371101,41.7568643040322],[-87.5839624687185,41.7568769592479],[-87.583999715625,41.758375754022],[-87.5799247341873,41.7583516838728],[-87.579850610922,41.7551065062253],[-87.5783863347091,41.7551240605035],[-87.5784276449212,41.7569406735752],[-87.5759790582234,41.7569687970962],[-87.5760227160269,41.7589664940974],[-87.5810426847563,41.7589092407888],[-87.5810590067101,41.7595892196713],[-87.5830653170627,41.7607081260475],[-87.583655311846,41.7607012243927],[-87.5836090085672,41.7588798573581],[-87.5850758569844,41.7588630196197],[-87.5851054120288,41.7605945582067],[-87.5856160782757,41.7605888017875],[-87.5856661753994,41.7625059642024],[-87.5852006892706,41.7625108922811],[-87.5852873036461,41.7656947830179],[-87.581892598281,41.7656226833027],[-87.5818707510754,41.7654833064962],[-87.5815371695086,41.7654859977532],[-87.5815436355386,41.7657359350508],[-87.5812073219764,41.7657829662575],[-87.5799793565254,41.7657519787184],[-87.5799747776635,41.7655606165376],[-87.5792358470063,41.7655694902041],[-87.579240351687,41.7657669995606],[-87.5787494968825,41.765826401009],[-87.5764107685824,41.7656480608882],[-87.5763800583931,41.7642440975794],[-87.5734056765511,41.7642761165375],[-87.5733233690568,41.7658460105915],[-87.5669814498118,41.7658875317888],[-87.5666296878043,41.7657779379696],[-87.5665891151104,41.7638057643251],[-87.5653471490161,41.7638182258204],[-87.5656919656695,41.7645320039472],[-87.5660866746533,41.7645287333224],[-87.5660943741671,41.7649038751721],[-87.5652221920242,41.7649371038953],[-87.566275155335,41.7661656455417],[-87.5605977936947,41.7662182162504],[-87.5604590420472,41.7663870451193],[-87.5593990800182,41.7666144371522],[-87.5594443489951,41.7692283489452],[-87.5597728910599,41.7685006907043],[-87.5601314035507,41.7683170959387],[-87.5607482898611,41.7683273927323],[-87.5615672493333,41.7685073239964],[-87.562497927977,41.768958148193],[-87.56309928400503,41.77],[-87.56672462693783,41.77],[-87.5666634423925,41.7672347239692],[-87.5699192447397,41.767205195872],[-87.5699056391419,41.7666893983571],[-87.5720706527937,41.7667668245286],[-87.5720650692681,41.7665573465759],[-87.5737436021692,41.7665402457147],[-87.5737487411179,41.7667300685721],[-87.5744515248165,41.7667250043573],[-87.5744986032292,41.7665186150357],[-87.5749595715815,41.7665139193426],[-87.5756640655566,41.7665479866969],[-87.5756718739012,41.7667680709634],[-87.5776668633763,41.7667800622367],[-87.5776595264939,41.7665056941845],[-87.5788891533114,41.7664708338416],[-87.5788843893937,41.7662832240188],[-87.5793724789323,41.7662786896107],[-87.5793764040512,41.7664255896797],[-87.5798689695176,41.7664207530067],[-87.5798778088717,41.7667555051161],[-87.5813813845592,41.7667479016843],[-87.581378073762,41.7666107205553],[-87.5826302382195,41.7664602898239],[-87.582727975729,41.7698216977466],[-87.5836931649051,41.7698110811093],[-87.5836132396675,41.7669987710567],[-87.5845071400826,41.7669933320135],[-87.5844997822361,41.7667047115725],[-87.5851002375784,41.7667086237395],[-87.5851564352722,41.7689829109027],[-87.5858203747151,41.7689765302103],[-87.5857645782994,41.76960828767],[-87.5860218737872,41.7696055705675],[-87.5856152416652,41.7697004541136],[-87.58562398146975,41.77],[-87.58695990269226,41.77],[-87.5870588093997,41.7688625155715],[-87.590910153582,41.7688261062706],[-87.59093769890808,41.77],[-87.59237925260048,41.77],[-87.5933152160359,41.7659191695892],[-87.5911019456367,41.765932115376],[-87.5910929194326,41.7655490433063],[-87.5871353398157,41.7655672805988],[-87.5870790824884,41.7634060585623],[-87.5886086539876,41.7633941382021],[-87.5885940584086,41.7628241631778],[-87.5873854782168,41.7628330079768],[-87.5867881649183,41.7624916345926],[-87.5868310336873,41.759242117368],[-87.5873808711231,41.7592369623319],[-87.5873709608019,41.7588583496043],[-87.588491445385,41.7588482206526],[-87.5884446425573,41.7570320699988],[-87.5906362006013,41.7570130516438],[-87.5906460225422,41.7573945178065],[-87.592547143726,41.7573779213305],[-87.5925722023322,41.7576490926101],[-87.5931092475195,41.7576498816636],[-87.5933302217603,41.7578088696763],[-87.5939122718701,41.7573014799606],[-87.593475804324,41.7569883417272],[-87.5942608642566,41.7569815394706],[-87.5905816805181,41.7543416733221],[-87.5918133934673,41.7533344024979],[-87.5919958980447,41.7533325586229],[-87.5919648037661,41.7518840292828],[-87.5944075959198,41.7519283061547],[-87.5949056745503,41.7518547230308],[-87.5949010704865,41.7516489252899],[-87.5953490268624,41.7516445042315],[-87.5953769362537,41.7528105723799],[-87.5941878467783,41.7529704955663],[-87.5942132783313,41.7541655375183],[-87.5949064660905,41.7541581289269],[-87.5949242773939,41.7549447601292],[-87.5942300099706,41.7549533089249],[-87.5942564492044,41.755686146952],[-87.594916343825,41.7566872240033],[-87.5953448436981,41.7569941057398],[-87.5966256610816,41.7513703191671]]]},"properties":{"name":"71st & Stony Island","description":"12/31/2034","fill-opacity":0,"stroke-opacity":1,"stroke":"#ff0000","District Name":"10/07/1998","Expiration Date":"5,7,8,20","Approval Date":"Existing"},"id":"Chicago_TIF_Districts.89"},{"type":"Feature","geometry":{"type":"Polygon","coordinates":[[[-87.615,41.750633812120206],[-87.6058591121261,41.7507801143343],[-87.6056612494737,41.7439617214954],[-87.6050275065102,41.7439723757195],[-87.6051132259363,41.7403166243121],[-87.6067689773197,41.7403024075855],[-87.6067554437971,41.739832222538],[-87.607944200555,41.7398142659279],[-87.6079544031693,41.7403438455803],[-87.6091887187453,41.740325172421],[-87.6091867227349,41.7401440665174],[-87.6091399932985,41.7383220998368],[-87.6081106716337,41.7383380563779],[-87.6079128994917,41.7365109359639],[-87.6073643541625,41.7365192455043],[-87.6073550873397,41.7361319105891],[-87.6055090605254,41.7361597499035],[-87.6051832032477,41.7237928022112],[-87.6066417153015,41.7243338839422],[-87.6090777551832,41.7255398026567],[-87.6107286129358,41.7255098544344],[-87.6067009424934,41.7237005408742],[-87.6050155309468,41.7231286034316],[-87.6051266824304,41.721906951818],[-87.6040893412623,41.7219237934791],[-87.6038619512447,41.7229201823936],[-87.6043172350797,41.7230080913643],[-87.6043276265512,41.7238441372157],[-87.6037905198404,41.724047148542],[-87.6037179047063,41.7243653568924],[-87.6035767412599,41.7241696694416],[-87.6032428786727,41.725632189359],[-87.6034809360689,41.7256286578388],[-87.6034475449375,41.7258103327127],[-87.6037721646423,41.725805534368],[-87.6039025072931,41.7276319335716],[-87.6036016193861,41.7289055587877],[-87.6038592111862,41.7289073798715],[-87.6040186419801,41.7361813655519],[-87.6019424233755,41.7362118603065],[-87.6018805797114,41.7364827646117],[-87.6013388783813,41.7364144402346],[-87.6011830135519,41.7367889647325],[-87.6006949716501,41.7367958551214],[-87.6006033987324,41.7371937461496],[-87.6041990574056,41.7370751231554],[-87.6045182425922,41.7503418046355],[-87.6038186463565,41.7503491099616],[-87.6038329159845,41.7508561283653],[-87.6033237769334,41.7508602018993],[-87.6033287969133,41.7510372886444],[-87.6028708745355,41.7510418980553],[-87.6028651834499,41.7508392764237],[-87.60165864732,41.7509203513717],[-87.6016527022243,41.7507146002146],[-87.6008993704009,41.750722369371],[-87.6009052403419,41.7509281741053],[-87.5992341043049,41.751014218312],[-87.5992300976003,41.7508769778962],[-87.5985322568516,41.7508839327029],[-87.5985262483972,41.7506781818945],[-87.5977769518154,41.7506858348342],[-87.5977936019238,41.7512495773694],[-87.5973940992566,41.7512536610744],[-87.5973438708706,41.7514737059418],[-87.5966005022694,41.7514812370039],[-87.5953448436981,41.7569941057398],[-87.5970953339183,41.7569889804112],[-87.5970913263385,41.7563455268561],[-87.5980072090889,41.7563460675343],[-87.598104158849,41.7562199561744],[-87.5980454847511,41.751753231904],[-87.5997120393759,41.7516401172737],[-87.5997150387362,41.7517633866475],[-87.6009761068606,41.7517780836666],[-87.6009718894863,41.7516030935031],[-87.6014306220169,41.7515984419079],[-87.601435066515,41.7517825487442],[-87.6045556584125,41.7516864754215],[-87.6048566530143,41.7638419336487],[-87.6053814852364,41.7642204996566],[-87.6053962446168,41.7649930901854],[-87.604679453789,41.7654303788484],[-87.6048118044524,41.7655254567986],[-87.6045834864406,41.765702826994],[-87.6045896721123,41.765888314667],[-87.607849194434,41.7659281015236],[-87.606915991629,41.7652378412563],[-87.6068836347333,41.7639404084253],[-87.6061845648963,41.7639528902792],[-87.6058809911742,41.7516790667369],[-87.615,41.75159285186964],[-87.615,41.750633812120206]]]},"properties":{"name":"87th/Cottage Grove","description":"12/31/2026","fill-opacity":0,"stroke-opacity":1,"stroke":"#ff0000","District Name":"11/13/2002","Expiration Date":"5,6,8","Approval Date":"Existing"},"id":"Chicago_TIF_Districts.94"}]}