{"type":"FeatureCollection","features":[{"type":"Feature","geometry":{"type":"Polygon","coordinates":[[[-87.566303,41.755361],[-87.566233,41.751728],[-87.552288,41.751919],[-87.556128,41.755489],[-87.566303,41.755361]]]},"properties":{"name":"Census Tract 431301","description":"17031431301","fill-opacity":0,"stroke-opacity":1,"stroke":"#ff0000","Census Tract ID":"27.5%","Area":"3236","Unemployment Rate":"1595","Population":"0","Labor Force":"0"},"id":"Chicago_Triple_Benefit_Zones.4"},{"type":"Feature","geometry":{"type":"Polygon","coordinates":[[[-87.56645,41.762619],[-87.566303,41.755361],[-87.556128,41.755489],[-87.56012,41.759179],[-87.563295,41.7627],[-87.56645,41.762619]]]},"properties":{"name":"Census Tract 431302","description":"17031431302","fill-opacity":0,"stroke-opacity":1,"stroke":"#ff0000","Census Tract ID":"33.1%","Area":"4329","Unemployment Rate":"2035","Population":"0","Labor Force":"0"},"id":"Chicago_Triple_Benefit_Zones.5"},{"type":"Feature","geometry":{"type":"Polygon","coordinates":[[[-87.561386,41.751795],[-87.561232,41.742708],[-87.552601,41.742823],[-87.551523,41.742067],[-87.551799,41.743994],[-87.55294,41.744637],[-87.553975,41.744622],[-87.554072,41.751895],[-87.561386,41.751795]]]},"properties":{"name":"Census Tract 460302","description":"17031460302","fill-opacity":0,"stroke-opacity":1,"stroke":"#ff0000","Census Tract ID":"31.5%","Area":"3322","Unemployment Rate":"1363","Population":"0","Labor Force":"0"},"id":"Chicago_Triple_Benefit_Zones.6"},{"type":"Feature","geometry":{"type":"Polygon","coordinates":[[[-87.561232,41.742708],[-87.561154,41.737259],[-87.551431,41.737378],[-87.551523,41.742067],[-87.552601,41.742823],[-87.561232,41.742708]]]},"properties":{"name":"Census Tract 460301","description":"17031460301","fill-opacity":0,"stroke-opacity":1,"stroke":"#ff0000","Census Tract ID":"25.3%","Area":"3634","Unemployment Rate":"1613","Population":"0","Labor Force":"0"},"id":"Chicago_Triple_Benefit_Zones.7"},{"type":"Feature","geometry":{"type":"Polygon","coordinates":[[[-87.57640345205479,41.77],[-87.576302,41.766214],[-87.571397,41.766262],[-87.571513,41.77],[-87.57640345205479,41.77]]]},"properties":{"name":"Census Tract 430101","description":"17031430101","fill-opacity":0,"stroke-opacity":1,"stroke":"#ff0000","Census Tract ID":"26.7%","Area":"3199","Unemployment Rate":"1684","Population":"0","Labor Force":"0"},"id":"Chicago_Triple_Benefit_Zones.8"},{"type":"Feature","geometry":{"type":"Polygon","coordinates":[[[-87.614958,41.751114],[-87.614819,41.745638],[-87.614165,41.745647],[-87.614129,41.744274],[-87.612311,41.744305],[-87.61235,41.745678],[-87.611747,41.745689],[-87.607508,41.745759],[-87.607472,41.744388],[-87.606257,41.744408],[-87.606295,41.745778],[-87.605084,41.745798],[-87.605215,41.751286],[-87.614958,41.751114]]]},"properties":{"name":"Census Tract 440201","description":"17031440201","fill-opacity":0,"stroke-opacity":1,"stroke":"#ff0000","Census Tract ID":"17.2%","Area":"5198","Unemployment Rate":"2229","Population":"0","Labor Force":"0"},"id":"Chicago_Triple_Benefit_Zones.9"}]}